{
  "type": "FeatureCollection",
  "features": [
    {
      "type": "Feature",
      "id": "def12da7-3315-4a93-855b-1f7731a4a253",
      "geometry": null,
      "properties": {
        "title": "faroe-tunnels",
        "class": "Folder",
        "visible": true,
        "labelVisible": true
      }
    },
    {
      "type": "Feature",
      "id": "41a18ddd-eadc-408e-a21e-36c913bd4059",
      "geometry": {
        "type": "LineString",
        "coordinates": [
          [
            -6.9404881,
            62.0945576,
            0,
            0
          ],
          [
            -6.9397639,
            62.0941769,
            0,
            0
          ],
          [
            -6.9390005,
            62.0936735,
            0,
            0
          ],
          [
            -6.9383898,
            62.0932178,
            0,
            0
          ],
          [
            -6.9379011,
            62.0927813,
            0,
            0
          ],
          [
            -6.9374358,
            62.0922632,
            0,
            0
          ],
          [
            -6.9370342,
            62.0916939,
            0,
            0
          ],
          [
            -6.9365898,
            62.0909636,
            0,
            0
          ],
          [
            -6.9365158,
            62.0908028,
            0,
            0
          ],
          [
            -6.9339473,
            62.0852202,
            0,
            0
          ],
          [
            -6.93093,
            62.0793252,
            0,
            0
          ],
          [
            -6.9292059,
            62.0742014,
            0,
            0
          ],
          [
            -6.9278438,
            62.0703014,
            0,
            0
          ]
        ]
      },
      "properties": {
        "title": "Kollfjarðartunnilin",
        "description": "",
        "class": "Shape",
        "folderId": "def12da7-3315-4a93-855b-1f7731a4a253",
        "visible": true,
        "labelVisible": true,
        "stroke": "#FF0000",
        "stroke-width": 3,
        "stroke-opacity": 1,
        "fill": "#FF0000",
        "fill-opacity": 0.2
      }
    },
    {
      "type": "Feature",
      "id": "9dd0b4b9-9559-4854-b72c-3f25baf8e7d0",
      "geometry": {
        "type": "LineString",
        "coordinates": [
          [
            -6.97828,
            62.218761,
            0,
            0
          ],
          [
            -6.9310149,
            62.2230982,
            0,
            0
          ]
        ]
      },
      "properties": {
        "title": "Norðskálatunnilin",
        "description": "",
        "class": "Shape",
        "folderId": "def12da7-3315-4a93-855b-1f7731a4a253",
        "visible": true,
        "labelVisible": true,
        "stroke": "#FF0000",
        "stroke-width": 3,
        "stroke-opacity": 1,
        "fill": "#FF0000",
        "fill-opacity": 0.2
      }
    },
    {
      "type": "Feature",
      "id": "7a056721-96b2-4f90-8f9d-ec2ad08636f4",
      "geometry": {
        "type": "LineString",
        "coordinates": [
          [
            -6.7938585,
            61.5284491,
            0,
            0
          ],
          [
            -6.7916491,
            61.526959,
            0,
            0
          ],
          [
            -6.7894946,
            61.5254554,
            0,
            0
          ],
          [
            -6.7886164,
            61.5244247,
            0,
            0
          ],
          [
            -6.7881045,
            61.5228465,
            0,
            0
          ],
          [
            -6.7858637,
            61.5120348,
            0,
            0
          ],
          [
            -6.7852381,
            61.5098649,
            0,
            0
          ],
          [
            -6.7843598,
            61.5086408,
            0,
            0
          ],
          [
            -6.7818979,
            61.5071631,
            0,
            0
          ]
        ]
      },
      "properties": {
        "title": "Hovs Tunnilin",
        "description": "",
        "class": "Shape",
        "folderId": "def12da7-3315-4a93-855b-1f7731a4a253",
        "visible": true,
        "labelVisible": true,
        "stroke": "#FF0000",
        "stroke-width": 3,
        "stroke-opacity": 1,
        "fill": "#FF0000",
        "fill-opacity": 0.2
      }
    },
    {
      "type": "Feature",
      "id": "39eb187d-be0c-46d4-a90d-f9122c958bd5",
      "geometry": {
        "type": "LineString",
        "coordinates": [
          [
            -6.9138162,
            61.5603268,
            0,
            0
          ],
          [
            -6.9249926,
            61.5721476,
            0,
            0
          ]
        ]
      },
      "properties": {
        "title": "Hvalbiartunnilin",
        "description": "",
        "class": "Shape",
        "folderId": "def12da7-3315-4a93-855b-1f7731a4a253",
        "visible": true,
        "labelVisible": true,
        "stroke": "#FF0000",
        "stroke-width": 3,
        "stroke-opacity": 1,
        "fill": "#FF0000",
        "fill-opacity": 0.2
      }
    },
    {
      "type": "Feature",
      "id": "529e5df4-68a7-4891-84b7-7c5e110e4c4c",
      "geometry": {
        "type": "LineString",
        "coordinates": [
          [
            -6.9262988,
            61.6104038,
            0,
            0
          ],
          [
            -6.9309673,
            61.6235737,
            0,
            0
          ]
        ]
      },
      "properties": {
        "title": "Sandvíkartunnilin",
        "description": "",
        "class": "Shape",
        "folderId": "def12da7-3315-4a93-855b-1f7731a4a253",
        "visible": true,
        "labelVisible": true,
        "stroke": "#FF0000",
        "stroke-width": 3,
        "stroke-opacity": 1,
        "fill": "#FF0000",
        "fill-opacity": 0.2
      }
    },
    {
      "type": "Feature",
      "id": "35475f2a-6f20-4083-b57f-5bb469d67124",
      "geometry": {
        "type": "LineString",
        "coordinates": [
          [
            -7.02591,
            62.1254516,
            0,
            0
          ],
          [
            -7.0250551,
            62.1255162,
            0,
            0
          ],
          [
            -7.0242043,
            62.1255904,
            0,
            0
          ],
          [
            -7.0233535,
            62.1256989,
            0,
            0
          ],
          [
            -7.0201726,
            62.1263364,
            0,
            0
          ],
          [
            -7.0194423,
            62.1264893,
            0,
            0
          ],
          [
            -7.0186652,
            62.1266952,
            0,
            0
          ],
          [
            -7.0170054,
            62.1272015,
            0,
            0
          ],
          [
            -7.0163786,
            62.1273694,
            0,
            0
          ],
          [
            -7.0157264,
            62.1274901,
            0,
            0
          ],
          [
            -7.01496,
            62.127613,
            0,
            0
          ],
          [
            -7.0126108,
            62.1278812,
            0,
            0
          ]
        ]
      },
      "properties": {
        "title": "Leyna tunnilin",
        "description": "",
        "class": "Shape",
        "folderId": "def12da7-3315-4a93-855b-1f7731a4a253",
        "visible": true,
        "labelVisible": true,
        "stroke": "#FF0000",
        "stroke-width": 3,
        "stroke-opacity": 1,
        "fill": "#FF0000",
        "fill-opacity": 0.2
      }
    },
    {
      "type": "Feature",
      "id": "a5c5742c-2062-41e7-9230-2a7645632402",
      "geometry": {
        "type": "LineString",
        "coordinates": [
          [
            -7.0434756,
            62.1232804,
            0,
            0
          ],
          [
            -7.0453513,
            62.1230296,
            0,
            0
          ],
          [
            -7.04631,
            62.1228699,
            0,
            0
          ],
          [
            -7.0471896,
            62.122713,
            0,
            0
          ],
          [
            -7.0479837,
            62.1225523,
            0,
            0
          ],
          [
            -7.0487762,
            62.1223549,
            0,
            0
          ],
          [
            -7.0498076,
            62.122041,
            0,
            0
          ],
          [
            -7.0505726,
            62.121779,
            0,
            0
          ],
          [
            -7.0511274,
            62.1215807,
            0,
            0
          ],
          [
            -7.0516801,
            62.1213557,
            0,
            0
          ],
          [
            -7.0558114,
            62.1195431,
            0,
            0
          ],
          [
            -7.0578115,
            62.1185934,
            0,
            0
          ],
          [
            -7.0611369,
            62.1170236,
            0,
            0
          ],
          [
            -7.0650405,
            62.1151873,
            0,
            0
          ],
          [
            -7.0951996,
            62.1012131,
            0,
            0
          ],
          [
            -7.0971797,
            62.1004298,
            0,
            0
          ],
          [
            -7.0990971,
            62.0997157,
            0,
            0
          ],
          [
            -7.1008095,
            62.0991263,
            0,
            0
          ],
          [
            -7.1019176,
            62.0988298,
            0,
            0
          ],
          [
            -7.1030258,
            62.098566,
            0,
            0
          ],
          [
            -7.1045494,
            62.0983028,
            0,
            0
          ],
          [
            -7.1054699,
            62.0982025,
            0,
            0
          ],
          [
            -7.1063818,
            62.0981266,
            0,
            0
          ],
          [
            -7.1074181,
            62.0980859,
            0,
            0
          ],
          [
            -7.1084807,
            62.0980778,
            0,
            0
          ],
          [
            -7.1100045,
            62.0981188,
            0,
            0
          ],
          [
            -7.1110685,
            62.0981685,
            0,
            0
          ],
          [
            -7.1121348,
            62.0982534,
            0,
            0
          ],
          [
            -7.1132931,
            62.0983999,
            0,
            0
          ],
          [
            -7.1145017,
            62.0985999,
            0,
            0
          ],
          [
            -7.1155541,
            62.098837,
            0,
            0
          ],
          [
            -7.1165191,
            62.0990822,
            0,
            0
          ]
        ]
      },
      "properties": {
        "title": "Vágatunnilin",
        "description": "",
        "class": "Shape",
        "folderId": "def12da7-3315-4a93-855b-1f7731a4a253",
        "visible": true,
        "labelVisible": true,
        "stroke": "#FF0000",
        "stroke-width": 3,
        "stroke-opacity": 1,
        "fill": "#FF0000",
        "fill-opacity": 0.2
      }
    },
    {
      "type": "Feature",
      "id": "08489d94-ab7c-49ef-936a-d23c47a2efbc",
      "geometry": {
        "type": "LineString",
        "coordinates": [
          [
            -6.7186266,
            62.2149372,
            0,
            0
          ],
          [
            -6.7200494,
            62.2151415,
            0,
            0
          ],
          [
            -6.7224825,
            62.2152171,
            0,
            0
          ],
          [
            -6.7268555,
            62.2150407,
            0,
            0
          ],
          [
            -6.7302889,
            62.2145271,
            0,
            0
          ],
          [
            -6.7320867,
            62.2139789,
            0,
            0
          ],
          [
            -6.7342275,
            62.2131217,
            0,
            0
          ],
          [
            -6.7530538,
            62.2052472,
            0,
            0
          ],
          [
            -6.753436,
            62.2050873,
            0,
            0
          ]
        ]
      },
      "properties": {
        "title": "Leirvíkartunnilin",
        "description": "",
        "class": "Shape",
        "folderId": "def12da7-3315-4a93-855b-1f7731a4a253",
        "visible": true,
        "labelVisible": true,
        "stroke": "#FF0000",
        "stroke-width": 3,
        "stroke-opacity": 1,
        "fill": "#FF0000",
        "fill-opacity": 0.2
      }
    },
    {
      "type": "Feature",
      "id": "6147dea7-7b8c-459e-a86c-f8388709bdad",
      "geometry": {
        "type": "LineString",
        "coordinates": [
          [
            -6.5740063,
            62.2181421,
            0,
            0
          ],
          [
            -6.5744356,
            62.2172627,
            0,
            0
          ],
          [
            -6.5750129,
            62.2164056,
            0,
            0
          ],
          [
            -6.5759306,
            62.215475,
            0,
            0
          ],
          [
            -6.5769089,
            62.2145879,
            0,
            0
          ],
          [
            -6.5786148,
            62.2134554,
            0,
            0
          ],
          [
            -6.5806598,
            62.2125439,
            0,
            0
          ],
          [
            -6.5824244,
            62.2118677,
            0,
            0
          ],
          [
            -6.5844053,
            62.2113958,
            0,
            0
          ],
          [
            -6.5867153,
            62.210975,
            0,
            0
          ],
          [
            -6.5959941,
            62.2099559,
            0,
            0
          ],
          [
            -6.6055599,
            62.209117,
            0,
            0
          ],
          [
            -6.6536312,
            62.2049981,
            0,
            0
          ],
          [
            -6.6614246,
            62.2045375,
            0,
            0
          ],
          [
            -6.6644926,
            62.2044714,
            0,
            0
          ],
          [
            -6.6662935,
            62.2044742,
            0,
            0
          ],
          [
            -6.6678496,
            62.2045606,
            0,
            0
          ],
          [
            -6.670083,
            62.2047768,
            0,
            0
          ],
          [
            -6.6721189,
            62.2050631,
            0,
            0
          ],
          [
            -6.6735222,
            62.2053088,
            0,
            0
          ],
          [
            -6.6749628,
            62.2056246,
            0,
            0
          ],
          [
            -6.6764557,
            62.2060292,
            0,
            0
          ],
          [
            -6.677938,
            62.206461,
            0,
            0
          ],
          [
            -6.6814648,
            62.2075012,
            0,
            0
          ]
        ]
      },
      "properties": {
        "title": "Norðoyatunnilin",
        "description": "",
        "class": "Shape",
        "folderId": "def12da7-3315-4a93-855b-1f7731a4a253",
        "visible": true,
        "labelVisible": true,
        "stroke": "#FF0000",
        "stroke-width": 3,
        "stroke-opacity": 1,
        "fill": "#FF0000",
        "fill-opacity": 0.2
      }
    },
    {
      "type": "Feature",
      "id": "a35cfc7d-99a0-480b-a8fb-3ce7efd92540",
      "geometry": {
        "type": "LineString",
        "coordinates": [
          [
            -6.5407785,
            62.2580734,
            0,
            0
          ],
          [
            -6.5406892,
            62.258162,
            0,
            0
          ],
          [
            -6.5405118,
            62.2583294,
            0,
            0
          ],
          [
            -6.5403231,
            62.2584972,
            0,
            0
          ],
          [
            -6.5400952,
            62.2586868,
            0,
            0
          ],
          [
            -6.5397973,
            62.2589146,
            0,
            0
          ],
          [
            -6.5395535,
            62.2590872,
            0,
            0
          ],
          [
            -6.5392873,
            62.2592654,
            0,
            0
          ],
          [
            -6.5390258,
            62.2594324,
            0,
            0
          ],
          [
            -6.5387129,
            62.2596276,
            0,
            0
          ],
          [
            -6.522444,
            62.2696555,
            0,
            0
          ],
          [
            -6.5220472,
            62.269909,
            0,
            0
          ],
          [
            -6.5217732,
            62.2700959,
            0,
            0
          ],
          [
            -6.5214951,
            62.2703021,
            0,
            0
          ],
          [
            -6.5212316,
            62.2705166,
            0,
            0
          ],
          [
            -6.5210023,
            62.2707175,
            0,
            0
          ],
          [
            -6.5207454,
            62.2709687,
            0,
            0
          ],
          [
            -6.5205169,
            62.2712218,
            0,
            0
          ],
          [
            -6.520334,
            62.2714481,
            0,
            0
          ],
          [
            -6.5202006,
            62.2716357,
            0,
            0
          ],
          [
            -6.5200998,
            62.2717859,
            0,
            0
          ],
          [
            -6.5199453,
            62.2720571,
            0,
            0
          ],
          [
            -6.5198502,
            62.2722524,
            0,
            0
          ],
          [
            -6.5197851,
            62.2724109,
            0,
            0
          ],
          [
            -6.5197225,
            62.2725864,
            0,
            0
          ],
          [
            -6.5196445,
            62.2728463,
            0,
            0
          ],
          [
            -6.5196087,
            62.2730354,
            0,
            0
          ],
          [
            -6.5195843,
            62.2731966,
            0,
            0
          ],
          [
            -6.519568,
            62.273396,
            0,
            0
          ],
          [
            -6.5195648,
            62.2735938,
            0,
            0
          ],
          [
            -6.5195729,
            62.2737712,
            0,
            0
          ],
          [
            -6.5196022,
            62.2740133,
            0,
            0
          ],
          [
            -6.5196477,
            62.2742377,
            0,
            0
          ],
          [
            -6.5197136,
            62.2744828,
            0,
            0
          ],
          [
            -6.5198022,
            62.2747184,
            0,
            0
          ],
          [
            -6.5198551,
            62.2748406,
            0,
            0
          ]
        ]
      },
      "properties": {
        "title": "Hvannasundstunnilin",
        "description": "",
        "class": "Shape",
        "folderId": "def12da7-3315-4a93-855b-1f7731a4a253",
        "visible": true,
        "labelVisible": true,
        "stroke": "#FF0000",
        "stroke-width": 3,
        "stroke-opacity": 1,
        "fill": "#FF0000",
        "fill-opacity": 0.2
      }
    },
    {
      "type": "Feature",
      "id": "95002633-40b9-469c-b5f2-f96743528522",
      "geometry": {
        "type": "LineString",
        "coordinates": [
          [
            -6.5783472,
            62.2512353,
            0,
            0
          ],
          [
            -6.5781667,
            62.2512936,
            0,
            0
          ],
          [
            -6.5779813,
            62.2513507,
            0,
            0
          ],
          [
            -6.5778036,
            62.2514045,
            0,
            0
          ],
          [
            -6.5776138,
            62.2514582,
            0,
            0
          ],
          [
            -6.577389,
            62.251519,
            0,
            0
          ],
          [
            -6.577165,
            62.2515771,
            0,
            0
          ],
          [
            -6.576933,
            62.2516345,
            0,
            0
          ],
          [
            -6.5767316,
            62.2516812,
            0,
            0
          ],
          [
            -6.5765608,
            62.2517187,
            0,
            0
          ],
          [
            -6.5763909,
            62.2517554,
            0,
            0
          ],
          [
            -6.5761941,
            62.2517952,
            0,
            0
          ],
          [
            -6.5759721,
            62.2518378,
            0,
            0
          ],
          [
            -6.5757799,
            62.251873,
            0,
            0
          ],
          [
            -6.5755276,
            62.2519161,
            0,
            0
          ],
          [
            -6.5752969,
            62.2519528,
            0,
            0
          ],
          [
            -6.5749993,
            62.2519969,
            0,
            0
          ],
          [
            -6.5747249,
            62.2520333,
            0,
            0
          ],
          [
            -6.5745215,
            62.2520586,
            0,
            0
          ],
          [
            -6.5743181,
            62.2520816,
            0,
            0
          ],
          [
            -6.573802,
            62.2521336,
            0,
            0
          ],
          [
            -6.573319,
            62.2521715,
            0,
            0
          ],
          [
            -6.5727336,
            62.2522033,
            0,
            0
          ],
          [
            -6.5721644,
            62.2522192,
            0,
            0
          ],
          [
            -6.5716375,
            62.2522252,
            0,
            0
          ],
          [
            -6.5711513,
            62.2522199,
            0,
            0
          ],
          [
            -6.5705155,
            62.2522018,
            0,
            0
          ],
          [
            -6.5554131,
            62.2516347,
            0,
            0
          ],
          [
            -6.554465,
            62.2516013,
            0,
            0
          ],
          [
            -6.5539121,
            62.2515892,
            0,
            0
          ],
          [
            -6.5534828,
            62.2515847,
            0,
            0
          ],
          [
            -6.5529705,
            62.2515915,
            0,
            0
          ],
          [
            -6.5525575,
            62.2516021,
            0,
            0
          ],
          [
            -6.5520924,
            62.2516241,
            0,
            0
          ],
          [
            -6.5516891,
            62.2516498,
            0,
            0
          ],
          [
            -6.551159,
            62.2516952,
            0,
            0
          ],
          [
            -6.550676,
            62.251746,
            0,
            0
          ],
          [
            -6.5500922,
            62.2518247,
            0,
            0
          ],
          [
            -6.5495588,
            62.2519065,
            0,
            0
          ],
          [
            -6.5491279,
            62.2519837,
            0,
            0
          ],
          [
            -6.5486969,
            62.2520693,
            0,
            0
          ],
          [
            -6.5482335,
            62.2521752,
            0,
            0
          ],
          [
            -6.5478237,
            62.2522775,
            0,
            0
          ],
          [
            -6.5474382,
            62.252385,
            0,
            0
          ],
          [
            -6.5471325,
            62.2524751,
            0,
            0
          ],
          [
            -6.5467896,
            62.2525836,
            0,
            0
          ],
          [
            -6.5463552,
            62.2527332,
            0,
            0
          ],
          [
            -6.5460072,
            62.2528672,
            0,
            0
          ],
          [
            -6.5456787,
            62.2530035,
            0,
            0
          ],
          [
            -6.5453437,
            62.2531519,
            0,
            0
          ],
          [
            -6.5450038,
            62.253317,
            0,
            0
          ],
          [
            -6.5447403,
            62.2534555,
            0,
            0
          ],
          [
            -6.5444671,
            62.2536088,
            0,
            0
          ],
          [
            -6.54422,
            62.2537568,
            0,
            0
          ],
          [
            -6.5440816,
            62.2538472,
            0,
            0
          ]
        ]
      },
      "properties": {
        "title": "Árnafjarðartunnilin",
        "description": "",
        "class": "Shape",
        "folderId": "def12da7-3315-4a93-855b-1f7731a4a253",
        "visible": true,
        "labelVisible": true,
        "stroke": "#FF0000",
        "stroke-width": 3,
        "stroke-opacity": 1,
        "fill": "#FF0000",
        "fill-opacity": 0.2
      }
    },
    {
      "type": "Feature",
      "id": "3503450e-1c83-457b-8086-8e845d630b4d",
      "geometry": {
        "type": "LineString",
        "coordinates": [
          [
            -7.4036546,
            62.0997013,
            0,
            0
          ],
          [
            -7.4273538,
            62.1062425,
            0,
            0
          ]
        ]
      },
      "properties": {
        "title": "Gásadalstunnilin",
        "description": "",
        "class": "Shape",
        "folderId": "def12da7-3315-4a93-855b-1f7731a4a253",
        "visible": true,
        "labelVisible": true,
        "stroke": "#FF0000",
        "stroke-width": 3,
        "stroke-opacity": 1,
        "fill": "#FF0000",
        "fill-opacity": 0.2
      }
    },
    {
      "type": "Feature",
      "id": "8d155fee-16f6-41de-ad08-8d54fa5ba791",
      "geometry": {
        "type": "LineString",
        "coordinates": [
          [
            -6.5999182,
            62.2675216,
            0,
            0
          ],
          [
            -6.6562285,
            62.2720362,
            0,
            0
          ],
          [
            -6.6569324,
            62.2721406,
            0,
            0
          ],
          [
            -6.6575519,
            62.2722644,
            0,
            0
          ]
        ]
      },
      "properties": {
        "title": "Kunoyartunnilin",
        "description": "",
        "class": "Shape",
        "folderId": "def12da7-3315-4a93-855b-1f7731a4a253",
        "visible": true,
        "labelVisible": true,
        "stroke": "#FF0000",
        "stroke-width": 3,
        "stroke-opacity": 1,
        "fill": "#FF0000",
        "fill-opacity": 0.2
      }
    },
    {
      "type": "Feature",
      "id": "e0ee6eb3-9857-49fe-b599-7a5d68a0bddc",
      "geometry": {
        "type": "LineString",
        "coordinates": [
          [
            -6.7444559,
            61.4130345,
            0,
            0
          ],
          [
            -6.7492262,
            61.4184251,
            0,
            0
          ],
          [
            -6.7526079,
            61.4247947,
            0,
            0
          ],
          [
            -6.7569759,
            61.429849,
            0,
            0
          ],
          [
            -6.7614144,
            61.4335213,
            0,
            0
          ],
          [
            -6.769209,
            61.4378937,
            0,
            0
          ]
        ]
      },
      "properties": {
        "title": "Sumbiar tunnilin",
        "description": "",
        "class": "Shape",
        "folderId": "def12da7-3315-4a93-855b-1f7731a4a253",
        "visible": true,
        "labelVisible": true,
        "stroke": "#FF0000",
        "stroke-width": 3,
        "stroke-opacity": 1,
        "fill": "#FF0000",
        "fill-opacity": 0.2
      }
    },
    {
      "type": "Feature",
      "id": "6a45be2c-cff8-4934-a068-0e6ef08d1264",
      "geometry": {
        "type": "LineString",
        "coordinates": [
          [
            -6.7943441,
            62.3561817,
            0,
            0
          ],
          [
            -6.7830012,
            62.3454929,
            0,
            0
          ],
          [
            -6.7751282,
            62.3380737,
            0,
            0
          ],
          [
            -6.7750941,
            62.3380416,
            0,
            0
          ]
        ]
      },
      "properties": {
        "title": "Trøllanestunnilin",
        "description": "",
        "class": "Shape",
        "folderId": "def12da7-3315-4a93-855b-1f7731a4a253",
        "visible": true,
        "labelVisible": true,
        "stroke": "#FF0000",
        "stroke-width": 3,
        "stroke-opacity": 1,
        "fill": "#FF0000",
        "fill-opacity": 0.2
      }
    },
    {
      "type": "Feature",
      "id": "a07d5040-9e1f-4292-b671-6b54de9f6363",
      "geometry": {
        "type": "LineString",
        "coordinates": [
          [
            -6.7543649,
            62.3172975,
            0,
            0
          ],
          [
            -6.7466725,
            62.3121656,
            0,
            0
          ]
        ]
      },
      "properties": {
        "title": "Ritudalstunnilin",
        "description": "",
        "class": "Shape",
        "folderId": "def12da7-3315-4a93-855b-1f7731a4a253",
        "visible": true,
        "labelVisible": true,
        "stroke": "#FF0000",
        "stroke-width": 3,
        "stroke-opacity": 1,
        "fill": "#FF0000",
        "fill-opacity": 0.2
      }
    },
    {
      "type": "Feature",
      "id": "89736dac-5e42-4c6e-bb06-0af22d81aaa0",
      "geometry": {
        "type": "LineString",
        "coordinates": [
          [
            -6.7707938,
            62.3284987,
            0,
            0
          ],
          [
            -6.7601418,
            62.3197597,
            0,
            0
          ]
        ]
      },
      "properties": {
        "title": "Mikladalstunnilin",
        "description": "",
        "class": "Shape",
        "folderId": "def12da7-3315-4a93-855b-1f7731a4a253",
        "visible": true,
        "labelVisible": true,
        "stroke": "#FF0000",
        "stroke-width": 3,
        "stroke-opacity": 1,
        "fill": "#FF0000",
        "fill-opacity": 0.2
      }
    },
    {
      "type": "Feature",
      "id": "58348648-30d1-4bda-bb32-f9b572c4cc1c",
      "geometry": {
        "type": "LineString",
        "coordinates": [
          [
            -6.7463829,
            62.3086916,
            0,
            0
          ],
          [
            -6.7463722,
            62.30854,
            0,
            0
          ],
          [
            -6.7463397,
            62.3083434,
            0,
            0
          ],
          [
            -6.7461962,
            62.3081121,
            0,
            0
          ],
          [
            -6.7459251,
            62.3078702,
            0,
            0
          ],
          [
            -6.7331841,
            62.3000396,
            0,
            0
          ]
        ]
      },
      "properties": {
        "title": "Villingardalstunnilin",
        "description": "",
        "class": "Shape",
        "folderId": "def12da7-3315-4a93-855b-1f7731a4a253",
        "visible": true,
        "labelVisible": true,
        "stroke": "#FF0000",
        "stroke-width": 3,
        "stroke-opacity": 1,
        "fill": "#FF0000",
        "fill-opacity": 0.2
      }
    },
    {
      "type": "Feature",
      "id": "c8605316-c9ca-4a47-bfe2-0e29361fa935",
      "geometry": {
        "type": "LineString",
        "coordinates": [
          [
            -6.7575185,
            62.0990345,
            0,
            0
          ],
          [
            -6.748309,
            62.0995493,
            0,
            0
          ],
          [
            -6.7449518,
            62.0998158,
            0,
            0
          ],
          [
            -6.7435972,
            62.099981,
            0,
            0
          ],
          [
            -6.7424232,
            62.1001753,
            0,
            0
          ],
          [
            -6.7408805,
            62.1005276,
            0,
            0
          ],
          [
            -6.7400955,
            62.1007267,
            0,
            0
          ],
          [
            -6.7386041,
            62.1012351,
            0,
            0
          ],
          [
            -6.7378637,
            62.1015221,
            0,
            0
          ],
          [
            -6.7372133,
            62.1017964,
            0,
            0
          ],
          [
            -6.7365392,
            62.1021063,
            0,
            0
          ],
          [
            -6.735976,
            62.1023954,
            0,
            0
          ],
          [
            -6.7354157,
            62.1027219,
            0,
            0
          ],
          [
            -6.7347464,
            62.1031676,
            0,
            0
          ],
          [
            -6.7342537,
            62.1035255,
            0,
            0
          ],
          [
            -6.7335955,
            62.1041267,
            0,
            0
          ],
          [
            -6.7331439,
            62.1045821,
            0,
            0
          ],
          [
            -6.7329415,
            62.1048215,
            0,
            0
          ],
          [
            -6.7327272,
            62.1051357,
            0,
            0
          ],
          [
            -6.7325348,
            62.1054133,
            0,
            0
          ],
          [
            -6.7323751,
            62.1056848,
            0,
            0
          ],
          [
            -6.7321775,
            62.1061278,
            0,
            0
          ],
          [
            -6.7320086,
            62.1066871,
            0,
            0
          ],
          [
            -6.7319054,
            62.1071757,
            0,
            0
          ],
          [
            -6.7318766,
            62.1075651,
            0,
            0
          ],
          [
            -6.7318909,
            62.1078211,
            0,
            0
          ],
          [
            -6.731917,
            62.1080908,
            0,
            0
          ],
          [
            -6.7320489,
            62.1086916,
            0,
            0
          ],
          [
            -6.7323472,
            62.1094026,
            0,
            0
          ],
          [
            -6.7327639,
            62.1101268,
            0,
            0
          ],
          [
            -6.7329866,
            62.1104473,
            0,
            0
          ]
        ]
      },
      "properties": {
        "title": "Eysturoyartunnilin",
        "description": "",
        "class": "Shape",
        "folderId": "def12da7-3315-4a93-855b-1f7731a4a253",
        "visible": true,
        "labelVisible": true,
        "stroke": "#FF0000",
        "stroke-width": 3,
        "stroke-opacity": 1,
        "fill": "#FF0000",
        "fill-opacity": 0.2
      }
    },
    {
      "type": "Feature",
      "id": "9ebdc40d-6ad2-48df-808a-ed9445afbd24",
      "geometry": {
        "type": "LineString",
        "coordinates": [
          [
            -6.5297033,
            62.3137772,
            0,
            0
          ],
          [
            -6.5283111,
            62.3166188,
            0,
            0
          ],
          [
            -6.5250492,
            62.3193499,
            0,
            0
          ],
          [
            -6.5087046,
            62.3280137,
            0,
            0
          ]
        ]
      },
      "properties": {
        "title": "Viðareiðistunnilin",
        "description": "",
        "class": "Shape",
        "folderId": "def12da7-3315-4a93-855b-1f7731a4a253",
        "visible": true,
        "labelVisible": true,
        "stroke": "#FF0000",
        "stroke-width": 3,
        "stroke-opacity": 1,
        "fill": "#FF0000",
        "fill-opacity": 0.2
      }
    },
    {
      "type": "Feature",
      "id": "263652cb-35fb-4e61-8b73-d80fc47b591b",
      "geometry": {
        "type": "LineString",
        "coordinates": [
          [
            -6.8152319,
            61.9616701,
            0,
            0
          ],
          [
            -6.8149914,
            61.9615922,
            0,
            0
          ],
          [
            -6.808654,
            61.9595382,
            0,
            0
          ],
          [
            -6.8049263,
            61.9578147,
            0,
            0
          ],
          [
            -6.8015956,
            61.9556742,
            0,
            0
          ],
          [
            -6.7995896,
            61.953264,
            0,
            0
          ],
          [
            -6.798258,
            61.9507522,
            0,
            0
          ],
          [
            -6.7985612,
            61.9479189,
            0,
            0
          ],
          [
            -6.8000552,
            61.9453068,
            0,
            0
          ],
          [
            -6.8022463,
            61.9428028,
            0,
            0
          ],
          [
            -6.8116801,
            61.9334961,
            0,
            0
          ],
          [
            -6.8156727,
            61.9263953,
            0,
            0
          ],
          [
            -6.8187855,
            61.9192883,
            0,
            0
          ],
          [
            -6.8219945,
            61.9132198,
            0,
            0
          ],
          [
            -6.8275678,
            61.9051512,
            0,
            0
          ],
          [
            -6.832018,
            61.8994509,
            0,
            0
          ],
          [
            -6.8340163,
            61.8951448,
            0,
            0
          ],
          [
            -6.8355949,
            61.8893603,
            0,
            0
          ],
          [
            -6.8357612,
            61.8847155,
            0,
            0
          ],
          [
            -6.8359276,
            61.8798348,
            0,
            0
          ],
          [
            -6.8366276,
            61.8763574,
            0,
            0
          ],
          [
            -6.8372333,
            61.8745122,
            0,
            0
          ],
          [
            -6.8383695,
            61.8728308,
            0,
            0
          ],
          [
            -6.8394501,
            61.871318,
            0,
            0
          ]
        ]
      },
      "properties": {
        "title": "Sandoyartunnilin",
        "description": "",
        "class": "Shape",
        "folderId": "def12da7-3315-4a93-855b-1f7731a4a253",
        "visible": true,
        "labelVisible": true,
        "stroke": "#FF0000",
        "stroke-width": 3,
        "stroke-opacity": 1,
        "fill": "#FF0000",
        "fill-opacity": 0.2
      }
    },
    {
      "type": "Feature",
      "id": "815fa00c-8a5f-4a7d-90c9-e4eb8726906f",
      "geometry": {
        "type": "LineString",
        "coordinates": [
          [
            -6.7793089,
            62.3464433,
            0,
            0
          ],
          [
            -6.7793607,
            62.3463755,
            0,
            0
          ],
          [
            -6.7830012,
            62.3454929,
            0,
            0
          ]
        ]
      },
      "properties": {
        "title": "Teymur í Djúpadal",
        "description": "",
        "class": "Shape",
        "folderId": "def12da7-3315-4a93-855b-1f7731a4a253",
        "visible": true,
        "labelVisible": true,
        "stroke": "#FF0000",
        "stroke-width": 3,
        "stroke-opacity": 1,
        "fill": "#FF0000",
        "fill-opacity": 0.2
      }
    },
    {
      "type": "Feature",
      "id": "8d73fdfa-44a8-47c9-92a1-9723196cc975",
      "geometry": {
        "type": "LineString",
        "coordinates": [
          [
            -6.8819189,
            61.5642445,
            0,
            0
          ],
          [
            -6.8820907,
            61.5642641,
            0,
            0
          ],
          [
            -6.8825669,
            61.5643184,
            0,
            0
          ],
          [
            -6.8841914,
            61.5645695,
            0,
            0
          ],
          [
            -6.88588,
            61.5648883,
            0,
            0
          ],
          [
            -6.8880261,
            61.5653941,
            0,
            0
          ],
          [
            -6.920689,
            61.5742495,
            0,
            0
          ],
          [
            -6.9229959,
            61.5748098,
            0,
            0
          ],
          [
            -6.9243013,
            61.5750809,
            0,
            0
          ]
        ]
      },
      "properties": {
        "title": "Nýggjur Hvalbiartunnilin",
        "description": "",
        "class": "Shape",
        "folderId": "def12da7-3315-4a93-855b-1f7731a4a253",
        "visible": true,
        "labelVisible": true,
        "stroke": "#FF0000",
        "stroke-width": 3,
        "stroke-opacity": 1,
        "fill": "#FF0000",
        "fill-opacity": 0.2
      }
    },
    {
      "type": "Feature",
      "id": "8d567840-4941-4465-82bd-94f2deeb631c",
      "geometry": {
        "type": "LineString",
        "coordinates": [
          [
            -6.8007028,
            62.2376681,
            0,
            0
          ],
          [
            -6.8004535,
            62.2377585,
            0,
            0
          ]
        ]
      },
      "properties": {
        "title": "Bakkavegur",
        "description": "",
        "class": "Shape",
        "folderId": "def12da7-3315-4a93-855b-1f7731a4a253",
        "visible": true,
        "labelVisible": true,
        "stroke": "#FF0000",
        "stroke-width": 3,
        "stroke-opacity": 1,
        "fill": "#FF0000",
        "fill-opacity": 0.2
      }
    },
    {
      "type": "Feature",
      "id": "314b29cb-07ba-42ca-85ea-b3ea5dc9894e",
      "geometry": {
        "type": "LineString",
        "coordinates": [
          [
            -6.7984509,
            62.0292513,
            0,
            0
          ],
          [
            -6.7986915,
            62.0286834,
            0,
            0
          ],
          [
            -6.7988914,
            62.0282913,
            0,
            0
          ],
          [
            -6.8018823,
            62.0161517,
            0,
            0
          ],
          [
            -6.8020862,
            62.0155794,
            0,
            0
          ],
          [
            -6.8024796,
            62.0148713,
            0,
            0
          ],
          [
            -6.8028168,
            62.0143891,
            0,
            0
          ],
          [
            -6.8031801,
            62.0139849,
            0,
            0
          ],
          [
            -6.8035221,
            62.0136533,
            0,
            0
          ],
          [
            -6.8041186,
            62.0130826,
            0,
            0
          ]
        ]
      },
      "properties": {
        "title": "Húsareynstunnilin",
        "description": "",
        "class": "Shape",
        "folderId": "def12da7-3315-4a93-855b-1f7731a4a253",
        "visible": true,
        "labelVisible": true,
        "stroke": "#FF0000",
        "stroke-width": 3,
        "stroke-opacity": 1,
        "fill": "#FF0000",
        "fill-opacity": 0.2
      }
    },
    {
      "type": "Feature",
      "id": "016e2665-67b9-464c-9200-2eff47960887",
      "geometry": {
        "type": "LineString",
        "coordinates": [
          [
            -6.960733,
            61.6022149,
            0,
            0
          ],
          [
            -6.960775,
            61.6020883,
            0,
            0
          ]
        ]
      },
      "properties": {
        "title": "Hamarsá",
        "description": "",
        "class": "Shape",
        "folderId": "def12da7-3315-4a93-855b-1f7731a4a253",
        "visible": true,
        "labelVisible": true,
        "stroke": "#FF0000",
        "stroke-width": 3,
        "stroke-opacity": 1,
        "fill": "#FF0000",
        "fill-opacity": 0.2
      }
    },
    {
      "type": "Feature",
      "id": "70af65c4-0ce3-4f89-aec7-f710193f2649",
      "geometry": {
        "type": "LineString",
        "coordinates": [
          [
            -6.6765906,
            61.8046979,
            0,
            0
          ],
          [
            -6.6763711,
            61.8044203,
            0,
            0
          ],
          [
            -6.6761366,
            61.8040712,
            0,
            0
          ],
          [
            -6.6759514,
            61.8037214,
            0,
            0
          ],
          [
            -6.6756358,
            61.803142,
            0,
            0
          ],
          [
            -6.6703967,
            61.7934421,
            0,
            0
          ],
          [
            -6.6693631,
            61.7914078,
            0,
            0
          ],
          [
            -6.6691943,
            61.7909664,
            0,
            0
          ],
          [
            -6.6690235,
            61.790353,
            0,
            0
          ],
          [
            -6.6689563,
            61.789756,
            0,
            0
          ],
          [
            -6.6689688,
            61.7892159,
            0,
            0
          ],
          [
            -6.6690671,
            61.7886811,
            0,
            0
          ],
          [
            -6.6693146,
            61.7881353,
            0,
            0
          ],
          [
            -6.6696552,
            61.7876526,
            0,
            0
          ],
          [
            -6.6700146,
            61.7873408,
            0,
            0
          ],
          [
            -6.671129,
            61.7866249,
            0,
            0
          ],
          [
            -6.6714561,
            61.7864653,
            0,
            0
          ],
          [
            -6.6718751,
            61.7863002,
            0,
            0
          ],
          [
            -6.6724238,
            61.7861223,
            0,
            0
          ]
        ]
      },
      "properties": {
        "title": "Dalstunnilin",
        "description": "",
        "class": "Shape",
        "folderId": "def12da7-3315-4a93-855b-1f7731a4a253",
        "visible": true,
        "labelVisible": true,
        "stroke": "#FF0000",
        "stroke-width": 3,
        "stroke-opacity": 1,
        "fill": "#FF0000",
        "fill-opacity": 0.2
      }
    },
    {
      "type": "Feature",
      "id": "cbf7ce0c-b933-4241-84f7-73f71954588c",
      "geometry": {
        "type": "LineString",
        "coordinates": [
          [
            -6.756687,
            62.1118817,
            0,
            0
          ],
          [
            -6.7566739,
            62.1119001,
            0,
            0
          ],
          [
            -6.7565483,
            62.1120957,
            0,
            0
          ],
          [
            -6.7564683,
            62.1122319,
            0,
            0
          ],
          [
            -6.7563133,
            62.1125077,
            0,
            0
          ],
          [
            -6.7562582,
            62.1126068,
            0,
            0
          ],
          [
            -6.7566649,
            62.1126579,
            0,
            0
          ],
          [
            -6.7570106,
            62.1125647,
            0,
            0
          ],
          [
            -6.7575928,
            62.1120885,
            0,
            0
          ],
          [
            -6.756687,
            62.1118817,
            0,
            0
          ]
        ]
      },
      "properties": {
        "title": "Tunnilsmunni",
        "description": "",
        "class": "Shape",
        "folderId": "def12da7-3315-4a93-855b-1f7731a4a253",
        "visible": true,
        "labelVisible": true,
        "stroke": "#FF0000",
        "stroke-width": 3,
        "stroke-opacity": 1,
        "fill": "#FF0000",
        "fill-opacity": 0.2
      }
    },
    {
      "type": "Feature",
      "id": "29885238-c48f-40dd-9418-02b822811923",
      "geometry": {
        "type": "LineString",
        "coordinates": [
          [
            -6.8449292,
            61.5211539,
            0,
            0
          ],
          [
            -6.8441183,
            61.5217287,
            0,
            0
          ],
          [
            -6.8434234,
            61.5223368,
            0,
            0
          ],
          [
            -6.8417782,
            61.5241563,
            0,
            0
          ],
          [
            -6.8412096,
            61.5247599,
            0,
            0
          ],
          [
            -6.8404693,
            61.5252817,
            0,
            0
          ],
          [
            -6.8396539,
            61.5256295,
            0,
            0
          ],
          [
            -6.8384523,
            61.5260285,
            0,
            0
          ],
          [
            -6.8357915,
            61.5266832,
            0,
            0
          ],
          [
            -6.8335001,
            61.5273026,
            0,
            0
          ],
          [
            -6.8322444,
            61.5278051,
            0,
            0
          ],
          [
            -6.8311762,
            61.5284874,
            0,
            0
          ],
          [
            -6.830319,
            61.5292678,
            0,
            0
          ]
        ]
      },
      "properties": {
        "title": "Fámjinstunnilin",
        "description": "",
        "class": "Shape",
        "folderId": "def12da7-3315-4a93-855b-1f7731a4a253",
        "visible": true,
        "labelVisible": true,
        "stroke": "#FF0000",
        "stroke-width": 3,
        "stroke-opacity": 1,
        "fill": "#FF0000",
        "fill-opacity": 0.2
      }
    },
    {
      "type": "Feature",
      "id": "301d202f-5d80-4f0c-addf-5926564e2d89",
      "geometry": {
        "type": "LineString",
        "coordinates": [
          [
            -6.7958337,
            62.0331149,
            0,
            0
          ],
          [
            -6.7960906,
            62.0331619,
            0,
            0
          ]
        ]
      },
      "properties": {
        "title": "Flatarvegur",
        "description": "",
        "class": "Shape",
        "folderId": "def12da7-3315-4a93-855b-1f7731a4a253",
        "visible": true,
        "labelVisible": true,
        "stroke": "#FF0000",
        "stroke-width": 3,
        "stroke-opacity": 1,
        "fill": "#FF0000",
        "fill-opacity": 0.2
      }
    },
    {
      "type": "Feature",
      "id": "e53e5add-f165-49d6-a021-1ab209e1effe",
      "geometry": {
        "type": "LineString",
        "coordinates": [
          [
            -6.791463,
            62.0369873,
            0,
            0
          ],
          [
            -6.7918087,
            62.037076,
            0,
            0
          ]
        ]
      },
      "properties": {
        "title": "Klingran",
        "description": "",
        "class": "Shape",
        "folderId": "def12da7-3315-4a93-855b-1f7731a4a253",
        "visible": true,
        "labelVisible": true,
        "stroke": "#FF0000",
        "stroke-width": 3,
        "stroke-opacity": 1,
        "fill": "#FF0000",
        "fill-opacity": 0.2
      }
    },
    {
      "type": "Feature",
      "id": "cc76d44d-f271-432c-893c-b9932d18882f",
      "geometry": {
        "type": "LineString",
        "coordinates": [
          [
            -6.7833755,
            62.0216772,
            0,
            0
          ],
          [
            -6.7834102,
            62.0215105,
            0,
            0
          ]
        ]
      },
      "properties": {
        "title": "Sans nom",
        "description": "",
        "class": "Shape",
        "folderId": "def12da7-3315-4a93-855b-1f7731a4a253",
        "visible": true,
        "labelVisible": true,
        "stroke": "#FF0000",
        "stroke-width": 3,
        "stroke-opacity": 1,
        "fill": "#FF0000",
        "fill-opacity": 0.2
      }
    },
    {
      "type": "Feature",
      "id": "f10b8edd-9600-4165-938e-4c0503ab875e",
      "geometry": {
        "type": "LineString",
        "coordinates": [
          [
            -6.9409877,
            62.1504608,
            0,
            0
          ],
          [
            -6.9415154,
            62.1504959,
            0,
            0
          ]
        ]
      },
      "properties": {
        "title": "Sans nom",
        "description": "",
        "class": "Shape",
        "folderId": "def12da7-3315-4a93-855b-1f7731a4a253",
        "visible": true,
        "labelVisible": true,
        "stroke": "#FF0000",
        "stroke-width": 3,
        "stroke-opacity": 1,
        "fill": "#FF0000",
        "fill-opacity": 0.2
      }
    },
    {
      "type": "Feature",
      "id": "2177e0f2-5220-4296-9aad-de2349a11531",
      "geometry": {
        "type": "LineString",
        "coordinates": [
          [
            -7.0010996,
            62.2088078,
            0,
            0
          ],
          [
            -7.001297,
            62.2089577,
            0,
            0
          ]
        ]
      },
      "properties": {
        "title": "Sans nom",
        "description": "",
        "class": "Shape",
        "folderId": "def12da7-3315-4a93-855b-1f7731a4a253",
        "visible": true,
        "labelVisible": true,
        "stroke": "#FF0000",
        "stroke-width": 3,
        "stroke-opacity": 1,
        "fill": "#FF0000",
        "fill-opacity": 0.2
      }
    },
    {
      "type": "Feature",
      "id": "34c20e5a-1e9b-439b-9ced-b1a93ffe478a",
      "geometry": {
        "type": "LineString",
        "coordinates": [
          [
            -6.572312,
            62.2249569,
            0,
            0
          ],
          [
            -6.5726647,
            62.2249737,
            0,
            0
          ]
        ]
      },
      "properties": {
        "title": "Sans nom",
        "description": "",
        "class": "Shape",
        "folderId": "def12da7-3315-4a93-855b-1f7731a4a253",
        "visible": true,
        "labelVisible": true,
        "stroke": "#FF0000",
        "stroke-width": 3,
        "stroke-opacity": 1,
        "fill": "#FF0000",
        "fill-opacity": 0.2
      }
    },
    {
      "type": "Feature",
      "id": "aa3464eb-7ba1-4dcf-b518-7290adcacfb3",
      "geometry": {
        "type": "LineString",
        "coordinates": [
          [
            -6.7718107,
            62.0294801,
            0,
            0
          ],
          [
            -6.7720037,
            62.0295685,
            0,
            0
          ]
        ]
      },
      "properties": {
        "title": "Sans nom",
        "description": "",
        "class": "Shape",
        "folderId": "def12da7-3315-4a93-855b-1f7731a4a253",
        "visible": true,
        "labelVisible": true,
        "stroke": "#FF0000",
        "stroke-width": 3,
        "stroke-opacity": 1,
        "fill": "#FF0000",
        "fill-opacity": 0.2
      }
    },
    {
      "type": "Feature",
      "id": "b4fc3866-4802-4cc0-98cb-d3f697818380",
      "geometry": {
        "type": "LineString",
        "coordinates": [
          [
            -7.0262342,
            62.1908384,
            0,
            0
          ],
          [
            -7.0257157,
            62.1908241,
            0,
            0
          ]
        ]
      },
      "properties": {
        "title": "Sans nom",
        "description": "",
        "class": "Shape",
        "folderId": "def12da7-3315-4a93-855b-1f7731a4a253",
        "visible": true,
        "labelVisible": true,
        "stroke": "#FF0000",
        "stroke-width": 3,
        "stroke-opacity": 1,
        "fill": "#FF0000",
        "fill-opacity": 0.2
      }
    },
    {
      "type": "Feature",
      "id": "a4fc4f37-58ee-44ac-ad81-b180c8cfa521",
      "geometry": {
        "type": "LineString",
        "coordinates": [
          [
            -7.1847626,
            62.1749428,
            0,
            0
          ],
          [
            -7.1568295,
            62.1766379,
            0,
            0
          ]
        ]
      },
      "properties": {
        "title": "Sans nom",
        "description": "",
        "class": "Shape",
        "folderId": "def12da7-3315-4a93-855b-1f7731a4a253",
        "visible": true,
        "labelVisible": true,
        "stroke": "#FF0000",
        "stroke-width": 3,
        "stroke-opacity": 1,
        "fill": "#FF0000",
        "fill-opacity": 0.2
      }
    },
    {
      "type": "Feature",
      "id": "023e4acb-ca9c-4acb-9308-381b0c3a6672",
      "geometry": {
        "type": "LineString",
        "coordinates": [
          [
            -6.8966821,
            62.2191035,
            0,
            0
          ],
          [
            -6.8967484,
            62.219219,
            0,
            0
          ]
        ]
      },
      "properties": {
        "title": "Sans nom",
        "description": "",
        "class": "Shape",
        "folderId": "def12da7-3315-4a93-855b-1f7731a4a253",
        "visible": true,
        "labelVisible": true,
        "stroke": "#FF0000",
        "stroke-width": 3,
        "stroke-opacity": 1,
        "fill": "#FF0000",
        "fill-opacity": 0.2
      }
    },
    {
      "type": "Feature",
      "id": "4f6ac9b0-30d7-4bf6-8e46-c6227140dc98",
      "geometry": {
        "type": "LineString",
        "coordinates": [
          [
            -6.7923889,
            62.0331851,
            0,
            0
          ],
          [
            -6.7925759,
            62.0334446,
            0,
            0
          ]
        ]
      },
      "properties": {
        "title": "Sans nom",
        "description": "",
        "class": "Shape",
        "folderId": "def12da7-3315-4a93-855b-1f7731a4a253",
        "visible": true,
        "labelVisible": true,
        "stroke": "#FF0000",
        "stroke-width": 3,
        "stroke-opacity": 1,
        "fill": "#FF0000",
        "fill-opacity": 0.2
      }
    },
    {
      "type": "Feature",
      "id": "5d9c66bd-88b5-46a0-bc9a-9c78c26a06b1",
      "geometry": {
        "type": "LineString",
        "coordinates": [
          [
            -6.7692939,
            62.1037744,
            0,
            0
          ],
          [
            -6.7692116,
            62.1036569,
            0,
            0
          ]
        ]
      },
      "properties": {
        "title": "Sans nom",
        "description": "",
        "class": "Shape",
        "folderId": "def12da7-3315-4a93-855b-1f7731a4a253",
        "visible": true,
        "labelVisible": true,
        "stroke": "#FF0000",
        "stroke-width": 3,
        "stroke-opacity": 1,
        "fill": "#FF0000",
        "fill-opacity": 0.2
      }
    },
    {
      "type": "Feature",
      "id": "f008ac7c-7ebc-4429-83f8-d96c31ed3137",
      "geometry": {
        "type": "LineString",
        "coordinates": [
          [
            -6.7660467,
            62.1039564,
            0,
            0
          ],
          [
            -6.7663383,
            62.1038753,
            0,
            0
          ]
        ]
      },
      "properties": {
        "title": "Sans nom",
        "description": "",
        "class": "Shape",
        "folderId": "def12da7-3315-4a93-855b-1f7731a4a253",
        "visible": true,
        "labelVisible": true,
        "stroke": "#FF0000",
        "stroke-width": 3,
        "stroke-opacity": 1,
        "fill": "#FF0000",
        "fill-opacity": 0.2
      }
    },
    {
      "type": "Feature",
      "id": "dbb82352-e42e-49a6-a479-d86d00a02576",
      "geometry": {
        "type": "LineString",
        "coordinates": [
          [
            -6.8035499,
            62.2396187,
            0,
            0
          ],
          [
            -6.8034272,
            62.2396599,
            0,
            0
          ],
          [
            -6.803078,
            62.2397773,
            0,
            0
          ]
        ]
      },
      "properties": {
        "title": "Sans nom",
        "description": "",
        "class": "Shape",
        "folderId": "def12da7-3315-4a93-855b-1f7731a4a253",
        "visible": true,
        "labelVisible": true,
        "stroke": "#FF0000",
        "stroke-width": 3,
        "stroke-opacity": 1,
        "fill": "#FF0000",
        "fill-opacity": 0.2
      }
    },
    {
      "type": "Feature",
      "id": "98505739-b38b-4661-813e-f8e75cc53914",
      "geometry": {
        "type": "LineString",
        "coordinates": [
          [
            -6.8002229,
            62.2378932,
            0,
            0
          ],
          [
            -6.7997076,
            62.2380766,
            0,
            0
          ]
        ]
      },
      "properties": {
        "title": "Sans nom",
        "description": "",
        "class": "Shape",
        "folderId": "def12da7-3315-4a93-855b-1f7731a4a253",
        "visible": true,
        "labelVisible": true,
        "stroke": "#FF0000",
        "stroke-width": 3,
        "stroke-opacity": 1,
        "fill": "#FF0000",
        "fill-opacity": 0.2
      }
    },
    {
      "type": "Feature",
      "id": "f38e9881-5ce7-4df6-b834-86650eb3345d",
      "geometry": {
        "type": "LineString",
        "coordinates": [
          [
            -6.927291,
            62.069551,
            0,
            0
          ],
          [
            -6.9276491,
            62.069586,
            0,
            0
          ]
        ]
      },
      "properties": {
        "title": "Sans nom",
        "description": "",
        "class": "Shape",
        "folderId": "def12da7-3315-4a93-855b-1f7731a4a253",
        "visible": true,
        "labelVisible": true,
        "stroke": "#FF0000",
        "stroke-width": 3,
        "stroke-opacity": 1,
        "fill": "#FF0000",
        "fill-opacity": 0.2
      }
    },
    {
      "type": "Feature",
      "id": "ba84143f-3723-46f2-b67f-cee65e917a40",
      "geometry": {
        "type": "LineString",
        "coordinates": [
          [
            -7.4331934,
            62.1089652,
            0,
            0
          ],
          [
            -7.4335074,
            62.1089819,
            0,
            0
          ]
        ]
      },
      "properties": {
        "title": "Sans nom",
        "description": "",
        "class": "Shape",
        "folderId": "def12da7-3315-4a93-855b-1f7731a4a253",
        "visible": true,
        "labelVisible": true,
        "stroke": "#FF0000",
        "stroke-width": 3,
        "stroke-opacity": 1,
        "fill": "#FF0000",
        "fill-opacity": 0.2
      }
    },
    {
      "type": "Feature",
      "id": "486aaec3-b6ef-4e45-9394-2dbef07e40b1",
      "geometry": {
        "type": "LineString",
        "coordinates": [
          [
            -6.7889501,
            62.0366384,
            0,
            0
          ],
          [
            -6.7890941,
            62.0368797,
            0,
            0
          ]
        ]
      },
      "properties": {
        "title": "Sans nom",
        "description": "",
        "class": "Shape",
        "folderId": "def12da7-3315-4a93-855b-1f7731a4a253",
        "visible": true,
        "labelVisible": true,
        "stroke": "#FF0000",
        "stroke-width": 3,
        "stroke-opacity": 1,
        "fill": "#FF0000",
        "fill-opacity": 0.2
      }
    },
    {
      "type": "Feature",
      "id": "d5173d74-4a7a-4c85-a95b-c37695749cb8",
      "geometry": {
        "type": "LineString",
        "coordinates": [
          [
            -6.7799503,
            61.5061334,
            0,
            0
          ],
          [
            -6.7802746,
            61.5060853,
            0,
            0
          ]
        ]
      },
      "properties": {
        "title": "Sans nom",
        "description": "",
        "class": "Shape",
        "folderId": "def12da7-3315-4a93-855b-1f7731a4a253",
        "visible": true,
        "labelVisible": true,
        "stroke": "#FF0000",
        "stroke-width": 3,
        "stroke-opacity": 1,
        "fill": "#FF0000",
        "fill-opacity": 0.2
      }
    },
    {
      "type": "Feature",
      "id": "56ec8d11-315a-47c2-b07d-f85154fbc49e",
      "geometry": {
        "type": "LineString",
        "coordinates": [
          [
            -6.7797774,
            61.5060636,
            0,
            0
          ],
          [
            -6.7801476,
            61.5060138,
            0,
            0
          ]
        ]
      },
      "properties": {
        "title": "Sans nom",
        "description": "",
        "class": "Shape",
        "folderId": "def12da7-3315-4a93-855b-1f7731a4a253",
        "visible": true,
        "labelVisible": true,
        "stroke": "#FF0000",
        "stroke-width": 3,
        "stroke-opacity": 1,
        "fill": "#FF0000",
        "fill-opacity": 0.2
      }
    },
    {
      "type": "Feature",
      "id": "19bb956e-81d3-4b82-93dd-e409c3c68710",
      "geometry": {
        "type": "LineString",
        "coordinates": [
          [
            -6.8459549,
            61.5622598,
            0,
            0
          ],
          [
            -6.8456613,
            61.5622878,
            0,
            0
          ]
        ]
      },
      "properties": {
        "title": "Sans nom",
        "description": "",
        "class": "Shape",
        "folderId": "def12da7-3315-4a93-855b-1f7731a4a253",
        "visible": true,
        "labelVisible": true,
        "stroke": "#FF0000",
        "stroke-width": 3,
        "stroke-opacity": 1,
        "fill": "#FF0000",
        "fill-opacity": 0.2
      }
    },
    {
      "type": "Feature",
      "id": "8403af8c-00d8-4271-a03d-e96e01d18c90",
      "geometry": {
        "type": "LineString",
        "coordinates": [
          [
            -6.9351489,
            61.5690527,
            0,
            0
          ],
          [
            -6.9348349,
            61.5693267,
            0,
            0
          ]
        ]
      },
      "properties": {
        "title": "Sans nom",
        "description": "",
        "class": "Shape",
        "folderId": "def12da7-3315-4a93-855b-1f7731a4a253",
        "visible": true,
        "labelVisible": true,
        "stroke": "#FF0000",
        "stroke-width": 3,
        "stroke-opacity": 1,
        "fill": "#FF0000",
        "fill-opacity": 0.2
      }
    },
    {
      "type": "Feature",
      "id": "869703cc-b628-4b39-a6b6-7136be4b2d83",
      "geometry": {
        "type": "LineString",
        "coordinates": [
          [
            -6.7141486,
            62.2132704,
            0,
            0
          ],
          [
            -6.7138838,
            62.2132121,
            0,
            0
          ]
        ]
      },
      "properties": {
        "title": "Sans nom",
        "description": "",
        "class": "Shape",
        "folderId": "def12da7-3315-4a93-855b-1f7731a4a253",
        "visible": true,
        "labelVisible": true,
        "stroke": "#FF0000",
        "stroke-width": 3,
        "stroke-opacity": 1,
        "fill": "#FF0000",
        "fill-opacity": 0.2
      }
    },
    {
      "type": "Feature",
      "id": "22743b6f-f026-44d6-a032-88851423c3f2",
      "geometry": {
        "type": "LineString",
        "coordinates": [
          [
            -6.7943608,
            62.3561966,
            0,
            0
          ],
          [
            -6.7943441,
            62.3561817,
            0,
            0
          ]
        ]
      },
      "properties": {
        "title": "Sans nom",
        "description": "",
        "class": "Shape",
        "folderId": "def12da7-3315-4a93-855b-1f7731a4a253",
        "visible": true,
        "labelVisible": true,
        "stroke": "#FF0000",
        "stroke-width": 3,
        "stroke-opacity": 1,
        "fill": "#FF0000",
        "fill-opacity": 0.2
      }
    },
    {
      "type": "Feature",
      "id": "4143d9ad-a1fd-49d2-9b63-a3b718da5a5a",
      "geometry": {
        "type": "LineString",
        "coordinates": [
          [
            -6.9576187,
            62.100059,
            0,
            0
          ],
          [
            -6.9578165,
            62.0999336,
            0,
            0
          ]
        ]
      },
      "properties": {
        "title": "Sans nom",
        "description": "",
        "class": "Shape",
        "folderId": "def12da7-3315-4a93-855b-1f7731a4a253",
        "visible": true,
        "labelVisible": true,
        "stroke": "#FF0000",
        "stroke-width": 3,
        "stroke-opacity": 1,
        "fill": "#FF0000",
        "fill-opacity": 0.2
      }
    },
    {
      "type": "Feature",
      "id": "24a43b99-26e9-4d08-a0cc-a21abc85fc41",
      "geometry": {
        "type": "LineString",
        "coordinates": [
          [
            -6.7818937,
            61.9954844,
            0,
            0
          ],
          [
            -6.7820101,
            61.9953136,
            0,
            0
          ]
        ]
      },
      "properties": {
        "title": "Sans nom",
        "description": "",
        "class": "Shape",
        "folderId": "def12da7-3315-4a93-855b-1f7731a4a253",
        "visible": true,
        "labelVisible": true,
        "stroke": "#FF0000",
        "stroke-width": 3,
        "stroke-opacity": 1,
        "fill": "#FF0000",
        "fill-opacity": 0.2
      }
    },
    {
      "type": "Feature",
      "id": "be726023-350b-4be4-8d8b-07dc2098076e",
      "geometry": {
        "type": "LineString",
        "coordinates": [
          [
            -6.9179196,
            62.0642875,
            0,
            0
          ],
          [
            -6.9181434,
            62.0641997,
            0,
            0
          ]
        ]
      },
      "properties": {
        "title": "Sans nom",
        "description": "",
        "class": "Shape",
        "folderId": "def12da7-3315-4a93-855b-1f7731a4a253",
        "visible": true,
        "labelVisible": true,
        "stroke": "#FF0000",
        "stroke-width": 3,
        "stroke-opacity": 1,
        "fill": "#FF0000",
        "fill-opacity": 0.2
      }
    },
    {
      "type": "Feature",
      "id": "adc23389-1eae-457d-926f-8afcc1a716b2",
      "geometry": {
        "type": "LineString",
        "coordinates": [
          [
            -6.8026284,
            62.0451488,
            0,
            0
          ],
          [
            -6.8025065,
            62.0452436,
            0,
            0
          ]
        ]
      },
      "properties": {
        "title": "Sans nom",
        "description": "",
        "class": "Shape",
        "folderId": "def12da7-3315-4a93-855b-1f7731a4a253",
        "visible": true,
        "labelVisible": true,
        "stroke": "#FF0000",
        "stroke-width": 3,
        "stroke-opacity": 1,
        "fill": "#FF0000",
        "fill-opacity": 0.2
      }
    },
    {
      "type": "Feature",
      "id": "a59eaa9e-8349-4c0c-90de-9f6f8f01e07b",
      "geometry": {
        "type": "LineString",
        "coordinates": [
          [
            -6.8025065,
            62.0452436,
            0,
            0
          ],
          [
            -6.8024393,
            62.0452959,
            0,
            0
          ]
        ]
      },
      "properties": {
        "title": "Sans nom",
        "description": "",
        "class": "Shape",
        "folderId": "def12da7-3315-4a93-855b-1f7731a4a253",
        "visible": true,
        "labelVisible": true,
        "stroke": "#FF0000",
        "stroke-width": 3,
        "stroke-opacity": 1,
        "fill": "#FF0000",
        "fill-opacity": 0.2
      }
    },
    {
      "type": "Feature",
      "id": "b54e9b8c-a52c-47a1-8f89-4e02c9e2497b",
      "geometry": {
        "type": "LineString",
        "coordinates": [
          [
            -7.3029211,
            62.0683387,
            0,
            0
          ],
          [
            -7.3031668,
            62.0683378,
            0,
            0
          ]
        ]
      },
      "properties": {
        "title": "Sans nom",
        "description": "",
        "class": "Shape",
        "folderId": "def12da7-3315-4a93-855b-1f7731a4a253",
        "visible": true,
        "labelVisible": true,
        "stroke": "#FF0000",
        "stroke-width": 3,
        "stroke-opacity": 1,
        "fill": "#FF0000",
        "fill-opacity": 0.2
      }
    },
    {
      "type": "Feature",
      "id": "d9eabc4a-81af-4c87-b76b-b507d2611a63",
      "geometry": {
        "type": "LineString",
        "coordinates": [
          [
            -7.3013875,
            62.0681356,
            0,
            0
          ],
          [
            -7.3013816,
            62.0680265,
            0,
            0
          ]
        ]
      },
      "properties": {
        "title": "Sans nom",
        "description": "",
        "class": "Shape",
        "folderId": "def12da7-3315-4a93-855b-1f7731a4a253",
        "visible": true,
        "labelVisible": true,
        "stroke": "#FF0000",
        "stroke-width": 3,
        "stroke-opacity": 1,
        "fill": "#FF0000",
        "fill-opacity": 0.2
      }
    },
    {
      "type": "Feature",
      "id": "52e0eae8-47ca-41c8-a8c6-7ca9fe7d5c98",
      "geometry": {
        "type": "LineString",
        "coordinates": [
          [
            -6.7922109,
            62.041726,
            0,
            0
          ],
          [
            -6.7915823,
            62.0419383,
            0,
            0
          ]
        ]
      },
      "properties": {
        "title": "Sans nom",
        "description": "",
        "class": "Shape",
        "folderId": "def12da7-3315-4a93-855b-1f7731a4a253",
        "visible": true,
        "labelVisible": true,
        "stroke": "#FF0000",
        "stroke-width": 3,
        "stroke-opacity": 1,
        "fill": "#FF0000",
        "fill-opacity": 0.2
      }
    }
  ]
}