{
  "type": "FeatureCollection",
  "features": [
    {
      "type": "Feature",
      "id": "796095f1-7693-4271-8288-f0bb66e2cf99",
      "geometry": null,
      "properties": {
        "title": "faroe-ferries",
        "class": "Folder",
        "visible": true,
        "labelVisible": true
      }
    },
    {
      "type": "Feature",
      "id": "2d9288fe-30fd-46ff-a4ea-d0c9e7aac950",
      "geometry": {
        "type": "Point",
        "coordinates": [
          -6.3667013,
          62.283348,
          0,
          0
        ]
      },
      "properties": {
        "title": "Svínoy",
        "description": "",
        "class": "Marker",
        "folderId": "796095f1-7693-4271-8288-f0bb66e2cf99",
        "visible": true,
        "labelVisible": true,
        "marker-symbol": "point",
        "marker-color": "FF0000",
        "marker-size": "1",
        "marker-rotation": null
      }
    },
    {
      "type": "Feature",
      "id": "8784572c-9070-4753-968c-c9c831dd689a",
      "geometry": {
        "type": "Point",
        "coordinates": [
          -6.522042,
          62.2978137,
          0,
          0
        ]
      },
      "properties": {
        "title": "Hvannasund",
        "description": "",
        "class": "Marker",
        "folderId": "796095f1-7693-4271-8288-f0bb66e2cf99",
        "visible": true,
        "labelVisible": true,
        "marker-symbol": "point",
        "marker-color": "FF0000",
        "marker-size": "1",
        "marker-rotation": null
      }
    },
    {
      "type": "Feature",
      "id": "27620b25-8d34-4f38-8946-586d4b50c933",
      "geometry": {
        "type": "Point",
        "coordinates": [
          -6.8170893,
          61.5481997,
          0,
          0
        ]
      },
      "properties": {
        "title": "Suðuroy",
        "description": "",
        "class": "Marker",
        "folderId": "796095f1-7693-4271-8288-f0bb66e2cf99",
        "visible": true,
        "labelVisible": true,
        "marker-symbol": "point",
        "marker-color": "FF0000",
        "marker-size": "1",
        "marker-rotation": null
      }
    },
    {
      "type": "Feature",
      "id": "dec5c7df-568b-4de0-abe1-200f015a4a57",
      "geometry": {
        "type": "Point",
        "coordinates": [
          -6.8828292,
          61.9565257,
          0,
          0
        ]
      },
      "properties": {
        "title": "Hestur",
        "description": "",
        "class": "Marker",
        "folderId": "796095f1-7693-4271-8288-f0bb66e2cf99",
        "visible": true,
        "labelVisible": true,
        "marker-symbol": "point",
        "marker-color": "FF0000",
        "marker-size": "1",
        "marker-rotation": null
      }
    },
    {
      "type": "Feature",
      "id": "1e0604e0-8341-4dde-8c05-cc6d452a2c53",
      "geometry": {
        "type": "Point",
        "coordinates": [
          -6.6724973,
          62.0067133,
          0,
          0
        ]
      },
      "properties": {
        "title": "Nólsoy",
        "description": "",
        "class": "Marker",
        "folderId": "796095f1-7693-4271-8288-f0bb66e2cf99",
        "visible": true,
        "labelVisible": true,
        "marker-symbol": "point",
        "marker-color": "FF0000",
        "marker-size": "1",
        "marker-rotation": null
      }
    },
    {
      "type": "Feature",
      "id": "1c80cab9-0f88-416b-85d0-19bd43f530e8",
      "geometry": {
        "type": "Point",
        "coordinates": [
          -6.8029297,
          61.7718027,
          0,
          0
        ]
      },
      "properties": {
        "title": "Skúvoy",
        "description": "",
        "class": "Marker",
        "folderId": "796095f1-7693-4271-8288-f0bb66e2cf99",
        "visible": true,
        "labelVisible": true,
        "marker-symbol": "point",
        "marker-color": "FF0000",
        "marker-size": "1",
        "marker-rotation": null
      }
    },
    {
      "type": "Feature",
      "id": "2f3476b0-c60d-412a-8e77-97e2cf99f689",
      "geometry": {
        "type": "Point",
        "coordinates": [
          -7.6484087,
          62.1019426,
          0,
          0
        ]
      },
      "properties": {
        "title": "Mykines",
        "description": "",
        "class": "Marker",
        "folderId": "796095f1-7693-4271-8288-f0bb66e2cf99",
        "visible": true,
        "labelVisible": true,
        "marker-symbol": "point",
        "marker-color": "FF0000",
        "marker-size": "1",
        "marker-rotation": null
      }
    },
    {
      "type": "Feature",
      "id": "b5b689f4-4868-46dd-8707-1da1217f1c09",
      "geometry": {
        "type": "Point",
        "coordinates": [
          -6.7227131,
          61.443099,
          0,
          0
        ]
      },
      "properties": {
        "title": "Terminal Víkarbyrgi",
        "description": "",
        "class": "Marker",
        "folderId": "796095f1-7693-4271-8288-f0bb66e2cf99",
        "visible": true,
        "labelVisible": true,
        "marker-symbol": "point",
        "marker-color": "FF0000",
        "marker-size": "1",
        "marker-rotation": null
      }
    },
    {
      "type": "Feature",
      "id": "ac13767a-044b-437b-a5f8-ef01052ca160",
      "geometry": {
        "type": "Point",
        "coordinates": [
          -6.7674851,
          62.0084594,
          0,
          0
        ]
      },
      "properties": {
        "title": "Tórshavn",
        "description": "",
        "class": "Marker",
        "folderId": "796095f1-7693-4271-8288-f0bb66e2cf99",
        "visible": true,
        "labelVisible": true,
        "marker-symbol": "point",
        "marker-color": "FF0000",
        "marker-size": "1",
        "marker-rotation": null
      }
    },
    {
      "type": "Feature",
      "id": "45b1f71a-6bac-4bba-80c5-f4aad9d8f8f7",
      "geometry": {
        "type": "Point",
        "coordinates": [
          -6.3138871,
          62.3165641,
          0,
          0
        ]
      },
      "properties": {
        "title": "Kirkja",
        "description": "",
        "class": "Marker",
        "folderId": "796095f1-7693-4271-8288-f0bb66e2cf99",
        "visible": true,
        "labelVisible": true,
        "marker-symbol": "point",
        "marker-color": "FF0000",
        "marker-size": "1",
        "marker-rotation": null
      }
    },
    {
      "type": "Feature",
      "id": "97f192d3-d6ff-4960-ac7b-c963b8c61f75",
      "geometry": {
        "type": "Point",
        "coordinates": [
          -6.2758588,
          62.3271753,
          0,
          0
        ]
      },
      "properties": {
        "title": "Hattarvík",
        "description": "",
        "class": "Marker",
        "folderId": "796095f1-7693-4271-8288-f0bb66e2cf99",
        "visible": true,
        "labelVisible": true,
        "marker-symbol": "point",
        "marker-color": "FF0000",
        "marker-size": "1",
        "marker-rotation": null
      }
    },
    {
      "type": "Feature",
      "id": "712c14f7-eb29-43df-9bd5-814e14e2d9e0",
      "geometry": {
        "type": "Point",
        "coordinates": [
          -6.6644853,
          62.2463166,
          0,
          0
        ]
      },
      "properties": {
        "title": "Kalsoy",
        "description": "",
        "class": "Marker",
        "folderId": "796095f1-7693-4271-8288-f0bb66e2cf99",
        "visible": true,
        "labelVisible": true,
        "marker-symbol": "point",
        "marker-color": "FF0000",
        "marker-size": "1",
        "marker-rotation": null
      }
    },
    {
      "type": "Feature",
      "id": "eff95874-8158-4f6f-bd05-ed3a7f846af3",
      "geometry": {
        "type": "Point",
        "coordinates": [
          -6.7666734,
          62.0079024,
          0,
          0
        ]
      },
      "properties": {
        "title": "Tórshavn",
        "description": "",
        "class": "Marker",
        "folderId": "796095f1-7693-4271-8288-f0bb66e2cf99",
        "visible": true,
        "labelVisible": true,
        "marker-symbol": "point",
        "marker-color": "FF0000",
        "marker-size": "1",
        "marker-rotation": null
      }
    },
    {
      "type": "Feature",
      "id": "fe093170-7b65-4561-af2c-c74d3bcfb293",
      "geometry": {
        "type": "Point",
        "coordinates": [
          -6.8781885,
          61.9032324,
          0,
          0
        ]
      },
      "properties": {
        "title": "M/F Teistin",
        "description": "",
        "class": "Marker",
        "folderId": "796095f1-7693-4271-8288-f0bb66e2cf99",
        "visible": true,
        "labelVisible": true,
        "marker-symbol": "point",
        "marker-color": "FF0000",
        "marker-size": "1",
        "marker-rotation": null
      }
    },
    {
      "type": "Feature",
      "id": "b744cb5d-03f2-4db0-bdca-e8026980b69b",
      "geometry": {
        "type": "Point",
        "coordinates": [
          -6.8094291,
          61.8289017,
          0,
          0
        ]
      },
      "properties": {
        "title": "Sandur",
        "description": "",
        "class": "Marker",
        "folderId": "796095f1-7693-4271-8288-f0bb66e2cf99",
        "visible": true,
        "labelVisible": true,
        "marker-symbol": "point",
        "marker-color": "FF0000",
        "marker-size": "1",
        "marker-rotation": null
      }
    },
    {
      "type": "Feature",
      "id": "6e4f9a40-00cc-43a7-8bc6-f57ef288bee4",
      "geometry": {
        "type": "Point",
        "coordinates": [
          -7.3260418,
          62.0709958,
          0,
          0
        ]
      },
      "properties": {
        "title": "Sørvágur",
        "description": "",
        "class": "Marker",
        "folderId": "796095f1-7693-4271-8288-f0bb66e2cf99",
        "visible": true,
        "labelVisible": true,
        "marker-symbol": "point",
        "marker-color": "FF0000",
        "marker-size": "1",
        "marker-rotation": null
      }
    },
    {
      "type": "Feature",
      "id": "5de23e1b-27f5-4a34-8298-bfd0d502449a",
      "geometry": {
        "type": "Point",
        "coordinates": [
          -6.8189008,
          61.9624279,
          0,
          0
        ]
      },
      "properties": {
        "title": "Gamlarætt",
        "description": "",
        "class": "Marker",
        "folderId": "796095f1-7693-4271-8288-f0bb66e2cf99",
        "visible": true,
        "labelVisible": true,
        "marker-symbol": "point",
        "marker-color": "FF0000",
        "marker-size": "1",
        "marker-rotation": null
      }
    },
    {
      "type": "Feature",
      "id": "0a57a57d-b8f6-4dc8-ba7e-b49485d66ff0",
      "geometry": {
        "type": "Point",
        "coordinates": [
          -6.5892915,
          62.2302678,
          0,
          0
        ]
      },
      "properties": {
        "title": "Klaksvík",
        "description": "",
        "class": "Marker",
        "folderId": "796095f1-7693-4271-8288-f0bb66e2cf99",
        "visible": true,
        "labelVisible": true,
        "marker-symbol": "point",
        "marker-color": "FF0000",
        "marker-size": "1",
        "marker-rotation": null
      }
    },
    {
      "type": "Feature",
      "id": "19253272-f6ad-4348-a33d-8b8b72463bdf",
      "geometry": {
        "type": "Point",
        "coordinates": [
          -6.7634782,
          61.6861248,
          0,
          0
        ]
      },
      "properties": {
        "title": "Terminal Stóra Dímun",
        "description": "",
        "class": "Marker",
        "folderId": "796095f1-7693-4271-8288-f0bb66e2cf99",
        "visible": true,
        "labelVisible": true,
        "marker-symbol": "point",
        "marker-color": "FF0000",
        "marker-size": "1",
        "marker-rotation": null
      }
    },
    {
      "type": "Feature",
      "id": "7e055c7d-13ac-4a67-b438-0e427009c566",
      "geometry": {
        "type": "Point",
        "coordinates": [
          -6.728103,
          61.4059067,
          0,
          0
        ]
      },
      "properties": {
        "title": "Terminal Sumba",
        "description": "",
        "class": "Marker",
        "folderId": "796095f1-7693-4271-8288-f0bb66e2cf99",
        "visible": true,
        "labelVisible": true,
        "marker-symbol": "point",
        "marker-color": "FF0000",
        "marker-size": "1",
        "marker-rotation": null
      }
    },
    {
      "type": "Feature",
      "id": "a1ad3108-91a1-4af2-ad3b-9ca06b9797ab",
      "geometry": {
        "type": "LineString",
        "coordinates": [
          [
            -6.3667013,
            62.283348,
            0,
            0
          ],
          [
            -6.3671293,
            62.2835883,
            0,
            0
          ],
          [
            -6.3675767,
            62.2836479,
            0,
            0
          ],
          [
            -6.3680525,
            62.2837259,
            0,
            0
          ],
          [
            -6.3684739,
            62.283762,
            0,
            0
          ],
          [
            -6.3697189,
            62.2838548,
            0,
            0
          ],
          [
            -6.3723188,
            62.28397,
            0,
            0
          ],
          [
            -6.3744842,
            62.2840328,
            0,
            0
          ],
          [
            -6.3769189,
            62.2840975,
            0,
            0
          ],
          [
            -6.3800867,
            62.2841787,
            0,
            0
          ],
          [
            -6.3828613,
            62.2842394,
            0,
            0
          ],
          [
            -6.3853124,
            62.2843551,
            0,
            0
          ],
          [
            -6.3887809,
            62.2843185,
            0,
            0
          ],
          [
            -6.3911856,
            62.2840899,
            0,
            0
          ],
          [
            -6.3937003,
            62.2835994,
            0,
            0
          ],
          [
            -6.3972334,
            62.282968,
            0,
            0
          ],
          [
            -6.400261,
            62.2821978,
            0,
            0
          ],
          [
            -6.4032715,
            62.2813708,
            0,
            0
          ],
          [
            -6.4064225,
            62.28068,
            0,
            0
          ],
          [
            -6.4088189,
            62.2796764,
            0,
            0
          ],
          [
            -6.4104579,
            62.2784288,
            0,
            0
          ],
          [
            -6.4121954,
            62.2772624,
            0,
            0
          ],
          [
            -6.4136228,
            62.2762431,
            0,
            0
          ],
          [
            -6.4156662,
            62.2754653,
            0,
            0
          ],
          [
            -6.4182934,
            62.2748357,
            0,
            0
          ],
          [
            -6.4214248,
            62.2744159,
            0,
            0
          ],
          [
            -6.4246623,
            62.2741196,
            0,
            0
          ],
          [
            -6.4281122,
            62.2743295,
            0,
            0
          ],
          [
            -6.4318008,
            62.2745641,
            0,
            0
          ],
          [
            -6.4364183,
            62.2748851,
            0,
            0
          ],
          [
            -6.4415931,
            62.2752061,
            0,
            0
          ],
          [
            -6.4463963,
            62.2755394,
            0,
            0
          ],
          [
            -6.45043,
            62.2758727,
            0,
            0
          ],
          [
            -6.4556048,
            62.2762184,
            0,
            0
          ],
          [
            -6.4605407,
            62.2766135,
            0,
            0
          ],
          [
            -6.4653174,
            62.2768727,
            0,
            0
          ],
          [
            -6.4694042,
            62.277132,
            0,
            0
          ],
          [
            -6.4746851,
            62.2777245,
            0,
            0
          ],
          [
            -6.4786922,
            62.2782677,
            0,
            0
          ],
          [
            -6.4827524,
            62.2787491,
            0,
            0
          ],
          [
            -6.4855388,
            62.2791565,
            0,
            0
          ],
          [
            -6.4890152,
            62.2800082,
            0,
            0
          ],
          [
            -6.4925712,
            62.2807488,
            0,
            0
          ],
          [
            -6.4975071,
            62.2818968,
            0,
            0
          ],
          [
            -6.5027085,
            62.283489,
            0,
            0
          ],
          [
            -6.5076709,
            62.2852909,
            0,
            0
          ],
          [
            -6.5103246,
            62.2863029,
            0,
            0
          ],
          [
            -6.5133764,
            62.2879442,
            0,
            0
          ],
          [
            -6.5156852,
            62.2891413,
            0,
            0
          ],
          [
            -6.517304,
            62.2901901,
            0,
            0
          ],
          [
            -6.5188431,
            62.2909552,
            0,
            0
          ],
          [
            -6.5200373,
            62.2916832,
            0,
            0
          ],
          [
            -6.5207273,
            62.2922508,
            0,
            0
          ],
          [
            -6.5210351,
            62.2928386,
            0,
            0
          ],
          [
            -6.521209,
            62.2934295,
            0,
            0
          ],
          [
            -6.5212559,
            62.2935888,
            0,
            0
          ],
          [
            -6.5217314,
            62.2943153,
            0,
            0
          ],
          [
            -6.5221051,
            62.2953339,
            0,
            0
          ],
          [
            -6.52326,
            62.296992,
            0,
            0
          ],
          [
            -6.5233385,
            62.2973403,
            0,
            0
          ],
          [
            -6.5233385,
            62.2974997,
            0,
            0
          ],
          [
            -6.5232673,
            62.2976156,
            0,
            0
          ],
          [
            -6.5231204,
            62.2976901,
            0,
            0
          ],
          [
            -6.5228889,
            62.2977791,
            0,
            0
          ],
          [
            -6.5225282,
            62.2978205,
            0,
            0
          ],
          [
            -6.5221328,
            62.29786,
            0,
            0
          ],
          [
            -6.522042,
            62.2978137,
            0,
            0
          ]
        ]
      },
      "properties": {
        "title": "Hvannasund - Svínoy",
        "description": "",
        "class": "Shape",
        "folderId": "796095f1-7693-4271-8288-f0bb66e2cf99",
        "visible": true,
        "labelVisible": true,
        "stroke": "#FF0000",
        "stroke-width": 3,
        "stroke-opacity": 1,
        "fill": "#FF0000",
        "fill-opacity": 0.2
      }
    },
    {
      "type": "Feature",
      "id": "999fa5a1-5fa4-4851-86de-5e64bba9403b",
      "geometry": {
        "type": "LineString",
        "coordinates": [
          [
            -6.8170893,
            61.5481997,
            0,
            0
          ],
          [
            -6.8178682,
            61.5486256,
            0,
            0
          ],
          [
            -6.8188526,
            61.5491188,
            0,
            0
          ],
          [
            -6.8195131,
            61.5494817,
            0,
            0
          ],
          [
            -6.8196477,
            61.5496434,
            0,
            0
          ],
          [
            -6.8196994,
            61.5498335,
            0,
            0
          ],
          [
            -6.8191125,
            61.5504541,
            0,
            0
          ],
          [
            -6.8175681,
            61.5510213,
            0,
            0
          ],
          [
            -6.8161416,
            61.5514871,
            0,
            0
          ],
          [
            -6.8143717,
            61.5517892,
            0,
            0
          ],
          [
            -6.8124281,
            61.5518547,
            0,
            0
          ],
          [
            -6.8106561,
            61.5517567,
            0,
            0
          ],
          [
            -6.8088717,
            61.5514993,
            0,
            0
          ],
          [
            -6.806719,
            61.5509232,
            0,
            0
          ],
          [
            -6.8041954,
            61.5498426,
            0,
            0
          ],
          [
            -6.7976747,
            61.5465798,
            0,
            0
          ],
          [
            -6.7918312,
            61.5435646,
            0,
            0
          ],
          [
            -6.7858175,
            61.5405928,
            0,
            0
          ],
          [
            -6.7839243,
            61.5398129,
            0,
            0
          ],
          [
            -6.781593,
            61.5393319,
            0,
            0
          ],
          [
            -6.7787409,
            61.5388782,
            0,
            0
          ],
          [
            -6.7537425,
            61.5348582,
            0,
            0
          ],
          [
            -6.7421773,
            61.533137,
            0,
            0
          ],
          [
            -6.7343679,
            61.5323217,
            0,
            0
          ],
          [
            -6.7242513,
            61.5328091,
            0,
            0
          ],
          [
            -6.715465,
            61.5359353,
            0,
            0
          ],
          [
            -6.7101358,
            61.5396676,
            0,
            0
          ],
          [
            -6.706282,
            61.5488978,
            0,
            0
          ],
          [
            -6.6997672,
            61.5595083,
            0,
            0
          ],
          [
            -6.6654172,
            61.5907876,
            0,
            0
          ],
          [
            -6.6350716,
            61.636323,
            0,
            0
          ],
          [
            -6.5916547,
            61.7582649,
            0,
            0
          ],
          [
            -6.5888643,
            61.8046036,
            0,
            0
          ],
          [
            -6.5981883,
            61.8505908,
            0,
            0
          ],
          [
            -6.6191066,
            61.8819529,
            0,
            0
          ],
          [
            -6.6807148,
            61.9412915,
            0,
            0
          ],
          [
            -6.7281872,
            61.9835532,
            0,
            0
          ],
          [
            -6.766253,
            61.9976028,
            0,
            0
          ],
          [
            -6.7710221,
            62.0019876,
            0,
            0
          ],
          [
            -6.7666734,
            62.0079024,
            0,
            0
          ]
        ]
      },
      "properties": {
        "title": "Suðuroy - Tórshavn",
        "description": "",
        "class": "Shape",
        "folderId": "796095f1-7693-4271-8288-f0bb66e2cf99",
        "visible": true,
        "labelVisible": true,
        "stroke": "#FF0000",
        "stroke-width": 3,
        "stroke-opacity": 1,
        "fill": "#FF0000",
        "fill-opacity": 0.2
      }
    },
    {
      "type": "Feature",
      "id": "cacba667-45fd-4bde-8775-7ca5d956eb65",
      "geometry": {
        "type": "LineString",
        "coordinates": [
          [
            -14.0035542,
            65.2633842,
            0,
            0
          ],
          [
            -14.0026286,
            65.2636316,
            0,
            0
          ],
          [
            -14.0014044,
            65.2639702,
            0,
            0
          ],
          [
            -14.0014762,
            65.2658078,
            0,
            0
          ],
          [
            -14.003684,
            65.2676312,
            0,
            0
          ],
          [
            -14.0022144,
            65.2698373,
            0,
            0
          ],
          [
            -13.9892883,
            65.2749997,
            0,
            0
          ],
          [
            -13.9494628,
            65.2833989,
            0,
            0
          ],
          [
            -13.9084358,
            65.2879205,
            0,
            0
          ],
          [
            -13.8751335,
            65.2958852,
            0,
            0
          ],
          [
            -13.8317031,
            65.3012653,
            0,
            0
          ],
          [
            -13.7026138,
            65.3045646,
            0,
            0
          ],
          [
            -13.6610717,
            65.3034888,
            0,
            0
          ],
          [
            -13.6016769,
            65.2974635,
            0,
            0
          ],
          [
            -13.5434837,
            65.2864134,
            0,
            0
          ],
          [
            -7.2851324,
            62.5150258,
            0,
            0
          ],
          [
            -6.7721354,
            62.2733278,
            0,
            0
          ],
          [
            -6.7527136,
            62.2566469,
            0,
            0
          ],
          [
            -6.7390676,
            62.243254,
            0,
            0
          ],
          [
            -6.7294308,
            62.2337832,
            0,
            0
          ],
          [
            -6.7155165,
            62.2256796,
            0,
            0
          ],
          [
            -6.6504163,
            62.2084494,
            0,
            0
          ],
          [
            -6.6309497,
            62.2020837,
            0,
            0
          ],
          [
            -6.6249984,
            62.1971955,
            0,
            0
          ],
          [
            -6.6206242,
            62.1917309,
            0,
            0
          ],
          [
            -6.5936026,
            62.1625697,
            0,
            0
          ],
          [
            -6.5744346,
            62.1438136,
            0,
            0
          ],
          [
            -6.5709787,
            62.133233,
            0,
            0
          ],
          [
            -6.5723246,
            62.1273336,
            0,
            0
          ],
          [
            -6.5765749,
            62.1226059,
            0,
            0
          ],
          [
            -6.6177173,
            62.0925086,
            0,
            0
          ],
          [
            -6.6633704,
            62.0616833,
            0,
            0
          ],
          [
            -6.7110038,
            62.0299077,
            0,
            0
          ],
          [
            -6.7573352,
            61.9996018,
            0,
            0
          ],
          [
            -6.7638001,
            61.9985293,
            0,
            0
          ],
          [
            -6.7699492,
            62.0020379,
            0,
            0
          ],
          [
            -6.7666734,
            62.0079024,
            0,
            0
          ]
        ]
      },
      "properties": {
        "title": "Tórshavn - Seyðisfjörður",
        "description": "",
        "class": "Shape",
        "folderId": "796095f1-7693-4271-8288-f0bb66e2cf99",
        "visible": true,
        "labelVisible": true,
        "stroke": "#FF0000",
        "stroke-width": 3,
        "stroke-opacity": 1,
        "fill": "#FF0000",
        "fill-opacity": 0.2
      }
    },
    {
      "type": "Feature",
      "id": "4e008e27-d63f-4b86-ac2c-c39c581f1124",
      "geometry": {
        "type": "LineString",
        "coordinates": [
          [
            -6.7674851,
            62.0084594,
            0,
            0
          ],
          [
            -6.7674882,
            62.0062865,
            0,
            0
          ],
          [
            -6.7703641,
            62.0020346,
            0,
            0
          ],
          [
            -6.764371,
            61.9980556,
            0,
            0
          ],
          [
            -6.6764359,
            62.007381,
            0,
            0
          ],
          [
            -6.6739716,
            62.0075487,
            0,
            0
          ],
          [
            -6.6733216,
            62.007211,
            0,
            0
          ],
          [
            -6.6732207,
            62.006962,
            0,
            0
          ],
          [
            -6.6731076,
            62.0068304,
            0,
            0
          ],
          [
            -6.6724973,
            62.0067133,
            0,
            0
          ]
        ]
      },
      "properties": {
        "title": "Tórshavn - Nólsoy",
        "description": "",
        "class": "Shape",
        "folderId": "796095f1-7693-4271-8288-f0bb66e2cf99",
        "visible": true,
        "labelVisible": true,
        "stroke": "#FF0000",
        "stroke-width": 3,
        "stroke-opacity": 1,
        "fill": "#FF0000",
        "fill-opacity": 0.2
      }
    },
    {
      "type": "Feature",
      "id": "d60699cb-7927-4dba-b869-249cb6aa8ded",
      "geometry": {
        "type": "LineString",
        "coordinates": [
          [
            -6.8189008,
            61.9624279,
            0,
            0
          ],
          [
            -6.816789,
            61.9595829,
            0,
            0
          ],
          [
            -6.8179071,
            61.9593668,
            0,
            0
          ],
          [
            -6.8227544,
            61.9584299,
            0,
            0
          ],
          [
            -6.8780859,
            61.9587044,
            0,
            0
          ],
          [
            -6.8811478,
            61.957764,
            0,
            0
          ],
          [
            -6.8817826,
            61.9568422,
            0,
            0
          ],
          [
            -6.8827188,
            61.9567883,
            0,
            0
          ],
          [
            -6.8828792,
            61.9565425,
            0,
            0
          ],
          [
            -6.8828292,
            61.9565257,
            0,
            0
          ]
        ]
      },
      "properties": {
        "title": "Gamlarætt - Hestur",
        "description": "",
        "class": "Shape",
        "folderId": "796095f1-7693-4271-8288-f0bb66e2cf99",
        "visible": true,
        "labelVisible": true,
        "stroke": "#FF0000",
        "stroke-width": 3,
        "stroke-opacity": 1,
        "fill": "#FF0000",
        "fill-opacity": 0.2
      }
    },
    {
      "type": "Feature",
      "id": "16b79d6c-d2ef-4251-9b9c-ce07171eeec8",
      "geometry": {
        "type": "LineString",
        "coordinates": [
          [
            -6.3138871,
            62.3165641,
            0,
            0
          ],
          [
            -6.3137994,
            62.3164942,
            0,
            0
          ],
          [
            -6.3140178,
            62.3162755,
            0,
            0
          ],
          [
            -6.314382,
            62.3160746,
            0,
            0
          ],
          [
            -6.3145595,
            62.3158207,
            0,
            0
          ],
          [
            -6.3144457,
            62.3155521,
            0,
            0
          ],
          [
            -6.3139495,
            62.3153998,
            0,
            0
          ],
          [
            -6.312825,
            62.3153914,
            0,
            0
          ],
          [
            -6.3110858,
            62.3153584,
            0,
            0
          ],
          [
            -6.3076541,
            62.3152357,
            0,
            0
          ],
          [
            -6.3039307,
            62.3153519,
            0,
            0
          ],
          [
            -6.3004018,
            62.3157134,
            0,
            0
          ],
          [
            -6.2936965,
            62.3168255,
            0,
            0
          ],
          [
            -6.2871298,
            62.3178214,
            0,
            0
          ],
          [
            -6.2827881,
            62.3192333,
            0,
            0
          ],
          [
            -6.2772796,
            62.3213257,
            0,
            0
          ],
          [
            -6.273752,
            62.3240986,
            0,
            0
          ],
          [
            -6.2728023,
            62.3257875,
            0,
            0
          ],
          [
            -6.2728294,
            62.3270729,
            0,
            0
          ],
          [
            -6.2738709,
            62.3273568,
            0,
            0
          ],
          [
            -6.2748401,
            62.3274022,
            0,
            0
          ],
          [
            -6.2758588,
            62.3271753,
            0,
            0
          ]
        ]
      },
      "properties": {
        "title": "Kirkja - Hattarvík",
        "description": "",
        "class": "Shape",
        "folderId": "796095f1-7693-4271-8288-f0bb66e2cf99",
        "visible": true,
        "labelVisible": true,
        "stroke": "#FF0000",
        "stroke-width": 3,
        "stroke-opacity": 1,
        "fill": "#FF0000",
        "fill-opacity": 0.2
      }
    },
    {
      "type": "Feature",
      "id": "dab7d92f-de49-41dd-8893-6760d2e99681",
      "geometry": {
        "type": "LineString",
        "coordinates": [
          [
            -6.3667013,
            62.283348,
            0,
            0
          ],
          [
            -6.366725,
            62.2834404,
            0,
            0
          ],
          [
            -6.3666187,
            62.2834975,
            0,
            0
          ],
          [
            -6.3671489,
            62.2871165,
            0,
            0
          ],
          [
            -6.3671218,
            62.2906496,
            0,
            0
          ],
          [
            -6.3660144,
            62.2979568,
            0,
            0
          ],
          [
            -6.3578161,
            62.3047314,
            0,
            0
          ],
          [
            -6.3441524,
            62.3095805,
            0,
            0
          ],
          [
            -6.329909,
            62.3130436,
            0,
            0
          ],
          [
            -6.3164753,
            62.3157587,
            0,
            0
          ],
          [
            -6.3146045,
            62.3162082,
            0,
            0
          ],
          [
            -6.3139471,
            62.3164642,
            0,
            0
          ],
          [
            -6.3138871,
            62.3165641,
            0,
            0
          ]
        ]
      },
      "properties": {
        "title": "Svínoy - Kirkja",
        "description": "",
        "class": "Shape",
        "folderId": "796095f1-7693-4271-8288-f0bb66e2cf99",
        "visible": true,
        "labelVisible": true,
        "stroke": "#FF0000",
        "stroke-width": 3,
        "stroke-opacity": 1,
        "fill": "#FF0000",
        "fill-opacity": 0.2
      }
    },
    {
      "type": "Feature",
      "id": "8118dfcd-5f1b-41e3-9a2b-55e30402c3f9",
      "geometry": {
        "type": "LineString",
        "coordinates": [
          [
            -6.5892915,
            62.2302678,
            0,
            0
          ],
          [
            -6.5900257,
            62.2301118,
            0,
            0
          ],
          [
            -6.5909232,
            62.2303157,
            0,
            0
          ],
          [
            -6.5917266,
            62.2307001,
            0,
            0
          ],
          [
            -6.5927797,
            62.2315499,
            0,
            0
          ],
          [
            -6.5934311,
            62.232,
            0,
            0
          ],
          [
            -6.5945331,
            62.2340029,
            0,
            0
          ],
          [
            -6.596053,
            62.2372598,
            0,
            0
          ],
          [
            -6.598702,
            62.2400713,
            0,
            0
          ],
          [
            -6.6067356,
            62.2423164,
            0,
            0
          ],
          [
            -6.6161155,
            62.2440961,
            0,
            0
          ],
          [
            -6.6269718,
            62.2452286,
            0,
            0
          ],
          [
            -6.648757,
            62.2460957,
            0,
            0
          ],
          [
            -6.6589362,
            62.2463531,
            0,
            0
          ],
          [
            -6.6609014,
            62.2462244,
            0,
            0
          ],
          [
            -6.6624828,
            62.2461672,
            0,
            0
          ],
          [
            -6.6644853,
            62.2463166,
            0,
            0
          ]
        ]
      },
      "properties": {
        "title": "Klaksvík - Kalsoy",
        "description": "",
        "class": "Shape",
        "folderId": "796095f1-7693-4271-8288-f0bb66e2cf99",
        "visible": true,
        "labelVisible": true,
        "stroke": "#FF0000",
        "stroke-width": 3,
        "stroke-opacity": 1,
        "fill": "#FF0000",
        "fill-opacity": 0.2
      }
    },
    {
      "type": "Feature",
      "id": "e4849834-ea60-4163-92d5-5d67d6f45b7a",
      "geometry": {
        "type": "LineString",
        "coordinates": [
          [
            -7.6484087,
            62.1019426,
            0,
            0
          ],
          [
            -7.6479058,
            62.1018022,
            0,
            0
          ],
          [
            -7.6481418,
            62.1016253,
            0,
            0
          ],
          [
            -7.6491885,
            62.1009257,
            0,
            0
          ],
          [
            -7.6496119,
            62.1002857,
            0,
            0
          ],
          [
            -7.6494382,
            62.0997573,
            0,
            0
          ],
          [
            -7.6482766,
            62.0990563,
            0,
            0
          ],
          [
            -7.6462248,
            62.0987159,
            0,
            0
          ],
          [
            -7.635864,
            62.0956663,
            0,
            0
          ],
          [
            -7.6252396,
            62.0923322,
            0,
            0
          ],
          [
            -7.6101935,
            62.0905788,
            0,
            0
          ],
          [
            -7.5918311,
            62.0891415,
            0,
            0
          ],
          [
            -7.5634585,
            62.0879628,
            0,
            0
          ],
          [
            -7.5401217,
            62.0875603,
            0,
            0
          ],
          [
            -7.4885965,
            62.0871866,
            0,
            0
          ],
          [
            -7.4564554,
            62.0871906,
            0,
            0
          ],
          [
            -7.4312836,
            62.0858465,
            0,
            0
          ],
          [
            -7.4069035,
            62.0832516,
            0,
            0
          ],
          [
            -7.3845749,
            62.0808476,
            0,
            0
          ],
          [
            -7.3717847,
            62.0793332,
            0,
            0
          ],
          [
            -7.3562069,
            62.0781916,
            0,
            0
          ],
          [
            -7.3372143,
            62.076864,
            0,
            0
          ],
          [
            -7.329868,
            62.0747682,
            0,
            0
          ],
          [
            -7.3238507,
            62.0723827,
            0,
            0
          ],
          [
            -7.3253117,
            62.0710192,
            0,
            0
          ],
          [
            -7.3254266,
            62.0709717,
            0,
            0
          ],
          [
            -7.3257308,
            62.0709654,
            0,
            0
          ],
          [
            -7.3260418,
            62.0709958,
            0,
            0
          ]
        ]
      },
      "properties": {
        "title": "Sørvágur - Mykines",
        "description": "",
        "class": "Shape",
        "folderId": "796095f1-7693-4271-8288-f0bb66e2cf99",
        "visible": true,
        "labelVisible": true,
        "stroke": "#FF0000",
        "stroke-width": 3,
        "stroke-opacity": 1,
        "fill": "#FF0000",
        "fill-opacity": 0.2
      }
    },
    {
      "type": "Feature",
      "id": "5906a6e7-32af-484b-9282-da76757e588b",
      "geometry": {
        "type": "LineString",
        "coordinates": [
          [
            -6.8029297,
            61.7718027,
            0,
            0
          ],
          [
            -6.8006957,
            61.7726089,
            0,
            0
          ],
          [
            -6.7876827,
            61.7811347,
            0,
            0
          ],
          [
            -6.7798661,
            61.7925491,
            0,
            0
          ],
          [
            -6.779345,
            61.8039592,
            0,
            0
          ],
          [
            -6.7821243,
            61.8142165,
            0,
            0
          ],
          [
            -6.787509,
            61.8204512,
            0,
            0
          ],
          [
            -6.7968966,
            61.8291382,
            0,
            0
          ],
          [
            -6.8011266,
            61.8311312,
            0,
            0
          ],
          [
            -6.8041206,
            61.8315005,
            0,
            0
          ],
          [
            -6.8060372,
            61.830987,
            0,
            0
          ],
          [
            -6.8072361,
            61.8296391,
            0,
            0
          ],
          [
            -6.8075205,
            61.8291035,
            0,
            0
          ],
          [
            -6.8077952,
            61.8287088,
            0,
            0
          ],
          [
            -6.8079808,
            61.8286294,
            0,
            0
          ],
          [
            -6.808209,
            61.8286038,
            0,
            0
          ],
          [
            -6.8084217,
            61.8286385,
            0,
            0
          ],
          [
            -6.8088665,
            61.8288065,
            0,
            0
          ],
          [
            -6.8094291,
            61.8289017,
            0,
            0
          ]
        ]
      },
      "properties": {
        "title": "Sandur - Skúvoy",
        "description": "",
        "class": "Shape",
        "folderId": "796095f1-7693-4271-8288-f0bb66e2cf99",
        "visible": true,
        "labelVisible": true,
        "stroke": "#FF0000",
        "stroke-width": 3,
        "stroke-opacity": 1,
        "fill": "#FF0000",
        "fill-opacity": 0.2
      }
    },
    {
      "type": "Feature",
      "id": "d368e8b7-8c6b-4367-845a-fef9c49506c2",
      "geometry": {
        "type": "LineString",
        "coordinates": [
          [
            9.9755886,
            57.59589,
            0,
            0
          ],
          [
            9.9629058,
            57.5961525,
            0,
            0
          ],
          [
            9.9589042,
            57.5965572,
            0,
            0
          ],
          [
            9.9566222,
            57.5999141,
            0,
            0
          ],
          [
            6.0637665,
            57.9308924,
            0,
            0
          ],
          [
            -0.7357781,
            60.849712,
            0,
            0
          ],
          [
            -0.8634941,
            60.8846446,
            0,
            0
          ],
          [
            -0.9688942,
            60.9041835,
            0,
            0
          ],
          [
            -6.6402428,
            61.9422948,
            0,
            0
          ],
          [
            -6.6500275,
            61.9452014,
            0,
            0
          ],
          [
            -6.7255156,
            61.9847802,
            0,
            0
          ],
          [
            -6.7653872,
            61.9979904,
            0,
            0
          ],
          [
            -6.7707145,
            62.0020212,
            0,
            0
          ],
          [
            -6.7666734,
            62.0079024,
            0,
            0
          ]
        ]
      },
      "properties": {
        "title": "Hirtshals - Tórshavn",
        "description": "",
        "class": "Shape",
        "folderId": "796095f1-7693-4271-8288-f0bb66e2cf99",
        "visible": true,
        "labelVisible": true,
        "stroke": "#FF0000",
        "stroke-width": 3,
        "stroke-opacity": 1,
        "fill": "#FF0000",
        "fill-opacity": 0.2
      }
    }
  ]
}