{"type":"FeatureCollection","features":[{"type":"Feature","geometry":{"type":"LineString","coordinates":[[-6.755295,62.017019],[-6.755632,62.015191],[-6.758742,62.012832],[-6.759362,62.009792],[-6.762236,62.008461],[-6.770807,62.011959],[-6.773138,62.011625],[-6.785589,62.007578],[-6.78529,62.00692],[-6.793303,62.004139],[-6.800673,62.002522],[-6.799549,62.001849],[-6.804365,62.000711],[-6.820102,61.998713],[-6.841714,62.001884],[-6.845856,62.000608],[-6.843895,61.99648],[-6.845743,61.99155],[-6.848451,61.988696],[-6.848079,61.987113],[-6.837159,61.982327],[-6.830558,61.980358],[-6.830047,61.979251],[-6.831462,61.976904],[-6.831565,61.975099],[-6.828916,61.971516],[-6.813344,61.961251],[-6.81954,61.963219],[-6.808685,61.959513],[-6.802852,61.956526],[-6.799429,61.953262],[-6.797975,61.949274],[-6.799536,61.944635],[-6.807725,61.936619],[-6.813257,61.929642],[-6.821863,61.912011],[-6.833087,61.896121],[-6.835605,61.888741],[-6.836045,61.877331],[-6.842257,61.866983],[-6.838552,61.86458],[-6.831961,61.857423],[-6.825075,61.852055],[-6.823588,61.849276],[-6.823819,61.847922],[-6.828029,61.847066],[-6.825883,61.84356],[-6.82202,61.840448],[-6.820316,61.835844],[-6.81867,61.834042],[-6.819762,61.834893],[-6.82095,61.837865],[-6.816098,61.838092],[-6.808771,61.840393],[-6.79977,61.837095],[-6.780542,61.832579],[-6.7769,61.831858],[-6.773776,61.832318],[-6.734936,61.82363],[-6.727258,61.823117],[-6.71624,61.81778],[-6.699994,61.814843],[-6.68978,61.811797],[-6.684346,61.808402],[-6.676075,61.805161],[-6.660997,61.804592],[-6.65624,61.792512],[-6.658251,61.789861],[-6.664128,61.78846],[-6.668635,61.785635],[-6.678262,61.785571],[-6.680595,61.785265],[-6.680609,61.784712],[-6.676176,61.784535],[-6.676391,61.783846],[-6.676176,61.784535],[-6.680035,61.784532],[-6.680862,61.784938],[-6.680414,61.785316],[-6.668635,61.785635],[-6.664484,61.788315],[-6.658016,61.790034],[-6.656221,61.792936],[-6.658071,61.796239],[-6.657936,61.798148],[-6.660574,61.804371],[-6.665229,61.80514],[-6.668663,61.804409],[-6.676075,61.805161],[-6.684346,61.808402],[-6.68978,61.811797],[-6.699994,61.814843],[-6.71624,61.81778],[-6.727258,61.823117],[-6.723099,61.823405],[-6.710554,61.821911],[-6.694471,61.825822],[-6.689934,61.825477],[-6.679754,61.82795],[-6.669712,61.829034],[-6.669126,61.829175],[-6.669699,61.830139],[-6.669126,61.829175],[-6.669712,61.829034],[-6.679754,61.82795],[-6.689934,61.825477],[-6.694471,61.825822],[-6.710554,61.821911],[-6.723292,61.823417],[-6.729385,61.822911],[-6.773776,61.832318],[-6.7769,61.831858],[-6.780542,61.832579],[-6.79977,61.837095],[-6.809003,61.840407],[-6.816098,61.838092],[-6.82095,61.837865],[-6.818884,61.834151],[-6.812855,61.832667],[-6.809973,61.829697]]},"properties":{"day":"J1","name":"Tórshavn → tunnel → Sandoy","color":"#fbbf24"}},{"type":"Feature","geometry":{"type":"LineString","coordinates":[[-6.809973,61.829697],[-6.812855,61.832667],[-6.819762,61.834893],[-6.82202,61.840448],[-6.825883,61.84356],[-6.828047,61.847123],[-6.823819,61.847922],[-6.823588,61.849276],[-6.825075,61.852055],[-6.831961,61.857423],[-6.838552,61.86458],[-6.842257,61.866983],[-6.835955,61.877327],[-6.835499,61.888733],[-6.832991,61.896113],[-6.821773,61.911999],[-6.813166,61.929627],[-6.808705,61.935437],[-6.798984,61.945329],[-6.798003,61.947807],[-6.798111,61.95075],[-6.799836,61.953919],[-6.803473,61.957038],[-6.81954,61.963219],[-6.813344,61.961251],[-6.828823,61.971429],[-6.831565,61.975099],[-6.831462,61.976904],[-6.830047,61.979251],[-6.830558,61.980358],[-6.846733,61.986243],[-6.848561,61.988212],[-6.845743,61.99155],[-6.84403,61.995975],[-6.844096,61.997681],[-6.846012,62.000093],[-6.844092,62.001657],[-6.841163,62.001832],[-6.820102,61.998713],[-6.799373,62.001747],[-6.802299,62.004191],[-6.802277,62.005812],[-6.800913,62.008152],[-6.805496,62.00933],[-6.806583,62.010348],[-6.805711,62.011384],[-6.803691,62.011715],[-6.802693,62.013379],[-6.799386,62.013727],[-6.806765,62.01439],[-6.818132,62.013961],[-6.830945,62.018128],[-6.836416,62.023382],[-6.848664,62.026418],[-6.855128,62.031502],[-6.874379,62.03615],[-6.887891,62.044596],[-6.90277,62.052093],[-6.907333,62.055196],[-6.92124,62.056317],[-6.93233,62.065107],[-6.944705,62.067885],[-6.945135,62.068941],[-6.941032,62.072107],[-6.939242,62.075247],[-6.9344,62.078706],[-6.934842,62.080671],[-6.937043,62.083474],[-6.950146,62.09091],[-6.966516,62.090065],[-6.973057,62.092339],[-6.974278,62.094159],[-6.973102,62.098279],[-6.975953,62.100994],[-6.981452,62.103979],[-6.983986,62.106783],[-6.983882,62.108321],[-6.981005,62.109181],[-6.982079,62.11363],[-6.984582,62.117439],[-6.987731,62.119802],[-6.982049,62.118808],[-6.999601,62.125904],[-7.008778,62.127957],[-7.01496,62.127613],[-7.024204,62.12559],[-7.035252,62.125333],[-7.049808,62.122041],[-7.09711,62.100362],[-7.103026,62.098566],[-7.111069,62.098169],[-7.124038,62.100222],[-7.134594,62.100314],[-7.141053,62.100986],[-7.143976,62.102346],[-7.140281,62.097815],[-7.140346,62.096266],[-7.143407,62.094154],[-7.144856,62.091858],[-7.15619,62.083964],[-7.157104,62.082107],[-7.154904,62.078747],[-7.149542,62.07484],[-7.149371,62.073428],[-7.150809,62.070267],[-7.147835,62.06292],[-7.148156,62.060454],[-7.150466,62.057051],[-7.159772,62.052534],[-7.163608,62.048228],[-7.168333,62.047022],[-7.188841,62.048646],[-7.200313,62.048217],[-7.217627,62.045481],[-7.225929,62.050339],[-7.239347,62.055741],[-7.244856,62.062791],[-7.24642,62.070349],[-7.248845,62.071607],[-7.253543,62.072132],[-7.288396,62.069],[-7.300914,62.069648],[-7.304829,62.070523],[-7.308494,62.072724],[-7.317777,62.074156],[-7.328833,62.078111],[-7.337891,62.079082],[-7.347779,62.08125],[-7.360215,62.08239],[-7.36445,62.08416],[-7.36902,62.087668],[-7.380235,62.086295],[-7.389538,62.087606],[-7.399286,62.092551],[-7.400376,62.0941],[-7.400437,62.096155],[-7.402733,62.097612],[-7.403468,62.099621],[-7.427668,62.106309],[-7.432097,62.104784],[-7.430824,62.106282],[-7.431255,62.10768],[-7.435535,62.109978],[-7.438583,62.110618],[-7.435535,62.109978],[-7.431255,62.10768],[-7.430824,62.106282],[-7.432097,62.104784],[-7.427668,62.106309],[-7.403468,62.099621],[-7.402733,62.097612],[-7.400437,62.096155],[-7.400376,62.0941],[-7.399286,62.092551],[-7.389538,62.087606],[-7.380731,62.086295],[-7.368345,62.087434],[-7.365087,62.084451],[-7.368035,62.085651],[-7.364949,62.084477],[-7.369244,62.087703],[-7.380235,62.086295],[-7.389758,62.087674],[-7.399286,62.092551],[-7.400376,62.0941],[-7.400437,62.096155],[-7.402733,62.097612],[-7.403468,62.099621],[-7.427668,62.106309],[-7.432097,62.104784],[-7.427668,62.106309],[-7.403468,62.099621],[-7.402733,62.097612],[-7.400437,62.096155],[-7.400376,62.0941],[-7.399286,62.092551],[-7.389538,62.087606],[-7.380235,62.086295],[-7.36902,62.087668],[-7.364644,62.084277],[-7.360591,62.082491],[-7.347779,62.08125],[-7.337891,62.079082],[-7.328833,62.078111],[-7.317777,62.074156],[-7.308494,62.072724],[-7.302931,62.069903],[-7.288396,62.069],[-7.253543,62.072132],[-7.248845,62.071607],[-7.24642,62.070349],[-7.244856,62.062791],[-7.239347,62.055741],[-7.225929,62.050339],[-7.217627,62.045481],[-7.200313,62.048217],[-7.188841,62.048646],[-7.169858,62.046986],[-7.165447,62.047413],[-7.162621,62.049101],[-7.163376,62.046974]]},"properties":{"day":"J2","name":"Sandoy → Vágar ouest (Múlafossur)","color":"#fbbf24"}},{"type":"Feature","geometry":{"type":"LineString","coordinates":[[-7.163376,62.046974],[-7.162621,62.049101],[-7.165447,62.047413],[-7.169858,62.046986],[-7.188841,62.048646],[-7.200313,62.048217],[-7.217303,62.04524],[-7.217202,62.044639],[-7.217303,62.04524],[-7.200313,62.048217],[-7.188841,62.048646],[-7.169858,62.046986],[-7.165447,62.047413],[-7.162621,62.049101],[-7.163376,62.046974]]},"properties":{"day":"J3","name":"Vágar centre (Trælanípa rando)","color":"#fbbf24"}},{"type":"Feature","geometry":{"type":"LineString","coordinates":[[-7.163376,62.046974],[-7.160371,62.052069],[-7.151286,62.056399],[-7.149613,62.057895],[-7.147789,62.061355],[-7.150724,62.069602],[-7.149542,62.07484],[-7.154904,62.078747],[-7.157104,62.082107],[-7.15619,62.083964],[-7.144856,62.091858],[-7.143407,62.094154],[-7.140346,62.096266],[-7.140281,62.097815],[-7.143976,62.102346],[-7.140662,62.100921],[-7.124038,62.100222],[-7.112135,62.098253],[-7.10188,62.098792],[-7.0952,62.101213],[-7.051127,62.121581],[-7.041353,62.123296],[-7.043911,62.121445],[-7.047019,62.116551],[-7.050747,62.115195],[-7.066357,62.115657],[-7.070004,62.117815],[-7.07397,62.123293],[-7.078961,62.124979],[-7.083022,62.124021],[-7.083657,62.122413],[-7.08331,62.119554],[-7.085656,62.117888],[-7.090301,62.117319],[-7.099618,62.117804],[-7.10726,62.115295],[-7.112522,62.116165],[-7.120873,62.120509],[-7.132537,62.121145],[-7.141263,62.124508],[-7.149213,62.126014],[-7.156182,62.129694],[-7.158914,62.132423],[-7.157634,62.133715],[-7.150357,62.134178],[-7.146206,62.13557],[-7.149796,62.137881],[-7.157492,62.139771],[-7.158613,62.141163],[-7.157295,62.143708],[-7.157649,62.145902],[-7.156869,62.14812],[-7.146158,62.149651],[-7.144242,62.15068],[-7.14526,62.152558],[-7.14804,62.153714],[-7.150421,62.153484],[-7.14804,62.153714],[-7.14526,62.152558],[-7.144242,62.15068],[-7.146158,62.149651],[-7.156869,62.14812],[-7.157649,62.145902],[-7.157295,62.143708],[-7.158613,62.141163],[-7.157492,62.139771],[-7.149796,62.137881],[-7.146206,62.13557],[-7.149054,62.134397],[-7.158137,62.13356],[-7.158995,62.132696],[-7.157799,62.130981],[-7.148151,62.125635],[-7.141263,62.124508],[-7.130971,62.120785],[-7.120405,62.120385],[-7.113161,62.116444],[-7.109432,62.115368],[-7.105217,62.115602],[-7.099153,62.117858],[-7.090301,62.117319],[-7.085656,62.117888],[-7.08331,62.119554],[-7.083172,62.123843],[-7.079785,62.125004],[-7.074217,62.123471],[-7.070004,62.117815],[-7.066357,62.115657],[-7.050701,62.115146],[-7.046829,62.116727],[-7.042845,62.122452],[-7.037886,62.124756],[-7.024204,62.12559],[-7.015726,62.12749],[-7.009279,62.128002],[-6.999601,62.125904],[-6.974853,62.116097],[-6.963929,62.107088],[-6.957943,62.104425],[-6.947322,62.101985],[-6.940753,62.101332],[-6.929727,62.10324],[-6.912844,62.113086],[-6.904371,62.115937],[-6.894203,62.118237],[-6.884512,62.118762],[-6.87349,62.120935],[-6.876782,62.127674],[-6.884395,62.132817],[-6.887386,62.137391],[-6.903401,62.143598],[-6.910049,62.149084],[-6.917801,62.150511],[-6.940652,62.150276],[-6.942967,62.152099],[-6.941655,62.155454],[-6.94202,62.157203],[-6.947729,62.163334],[-6.973935,62.172303],[-6.983704,62.178565],[-7.023561,62.184742],[-7.027743,62.187145],[-7.027843,62.1887],[-7.026449,62.190712],[-7.036632,62.19198],[-7.040863,62.18988],[-7.049159,62.193381],[-7.072243,62.196432],[-7.086251,62.202241],[-7.110665,62.20837],[-7.115348,62.213788],[-7.122744,62.218314],[-7.125473,62.219185],[-7.136813,62.230533],[-7.14246,62.234416],[-7.146218,62.236538],[-7.156972,62.239236],[-7.160997,62.242102],[-7.165795,62.243195],[-7.160997,62.242102],[-7.156972,62.239236],[-7.146218,62.236538],[-7.14246,62.234416],[-7.136813,62.230533],[-7.125473,62.219185],[-7.122744,62.218314],[-7.115348,62.213788],[-7.110847,62.208438],[-7.086251,62.202241],[-7.072734,62.19657],[-7.049159,62.193381],[-7.040863,62.18988],[-7.036632,62.19198],[-7.026172,62.190634],[-7.011426,62.195463],[-7.009184,62.197749],[-7.009747,62.207283],[-6.999231,62.209686],[-6.996644,62.214407],[-6.996312,62.217965],[-7.013518,62.228035],[-7.036846,62.237568],[-7.047061,62.244073],[-7.047945,62.245344],[-7.049053,62.25217],[-7.059777,62.262558],[-7.060089,62.266585],[-7.062313,62.271854],[-7.066076,62.275247],[-7.067438,62.278861],[-7.07006,62.281833],[-7.07596,62.286017],[-7.076471,62.287767],[-7.075049,62.29028],[-7.076016,62.292276],[-7.080697,62.29616],[-7.086238,62.299304],[-7.092663,62.29944],[-7.092493,62.301335],[-7.090472,62.302226],[-7.091258,62.303587],[-7.090476,62.305228],[-7.087495,62.307469],[-7.090476,62.305228],[-7.091258,62.303587],[-7.090472,62.302226],[-7.092493,62.301335],[-7.092663,62.29944],[-7.086238,62.299304],[-7.080697,62.29616],[-7.076016,62.292276],[-7.075049,62.29028],[-7.076471,62.287767],[-7.07596,62.286017],[-7.07006,62.281833],[-7.067438,62.278861],[-7.066076,62.275247],[-7.062313,62.271854],[-7.060089,62.266585],[-7.059777,62.262558],[-7.049053,62.25217],[-7.047945,62.245344],[-7.047061,62.244073],[-7.036233,62.237271],[-7.017676,62.229963],[-7.008437,62.225379],[-7.002116,62.220915],[-6.996939,62.218601],[-6.996061,62.21672],[-6.997441,62.212378],[-6.99925,62.209751],[-7.009435,62.207711],[-7.016701,62.213521],[-7.026102,62.218372],[-7.038351,62.221555],[-7.045428,62.227448],[-7.051093,62.234207],[-7.056148,62.236551],[-7.065283,62.244117],[-7.07515,62.250803],[-7.075207,62.254722],[-7.082163,62.265389],[-7.087179,62.270626],[-7.09275,62.274029],[-7.092213,62.274701]]},"properties":{"day":"J4","name":"Vágar → Vestmanna boat → Streymoy nord","color":"#fbbf24"}},{"type":"Feature","geometry":{"type":"LineString","coordinates":[[-7.092213,62.274701],[-7.092956,62.274123],[-7.094168,62.275968],[-7.090607,62.277189],[-7.08988,62.278591],[-7.090723,62.280031],[-7.101768,62.284316],[-7.103451,62.287005],[-7.106981,62.289509],[-7.113664,62.292267],[-7.131597,62.295106],[-7.133629,62.294665],[-7.14267,62.289517],[-7.145078,62.28876],[-7.147835,62.289052],[-7.143904,62.289059],[-7.133409,62.294768],[-7.130717,62.295155],[-7.120953,62.292925],[-7.114078,62.292366],[-7.107723,62.289977],[-7.103451,62.287005],[-7.101768,62.284316],[-7.090525,62.27984],[-7.090204,62.277719],[-7.09151,62.276415],[-7.09409,62.276068],[-7.093832,62.275086],[-7.087179,62.270626],[-7.082163,62.265389],[-7.075207,62.254722],[-7.075276,62.250945],[-7.065283,62.244117],[-7.056148,62.236551],[-7.050951,62.234094],[-7.040678,62.223076],[-7.03658,62.220794],[-7.026102,62.218372],[-7.016701,62.213521],[-7.009435,62.207711],[-7.000748,62.208969],[-6.998592,62.210311],[-6.997182,62.21297],[-6.99604,62.216989],[-6.996939,62.218601],[-7.002116,62.220915],[-7.007351,62.224767],[-7.015255,62.228867],[-7.036846,62.237568],[-7.047473,62.244512],[-7.049053,62.25217],[-7.05962,62.262316],[-7.060089,62.266585],[-7.062313,62.271854],[-7.066076,62.275247],[-7.067438,62.278861],[-7.07006,62.281833],[-7.07583,62.285822],[-7.076471,62.287767],[-7.075138,62.289811],[-7.075266,62.291015],[-7.080515,62.296027],[-7.083855,62.297883],[-7.083503,62.301035],[-7.079716,62.30377],[-7.075109,62.304726],[-7.069313,62.303411],[-7.063352,62.303085],[-7.05804,62.30404],[-7.054947,62.302376],[-7.050554,62.302322],[-7.050547,62.299626],[-7.048578,62.296616],[-7.043914,62.295259],[-7.041008,62.290045],[-7.031551,62.285652],[-7.031859,62.286526],[-7.028029,62.285562],[-7.02386,62.28349],[-7.019496,62.283476],[-7.010402,62.285589],[-6.999948,62.285314],[-7.002242,62.2846],[-7.002958,62.283375],[-6.995762,62.28502],[-6.992147,62.288044],[-6.988339,62.289552],[-6.990359,62.287973],[-6.991043,62.285628],[-6.990535,62.284521],[-6.982728,62.285658],[-6.986828,62.28601],[-6.982199,62.286766],[-6.975924,62.285019],[-6.979949,62.288102],[-6.972806,62.285861],[-6.964682,62.284678],[-6.968908,62.286453],[-6.966304,62.286944],[-6.968908,62.286453],[-6.964682,62.284678],[-6.972806,62.285861],[-6.979949,62.288102],[-6.975924,62.285019],[-6.982199,62.286766],[-6.986828,62.28601],[-6.982728,62.285658],[-6.990338,62.284485],[-6.991043,62.285628],[-6.990308,62.288065],[-6.984211,62.291372],[-6.982686,62.293612],[-6.971994,62.296906],[-6.973302,62.296977],[-6.965601,62.301301],[-6.964739,62.302552],[-6.964151,62.306715],[-6.95673,62.3197],[-6.955449,62.32082],[-6.946926,62.324849],[-6.943511,62.3252],[-6.943207,62.323962],[-6.941662,62.323499]]},"properties":{"day":"J5","name":"Streymoy → Eysturoy (Slættaratindur, Gjógv)","color":"#fbbf24"}},{"type":"Feature","geometry":{"type":"LineString","coordinates":[[-6.941662,62.323499],[-6.946224,62.323032],[-6.94994,62.323675],[-6.956199,62.320259],[-6.964151,62.306715],[-6.965499,62.301397],[-6.973302,62.296977],[-6.971994,62.296906],[-6.982686,62.293612],[-6.984211,62.291372],[-6.990074,62.288344],[-6.991043,62.285628],[-6.990535,62.284521],[-6.986897,62.284776],[-6.982565,62.285765],[-6.98675,62.286066],[-6.981595,62.286762],[-6.975971,62.285006],[-6.97986,62.2881],[-6.972806,62.285861],[-6.964125,62.284536],[-6.959989,62.282063],[-6.954884,62.275753],[-6.954227,62.273623],[-6.962576,62.266209],[-6.963512,62.264143],[-6.963114,62.260879],[-6.963693,62.2598],[-6.958358,62.254018],[-6.953447,62.246887],[-6.948395,62.242316],[-6.939184,62.2366],[-6.932393,62.233963],[-6.929749,62.234434],[-6.923447,62.226401],[-6.90628,62.218696],[-6.885027,62.220283],[-6.875883,62.219268],[-6.866678,62.215321],[-6.86051,62.207678],[-6.851346,62.199257],[-6.838089,62.195689],[-6.823084,62.192915],[-6.802232,62.185393],[-6.791062,62.179607],[-6.778394,62.17649],[-6.77299,62.173612],[-6.767294,62.171827],[-6.761154,62.167737],[-6.760432,62.167813],[-6.767635,62.17596],[-6.767164,62.177084],[-6.763379,62.179872],[-6.76301,62.185434],[-6.759905,62.187294],[-6.750199,62.1887],[-6.745739,62.192674],[-6.745006,62.194407],[-6.746292,62.197764],[-6.748802,62.200087],[-6.761606,62.204608],[-6.754092,62.204829],[-6.730289,62.214527],[-6.718627,62.214937],[-6.711199,62.212869],[-6.707004,62.210522],[-6.70008,62.210961],[-6.694085,62.208855],[-6.683307,62.207945],[-6.67215,62.204992],[-6.66328,62.204375],[-6.587687,62.210817],[-6.579706,62.212971],[-6.574917,62.21638],[-6.573978,62.218433],[-6.574401,62.22123],[-6.573496,62.223597],[-6.576201,62.222223],[-6.580349,62.22154],[-6.586334,62.222437],[-6.596646,62.226026],[-6.601884,62.230836],[-6.603482,62.236706],[-6.607396,62.238903],[-6.603482,62.236706],[-6.601884,62.230836],[-6.596947,62.226193],[-6.59112,62.224795],[-6.589935,62.225047],[-6.590244,62.226152],[-6.586876,62.225085],[-6.583567,62.225474],[-6.583645,62.227606],[-6.590179,62.232437],[-6.592745,62.238607],[-6.591694,62.241356],[-6.579638,62.253103],[-6.579446,62.254669],[-6.584324,62.264914],[-6.590248,62.267734],[-6.593335,62.270215],[-6.597875,62.269785],[-6.599321,62.269098],[-6.598621,62.267912],[-6.599509,62.267498],[-6.657756,62.272313],[-6.662817,62.278896],[-6.665985,62.285703],[-6.669236,62.289277],[-6.669225,62.290374],[-6.668393,62.289977],[-6.665406,62.292664],[-6.668393,62.289977],[-6.669225,62.290374],[-6.669236,62.289277],[-6.665985,62.285703],[-6.662817,62.278896],[-6.657756,62.272313],[-6.599509,62.267498],[-6.598621,62.267912],[-6.599321,62.269098],[-6.597875,62.269785],[-6.593335,62.270215],[-6.590248,62.267734],[-6.585169,62.265558],[-6.583663,62.264167],[-6.57939,62.253993],[-6.582857,62.249431],[-6.592269,62.240628],[-6.592745,62.238607],[-6.590379,62.232741],[-6.583645,62.227606],[-6.583896,62.225405],[-6.572416,62.226291],[-6.559861,62.225051]]},"properties":{"day":"J6","name":"Eysturoy → Borðoy (Klaksvík, Klakkur, Kunoy)","color":"#fbbf24"}},{"type":"Feature","geometry":{"type":"LineString","coordinates":[[-6.559861,62.225051],[-6.572416,62.226291],[-6.583361,62.225426],[-6.58358,62.227517],[-6.585257,62.228749],[-6.588177,62.230487],[-6.590923,62.230316],[-6.593431,62.232],[-6.596053,62.23726],[-6.598702,62.240071],[-6.606736,62.242316],[-6.626972,62.245229],[-6.665043,62.246363],[-6.671902,62.250632],[-6.679545,62.253092],[-6.68648,62.258908],[-6.695461,62.264249],[-6.698215,62.267541],[-6.700713,62.276684],[-6.71386,62.287481],[-6.720053,62.290966],[-6.72544,62.296461],[-6.73274,62.299756],[-6.745925,62.30787],[-6.747814,62.309987],[-6.746405,62.311965],[-6.754515,62.317378],[-6.759297,62.317794],[-6.759462,62.319296],[-6.770794,62.328499],[-6.773695,62.328747],[-6.777355,62.330394],[-6.77819,62.331659],[-6.777629,62.333814],[-6.778215,62.335673],[-6.774848,62.33779],[-6.794616,62.356423],[-6.799905,62.356915],[-6.800839,62.358091],[-6.797701,62.360539],[-6.79754,62.358904],[-6.794743,62.357984],[-6.792163,62.358134],[-6.794024,62.358765],[-6.791513,62.360497],[-6.789838,62.360047],[-6.791513,62.360497],[-6.794024,62.358765],[-6.792163,62.358134],[-6.794743,62.357984],[-6.79754,62.358904],[-6.797701,62.360539],[-6.800895,62.357633],[-6.799616,62.35685],[-6.794616,62.356423],[-6.774848,62.33779],[-6.778165,62.335804],[-6.777603,62.330626],[-6.765262,62.330898],[-6.766919,62.334694],[-6.763673,62.335199],[-6.766919,62.334694],[-6.765262,62.330898],[-6.777603,62.330626],[-6.778165,62.335804],[-6.774783,62.337703],[-6.794616,62.356423],[-6.80071,62.357342],[-6.800496,62.358588],[-6.797785,62.36052],[-6.800496,62.358588],[-6.80071,62.357342],[-6.794616,62.356423],[-6.774783,62.337703],[-6.778215,62.335673],[-6.777629,62.333814],[-6.77819,62.331659],[-6.777355,62.330394],[-6.773695,62.328747],[-6.770794,62.328499],[-6.759462,62.319296],[-6.759297,62.317794],[-6.754515,62.317378],[-6.746405,62.311965],[-6.747814,62.309987],[-6.745925,62.30787],[-6.73274,62.299756],[-6.72544,62.296461],[-6.720053,62.290966],[-6.71386,62.287481],[-6.700713,62.276684],[-6.698215,62.267541],[-6.695461,62.264249],[-6.68648,62.258908],[-6.679545,62.253092],[-6.671902,62.250632],[-6.665043,62.246363],[-6.626972,62.245229],[-6.606736,62.242316],[-6.598702,62.240071],[-6.596053,62.23726],[-6.593431,62.232],[-6.590026,62.230112],[-6.589292,62.230268],[-6.590043,62.231007],[-6.589029,62.231256],[-6.584297,62.228089],[-6.583528,62.227375],[-6.583937,62.225417],[-6.572416,62.226291],[-6.559861,62.225051]]},"properties":{"day":"J7","name":"Kalsoy ferry A/R (Mikladalur, Kallur)","color":"#fbbf24"}},{"type":"Feature","geometry":{"type":"LineString","coordinates":[[-6.559861,62.225051],[-6.572416,62.226291],[-6.583561,62.225505],[-6.583645,62.227606],[-6.590379,62.232741],[-6.592745,62.238607],[-6.592269,62.240628],[-6.587675,62.245496],[-6.580173,62.250488],[-6.577389,62.251519],[-6.571638,62.252225],[-6.552558,62.251602],[-6.545679,62.253004],[-6.542948,62.254771],[-6.539797,62.258915],[-6.520745,62.270969],[-6.519602,62.274013],[-6.522032,62.278577],[-6.530118,62.285568],[-6.526272,62.289565],[-6.528101,62.297093],[-6.526187,62.29838],[-6.521276,62.299312],[-6.529516,62.312695],[-6.529709,62.314243],[-6.527968,62.31629],[-6.509284,62.327573],[-6.504233,62.33396],[-6.503283,62.336642],[-6.504431,62.340766],[-6.512482,62.346632],[-6.516919,62.3525],[-6.521433,62.355263],[-6.531222,62.357106],[-6.528816,62.359362],[-6.534986,62.360331],[-6.531313,62.360089],[-6.541361,62.364012],[-6.542764,62.366089],[-6.542221,62.364801],[-6.54023,62.363461],[-6.528816,62.359362],[-6.531222,62.357106],[-6.521433,62.355263],[-6.516919,62.3525],[-6.512482,62.346632],[-6.504431,62.340766],[-6.503283,62.336642],[-6.504233,62.33396],[-6.509284,62.327573],[-6.527968,62.31629],[-6.529709,62.314243],[-6.529516,62.312695],[-6.521276,62.299312],[-6.526187,62.29838],[-6.528101,62.297093],[-6.526272,62.289565],[-6.530118,62.285568],[-6.522032,62.278577],[-6.519602,62.274013],[-6.520745,62.270969],[-6.539797,62.258915],[-6.542948,62.254771],[-6.545679,62.253004],[-6.552558,62.251602],[-6.571638,62.252225],[-6.577389,62.251519],[-6.580173,62.250488],[-6.587675,62.245496],[-6.592269,62.240628],[-6.592745,62.238607],[-6.590379,62.232741],[-6.583645,62.227606],[-6.583937,62.225417],[-6.572416,62.226291],[-6.559861,62.225051]]},"properties":{"day":"J8","name":"Viðoy (Viðareiði, Villingardalsfjall)","color":"#fbbf24"}},{"type":"Feature","geometry":{"type":"LineString","coordinates":[[-6.559861,62.225051],[-6.572805,62.226296],[-6.572444,62.2251],[-6.574134,62.223526],[-6.574041,62.218146],[-6.575794,62.215413],[-6.581626,62.212217],[-6.588653,62.210697],[-6.666284,62.204393],[-6.673519,62.205265],[-6.683785,62.208022],[-6.694514,62.208937],[-6.700866,62.211187],[-6.706916,62.210565],[-6.711351,62.212922],[-6.718253,62.214873],[-6.722483,62.215217],[-6.732087,62.213979],[-6.754442,62.204723],[-6.762363,62.204695],[-6.748802,62.200087],[-6.746159,62.197562],[-6.745023,62.194035],[-6.750527,62.188545],[-6.759117,62.187476],[-6.76237,62.18614],[-6.763261,62.184809],[-6.762739,62.182193],[-6.763379,62.179872],[-6.76726,62.176985],[-6.767521,62.175586],[-6.75567,62.16215],[-6.75333,62.157825],[-6.730708,62.141256],[-6.728924,62.134261],[-6.723954,62.126941],[-6.724927,62.124663],[-6.723537,62.117862],[-6.723626,62.110706],[-6.724701,62.109684],[-6.730019,62.109812],[-6.733979,62.111425],[-6.732049,62.108692],[-6.732375,62.105685],[-6.734746,62.103168],[-6.738604,62.101235],[-6.744251,62.099878],[-6.758259,62.098771],[-6.763474,62.091811],[-6.770679,62.084746],[-6.79145,62.069498],[-6.804282,62.054076],[-6.805041,62.052208],[-6.804206,62.049821],[-6.799572,62.046866],[-6.791959,62.045685],[-6.778694,62.046698],[-6.775593,62.045545],[-6.776767,62.044484],[-6.780848,62.0441],[-6.798809,62.047095],[-6.803004,62.046406],[-6.802573,62.045199],[-6.793586,62.042693],[-6.791073,62.041137],[-6.790119,62.039534],[-6.79057,62.03818],[-6.795561,62.033605],[-6.798009,62.03016],[-6.802086,62.015579],[-6.806018,62.011554],[-6.803897,62.01158],[-6.802408,62.013494],[-6.799536,62.013568],[-6.806765,62.01439],[-6.816271,62.013796],[-6.820812,62.014544],[-6.831746,62.018502],[-6.835023,62.022362],[-6.837258,62.023782],[-6.849265,62.026699],[-6.855128,62.031502],[-6.874379,62.03615],[-6.887891,62.044596],[-6.90277,62.052093],[-6.907333,62.055196],[-6.912386,62.055846],[-6.918818,62.054738],[-6.912386,62.055846],[-6.907333,62.055196],[-6.90277,62.052093],[-6.887891,62.044596],[-6.874379,62.03615],[-6.855128,62.031502],[-6.849265,62.026699],[-6.837258,62.023782],[-6.835023,62.022362],[-6.831746,62.018502],[-6.820812,62.014544],[-6.816271,62.013796],[-6.807874,62.014393],[-6.798081,62.013754],[-6.790538,62.015355],[-6.789671,62.017221],[-6.790606,62.018749],[-6.789297,62.019057],[-6.787941,62.016432],[-6.788464,62.014175],[-6.77767,62.010079],[-6.774582,62.011261],[-6.772828,62.009744],[-6.77072,62.010022],[-6.769215,62.009242],[-6.769183,62.008442],[-6.769099,62.009279],[-6.771528,62.01019],[-6.772403,62.011703],[-6.773517,62.011545],[-6.785589,62.007578],[-6.78529,62.00692],[-6.793303,62.004139],[-6.800673,62.002522],[-6.79989,62.001733],[-6.817672,61.998849],[-6.82275,61.998869],[-6.841714,62.001884],[-6.844465,62.001544],[-6.845944,62.000441],[-6.843878,61.996587],[-6.84568,61.991658],[-6.848451,61.988696],[-6.847964,61.987001],[-6.836878,61.98222],[-6.830721,61.980475],[-6.830037,61.979304],[-6.831462,61.976904],[-6.831514,61.974913],[-6.827732,61.970494],[-6.807109,61.957988],[-6.793709,61.951792],[-6.807109,61.957988],[-6.827732,61.970494],[-6.831514,61.974913],[-6.831462,61.976904],[-6.830037,61.979304],[-6.830721,61.980475],[-6.836878,61.98222],[-6.847964,61.987001],[-6.848451,61.988696],[-6.84568,61.991658],[-6.843878,61.996587],[-6.845856,62.000608],[-6.841714,62.001884],[-6.820102,61.998713],[-6.804365,62.000711],[-6.799373,62.001747],[-6.800424,62.00248],[-6.784987,62.006847],[-6.785589,62.007578],[-6.773138,62.011625],[-6.770807,62.011959],[-6.763829,62.008492],[-6.762236,62.008461],[-6.759362,62.009792],[-6.758742,62.012832],[-6.755632,62.015191],[-6.755295,62.017019]]},"properties":{"day":"J9","name":"Klaksvík → Tórshavn (Norðadalsskarð, ville)","color":"#fbbf24"}},{"type":"Feature","geometry":{"type":"LineString","coordinates":[[-6.755295,62.017019],[-6.755632,62.015191],[-6.758742,62.012832],[-6.759435,62.009732],[-6.762639,62.008353],[-6.767485,62.008459],[-6.767488,62.006287],[-6.770364,62.002035],[-6.764371,61.998056],[-6.676436,62.007381],[-6.673972,62.007549],[-6.671429,62.006637],[-6.670993,62.007703],[-6.673535,62.009084],[-6.674679,62.008636],[-6.673535,62.009084],[-6.670973,62.007971],[-6.671332,62.006648],[-6.673972,62.007549],[-6.676436,62.007381],[-6.764371,61.998056],[-6.770364,62.002035],[-6.767488,62.006287],[-6.767485,62.008459],[-6.762639,62.008353],[-6.759435,62.009732],[-6.758742,62.012832],[-6.755632,62.015191],[-6.755295,62.017019]]},"properties":{"day":"J10","name":"Tórshavn matin + Nólsoy ferry court","color":"#fbbf24"}}]}