{"type":"FeatureCollection","name":"Bloc I","properties":{"bloc":"I","color":"#0ea5e9"},"features":[{"type":"Feature","geometry":{"type":"LineString","coordinates":[[-20.234321,63.750903],[-20.232399,63.749085],[-20.235127,63.731072],[-20.233016,63.720332],[-20.215079,63.702538],[-20.202121,63.694143],[-20.198245,63.692253],[-20.154076,63.677381],[-20.123472,63.670499],[-20.093961,63.656176],[-20.05534,63.643456],[-20.044004,63.6369],[-20.030314,63.623139],[-20.021606,63.618584],[-20.005474,63.613398],[-20.000585,63.615804],[-19.996157,63.61917],[-19.992654,63.618325],[-19.994106,63.616046],[-19.992436,63.616029],[-19.994106,63.616046],[-19.992654,63.618325],[-19.996157,63.61917],[-20.000585,63.615804],[-20.005474,63.613398],[-19.997056,63.609739],[-19.974611,63.596574],[-19.970788,63.595005],[-19.931272,63.583577],[-19.915834,63.581306],[-19.846073,63.565125],[-19.816596,63.561994],[-19.775923,63.550932],[-19.752465,63.548935],[-19.744708,63.547128],[-19.721956,63.544464],[-19.712225,63.544533],[-19.692616,63.542695],[-19.671753,63.543464],[-19.660378,63.54257],[-19.637674,63.535242],[-19.574105,63.522269],[-19.542083,63.523476],[-19.508776,63.519997],[-19.503982,63.523947],[-19.510442,63.52561],[-19.509631,63.527064],[-19.513187,63.527836],[-19.513198,63.529544]]},"properties":{"name":"J1 Hvolsvollur -> Skogafoss","day":"J1"}},{"type":"Feature","geometry":{"type":"LineString","coordinates":[[-19.513198,63.529544],[-19.513187,63.527836],[-19.509631,63.527064],[-19.510442,63.52561],[-19.503982,63.523947],[-19.508776,63.519997],[-19.463828,63.515335],[-19.409985,63.500578],[-19.397632,63.498072],[-19.394961,63.501268],[-19.382834,63.506637],[-19.38389,63.510344],[-19.377312,63.515575],[-19.376648,63.516903],[-19.37758,63.51895],[-19.372417,63.520559],[-19.371313,63.524507],[-19.367045,63.526694],[-19.370414,63.530521],[-19.37175,63.530088],[-19.369612,63.53017],[-19.367045,63.526694],[-19.371313,63.524507],[-19.372417,63.520559],[-19.37758,63.51895],[-19.376648,63.516903],[-19.377312,63.515575],[-19.38389,63.510344],[-19.382834,63.506637],[-19.394961,63.501268],[-19.397632,63.498072],[-19.344803,63.487531],[-19.327697,63.48247],[-19.316065,63.481343],[-19.255236,63.471963],[-19.234335,63.463438],[-19.22302,63.459797],[-19.208104,63.451766],[-19.191395,63.434445],[-19.186951,63.432382],[-19.180772,63.431452],[-19.179194,63.429761],[-19.17931,63.423823],[-19.16533,63.422144],[-19.160761,63.419608],[-19.149184,63.420207],[-19.147114,63.419258],[-19.145393,63.416502],[-19.142673,63.414447],[-19.113501,63.408074],[-19.113513,63.406357],[-19.116946,63.405075],[-19.119082,63.405522],[-19.120777,63.403826],[-19.124992,63.405268],[-19.128971,63.404187],[-19.129307,63.402899],[-19.129708,63.403247],[-19.128669,63.404107],[-19.124992,63.405268],[-19.120777,63.403826],[-19.119082,63.405522],[-19.116946,63.405075],[-19.113513,63.406357],[-19.113501,63.408074],[-19.142673,63.414447],[-19.145393,63.416502],[-19.147114,63.419258],[-19.149184,63.420207],[-19.160761,63.419608],[-19.16533,63.422144],[-19.17899,63.423685],[-19.179787,63.424369],[-19.179194,63.429761],[-19.180772,63.431452],[-19.173188,63.432344],[-19.145528,63.441148],[-19.13623,63.446693],[-19.115411,63.447852],[-19.087374,63.453797],[-19.07297,63.455358],[-19.064893,63.454746],[-19.061531,63.452763],[-19.056938,63.4541],[-19.048775,63.454568],[-19.04915,63.452478],[-19.057392,63.445253],[-19.059202,63.442768],[-19.059889,63.43804],[-19.05134,63.429132],[-19.051055,63.425338],[-19.047831,63.419803],[-19.048817,63.418233],[-19.048057,63.41675],[-19.048367,63.410369],[-19.04716,63.40516],[-19.044432,63.404594],[-19.04716,63.40516],[-19.047835,63.406306],[-19.048057,63.41675],[-19.048817,63.418233],[-19.047831,63.419803],[-19.051055,63.425338],[-19.05134,63.429132],[-19.059889,63.43804],[-19.059202,63.442768],[-19.057392,63.445253],[-19.04915,63.452478],[-19.048775,63.454568],[-19.042195,63.45416],[-19.037347,63.451802],[-19.036142,63.449855],[-19.036845,63.44573],[-19.035794,63.443043],[-19.020428,63.432459],[-19.019751,63.431101],[-19.020103,63.427292],[-19.017501,63.424086],[-19.012108,63.42126],[-19.008658,63.420534],[-19.008604,63.42128],[-19.002569,63.420648],[-18.999476,63.421248]]},"properties":{"name":"J2 Skogafoss -> Vik (Dyrholaey, Reynisfjara)","day":"J2"}},{"type":"Feature","geometry":{"type":"LineString","coordinates":[[-18.999476,63.421248],[-19.002569,63.420648],[-19.008604,63.42128],[-19.008658,63.420534],[-19.003814,63.418489],[-18.996996,63.417428],[-18.953297,63.418971],[-18.927649,63.420795],[-18.895021,63.425637],[-18.865362,63.435758],[-18.857541,63.437288],[-18.841888,63.437784],[-18.809412,63.43709],[-18.787747,63.437796],[-18.7369,63.443452],[-18.699506,63.445937],[-18.676132,63.448436],[-18.652291,63.452436],[-18.633146,63.456828],[-18.59417,63.469086],[-18.561039,63.477495],[-18.548017,63.481858],[-18.505492,63.501558],[-18.490319,63.510018],[-18.476174,63.520909],[-18.463628,63.534533],[-18.455124,63.541095],[-18.451273,63.545703],[-18.444395,63.55691],[-18.443969,63.55942],[-18.450003,63.578125],[-18.459353,63.588437],[-18.462226,63.593158],[-18.463613,63.599356],[-18.462476,63.605404],[-18.460471,63.609208],[-18.4568,63.613586],[-18.427328,63.637826],[-18.422274,63.642755],[-18.41666,63.650712],[-18.411455,63.663896],[-18.407908,63.667804],[-18.403772,63.670683],[-18.392123,63.675751],[-18.340627,63.689242],[-18.319983,63.696958],[-18.179188,63.739629],[-18.166945,63.744822],[-18.130001,63.756833],[-18.123499,63.760771],[-18.113846,63.764404],[-18.102524,63.766965],[-18.083971,63.767834],[-18.079016,63.768822],[-18.072062,63.772939],[-18.056326,63.778741],[-18.051919,63.782694],[-18.040657,63.785405],[-18.037356,63.787135],[-18.036546,63.789997],[-18.038214,63.793633],[-18.039849,63.794705],[-18.041183,63.792849],[-18.044258,63.791465],[-18.059019,63.786655]]},"properties":{"name":"J3 Vik -> Kirkjubaejarklaustur","day":"J3"}},{"type":"Feature","geometry":{"type":"LineString","coordinates":[[-18.059019,63.786655],[-18.041308,63.792769],[-18.040441,63.794162],[-18.00564,63.817455],[-17.981903,63.82415],[-17.97183,63.82932],[-17.970416,63.831174],[-17.970341,63.836298],[-17.968298,63.83873],[-17.966049,63.839873],[-17.88749,63.852448],[-17.871898,63.853297],[-17.859261,63.850915],[-17.845271,63.850559],[-17.829374,63.855349],[-17.813568,63.862957],[-17.745694,63.885289],[-17.742056,63.887271],[-17.739304,63.889988],[-17.733875,63.90349],[-17.717527,63.913727],[-17.705028,63.933258],[-17.698456,63.937409],[-17.655827,63.945959],[-17.613382,63.947889],[-17.598988,63.951347],[-17.591113,63.954453],[-17.581531,63.956286],[-17.550203,63.957801],[-17.478966,63.95623],[-17.459912,63.95664],[-17.441715,63.954072],[-17.339363,63.934516],[-17.332358,63.934283],[-17.277673,63.937446],[-17.26844,63.938865],[-17.225194,63.9485],[-17.161884,63.965991],[-17.152881,63.96764],[-17.089486,63.974027],[-17.009108,63.975798],[-16.981647,63.975367],[-16.97235,63.976483],[-16.967294,63.978232],[-16.96374,63.980583],[-16.946959,64.00348],[-16.94396,64.005504],[-16.954499,64.010317],[-16.967606,64.013211],[-16.965551,64.015509],[-16.966534,64.016429],[-16.96583,64.016503],[-16.965315,64.015737],[-16.967606,64.013211],[-16.954499,64.010317],[-16.94396,64.005504],[-16.937203,64.006576],[-16.92713,64.00554],[-16.888602,63.987595],[-16.875386,63.984838],[-16.86618,63.979506],[-16.864049,63.977393],[-16.859967,63.959787],[-16.857631,63.956575],[-16.853127,63.954293],[-16.842887,63.951734],[-16.831212,63.950514],[-16.801703,63.943769],[-16.79488,63.938298],[-16.789667,63.927285],[-16.78696,63.922436],[-16.785678,63.921458],[-16.766986,63.918219],[-16.718936,63.906478],[-16.715013,63.904633],[-16.710066,63.900602],[-16.701356,63.896564],[-16.699745,63.894489],[-16.697778,63.8891],[-16.690397,63.883614],[-16.688514,63.881283],[-16.662089,63.878919],[-16.645695,63.881014],[-16.638882,63.880769],[-16.630959,63.882718],[-16.6271,63.884741],[-16.623561,63.889472],[-16.620319,63.892018],[-16.603363,63.899907],[-16.59444,63.902817],[-16.514858,63.916934],[-16.497078,63.922883],[-16.43259,63.937735],[-16.429167,63.940732],[-16.420489,63.972244],[-16.419053,63.974428],[-16.373914,64.000266],[-16.361484,64.008609],[-16.350566,64.017562],[-16.344317,64.020617],[-16.273547,64.038455],[-16.263258,64.039542],[-16.204953,64.041761],[-16.178843,64.045818]]},"properties":{"name":"J4 Kirkjubaejarklaustur -> Jokulsarlon","day":"J4"}},{"type":"Feature","geometry":{"type":"LineString","coordinates":[[-16.178843,64.045818],[-16.168336,64.048011],[-16.160814,64.050804],[-16.135434,64.065968],[-16.110027,64.077095],[-16.096394,64.106018],[-16.094195,64.108909],[-16.089433,64.112841],[-16.06011,64.130012],[-16.0555,64.130975],[-16.041898,64.131621],[-16.027841,64.129346],[-16.014187,64.131846],[-15.99689,64.133379],[-15.984036,64.136028],[-15.967849,64.141935],[-15.953793,64.151052],[-15.942381,64.156326],[-15.895097,64.173797],[-15.881619,64.176415],[-15.868437,64.178435],[-15.851817,64.178858],[-15.837986,64.177834],[-15.818328,64.183961],[-15.811388,64.184902],[-15.799759,64.184069],[-15.776726,64.179392],[-15.769917,64.179234],[-15.765067,64.180033],[-15.751143,64.186099],[-15.744704,64.192014],[-15.745927,64.196208],[-15.744618,64.197718],[-15.728648,64.206647],[-15.720418,64.209783],[-15.714702,64.21395],[-15.705681,64.217638],[-15.684501,64.228332],[-15.682875,64.230331],[-15.682761,64.236182],[-15.679445,64.239664],[-15.678196,64.243492],[-15.672678,64.246849],[-15.52341,64.2637],[-15.512237,64.265558],[-15.501186,64.268443],[-15.471016,64.280724],[-15.471356,64.281937],[-15.459521,64.288023],[-15.414579,64.300894],[-15.411587,64.302439],[-15.406019,64.307904],[-15.405427,64.309666],[-15.406763,64.311342],[-15.413715,64.316005],[-15.412897,64.319853],[-15.41739,64.32675],[-15.417371,64.327928],[-15.413949,64.330992],[-15.40928,64.333362],[-15.401462,64.339198],[-15.393044,64.348221],[-15.291096,64.374058],[-15.282756,64.374166],[-15.27681,64.372411],[-15.26521,64.361832],[-15.248423,64.348629],[-15.246692,64.344066],[-15.246684,64.340326],[-15.244704,64.336811],[-15.244308,64.332687],[-15.237483,64.328868],[-15.235965,64.327047],[-15.236161,64.325416],[-15.239213,64.321301],[-15.239104,64.319795],[-15.237755,64.318072],[-15.21997,64.308165],[-15.207013,64.303605],[-15.182879,64.290705],[-15.182627,64.289027],[-15.184628,64.286435],[-15.193421,64.280187],[-15.19808,64.279104],[-15.198858,64.278295],[-15.198394,64.277624],[-15.202031,64.274651],[-15.201881,64.263864],[-15.205219,64.258161],[-15.208828,64.255135],[-15.205969,64.253917],[-15.206847,64.253626],[-15.206256,64.254037],[-15.208433,64.255228],[-15.205219,64.258161],[-15.201881,64.263864],[-15.202031,64.274651],[-15.198394,64.277624],[-15.19808,64.279104],[-15.193684,64.280063],[-15.189289,64.282707],[-15.183565,64.287494],[-15.182559,64.290042],[-15.157137,64.289142],[-15.147606,64.288097],[-15.113966,64.291833],[-15.096376,64.29003],[-15.087717,64.290239],[-15.069908,64.2882],[-15.050205,64.283186],[-15.040517,64.282033],[-15.036539,64.280296],[-15.030869,64.275412],[-15.029353,64.271272],[-15.025465,64.266975],[-15.006148,64.260221],[-15.000251,64.255895],[-14.995846,64.255035],[-14.979942,64.248015]]},"properties":{"name":"J5 Jokulsarlon -> Vestrahorn","day":"J5"}},{"type":"Feature","geometry":{"type":"LineString","coordinates":[[-14.979942,64.248015],[-14.995846,64.255035],[-15.000251,64.255895],[-15.006148,64.260221],[-15.025465,64.266975],[-15.029353,64.271272],[-15.03074,64.27527],[-15.036764,64.280443],[-15.040774,64.28211],[-15.050641,64.283477],[-15.040493,64.282671],[-15.032182,64.284214],[-15.02982,64.285611],[-15.028308,64.287724],[-15.027322,64.293493],[-15.022527,64.296606],[-14.999468,64.30391],[-14.973153,64.31402],[-14.954823,64.317991],[-14.944362,64.321529],[-14.941739,64.323119],[-14.933864,64.33051],[-14.931799,64.336723],[-14.929322,64.339825],[-14.927559,64.344431],[-14.923489,64.350872],[-14.923854,64.359425],[-14.925326,64.363369],[-14.923073,64.367846],[-14.923903,64.375182],[-14.925201,64.376806],[-14.93241,64.380354],[-14.933347,64.383308],[-14.924369,64.392055],[-14.917417,64.400857],[-14.892561,64.41828],[-14.880083,64.422214],[-14.870688,64.420535],[-14.861398,64.417097],[-14.851979,64.416231],[-14.842864,64.419686],[-14.829292,64.422401],[-14.80413,64.424445],[-14.789325,64.426885],[-14.786854,64.426419],[-14.785085,64.423108],[-14.782584,64.421106],[-14.775079,64.418818],[-14.757463,64.417667],[-14.732175,64.417849],[-14.719843,64.42118],[-14.717413,64.422499],[-14.714675,64.425402],[-14.707143,64.428159],[-14.678296,64.43326],[-14.667211,64.436686],[-14.661185,64.437343],[-14.650588,64.435531],[-14.635396,64.429859],[-14.620218,64.427657],[-14.611243,64.422823],[-14.596688,64.420079],[-14.569583,64.41094],[-14.556885,64.410024],[-14.549668,64.406614],[-14.544943,64.405415],[-14.540977,64.405685],[-14.539007,64.406784],[-14.53675,64.411283],[-14.538459,64.418311],[-14.536499,64.423464],[-14.530389,64.428153],[-14.520699,64.43334],[-14.511678,64.435437],[-14.502927,64.43936],[-14.503252,64.441196],[-14.510322,64.446723],[-14.510728,64.448804],[-14.511976,64.45015],[-14.511639,64.45192],[-14.509882,64.454243],[-14.509975,64.46193],[-14.501438,64.467726],[-14.500298,64.469745],[-14.497979,64.471566],[-14.49631,64.474212],[-14.496544,64.480947],[-14.495172,64.482997],[-14.487679,64.486534],[-14.482388,64.49111],[-14.477421,64.493933],[-14.475624,64.495632],[-14.475563,64.497501],[-14.478662,64.499965],[-14.488696,64.503079],[-14.497951,64.509066],[-14.506919,64.512122],[-14.512926,64.517274],[-14.529718,64.525206],[-14.540442,64.527748],[-14.551793,64.53151],[-14.574894,64.534522],[-14.578114,64.535876],[-14.584914,64.541978],[-14.588481,64.543735],[-14.609703,64.547848],[-14.612639,64.551537],[-14.612648,64.553232],[-14.597702,64.56428],[-14.58796,64.568643],[-14.587333,64.57849],[-14.583954,64.582971],[-14.57019,64.590008],[-14.562009,64.592809],[-14.554033,64.593533],[-14.534785,64.589261],[-14.518591,64.591781],[-14.508505,64.594494],[-14.487295,64.596243],[-14.473052,64.596546],[-14.455633,64.599026],[-14.443866,64.599381],[-14.430888,64.598609],[-14.41674,64.600814],[-14.409489,64.607064],[-14.410388,64.610694],[-14.409258,64.614036],[-14.410074,64.615308],[-14.416313,64.620409],[-14.422764,64.622356],[-14.432604,64.628698],[-14.436236,64.62962],[-14.443588,64.629612],[-14.45412,64.631037],[-14.468255,64.633845],[-14.472434,64.635003],[-14.481568,64.639838],[-14.501458,64.643548],[-14.503972,64.645106],[-14.507037,64.649258],[-14.506288,64.651023],[-14.503123,64.653065],[-14.497424,64.654787],[-14.490013,64.65496],[-14.478508,64.658176],[-14.453015,64.655983],[-14.442391,64.657949],[-14.420931,64.659431],[-14.393034,64.659568],[-14.363541,64.65782],[-14.343871,64.654258],[-14.311705,64.657485],[-14.302387,64.654536],[-14.298264,64.654058],[-14.283446,64.65659],[-14.280623,64.658783],[-14.285722,64.659124],[-14.287445,64.660441],[-14.290465,64.660941],[-14.294607,64.659918],[-14.306139,64.660804],[-14.320073,64.667522],[-14.333719,64.672137],[-14.339731,64.672632],[-14.347662,64.676214],[-14.364559,64.686717],[-14.369908,64.691094],[-14.379617,64.693667],[-14.389343,64.701617],[-14.395593,64.705593],[-14.397833,64.709984],[-14.401396,64.71405],[-14.400596,64.720666],[-14.404556,64.725973],[-14.413692,64.730003],[-14.419988,64.735572],[-14.435997,64.743715],[-14.448,64.747422],[-14.451407,64.749426],[-14.465963,64.750758],[-14.475478,64.756423],[-14.478963,64.760641],[-14.478837,64.763024],[-14.475932,64.765423],[-14.467361,64.768985],[-14.466193,64.770288],[-14.466265,64.771644],[-14.470968,64.777346],[-14.474369,64.779619],[-14.48427,64.783455],[-14.4927,64.785576],[-14.488818,64.788765],[-14.480711,64.790216],[-14.467536,64.788525],[-14.45256,64.789045],[-14.443253,64.787843],[-14.435939,64.784791],[-14.4308,64.77883],[-14.42379,64.774643],[-14.405866,64.770737],[-14.399367,64.768497],[-14.394954,64.765792],[-14.391666,64.760462],[-14.3883,64.757832],[-14.377057,64.753748],[-14.370338,64.749996],[-14.363989,64.744636],[-14.352921,64.740698],[-14.344537,64.736054],[-14.337528,64.733397],[-14.334537,64.728827],[-14.327883,64.726181],[-14.325315,64.724277],[-14.324568,64.722372],[-14.325548,64.718491],[-14.3238,64.714404],[-14.318036,64.708785],[-14.315349,64.707543],[-14.306769,64.705801],[-14.302798,64.702856],[-14.285678,64.701919],[-14.262517,64.695815],[-14.251362,64.694471],[-14.242029,64.695002],[-14.214272,64.693937],[-14.18129,64.695203],[-14.161892,64.699636],[-14.144134,64.702697],[-14.120296,64.704116],[-14.105251,64.706117],[-14.098001,64.708384],[-14.086977,64.709719],[-14.073966,64.712817],[-14.056357,64.71562],[-14.043073,64.719164],[-14.029537,64.720527],[-14.009181,64.724329],[-13.993224,64.72932],[-13.989477,64.733639],[-13.990496,64.737148],[-14.010502,64.745289],[-14.011646,64.74642],[-14.013818,64.752119],[-14.016451,64.754509],[-14.02546,64.757917],[-14.046781,64.761557],[-14.051841,64.764143],[-14.053911,64.767061],[-14.053344,64.770258],[-14.046785,64.778233],[-14.039815,64.78465],[-14.031101,64.791149],[-14.018673,64.789946],[-14.013753,64.790465],[-14.009551,64.792235],[-14.003505,64.791286],[-14.002073,64.791906],[-14.003505,64.791286],[-14.009551,64.792235],[-14.006556,64.795617],[-14.008606,64.797448],[-14.009188,64.799893],[-14.0005,64.80083],[-13.983296,64.800332],[-13.968403,64.798442],[-13.960719,64.796357],[-13.944847,64.793757],[-13.936751,64.793254],[-13.921378,64.795658],[-13.909983,64.795613],[-13.898242,64.79851],[-13.888039,64.798488],[-13.873383,64.80201],[-13.863394,64.805364],[-13.862474,64.806711],[-13.863751,64.807819],[-13.87505,64.811806],[-13.88055,64.814618],[-13.897271,64.819268],[-13.905328,64.822359],[-13.92092,64.824635],[-13.951937,64.830832],[-13.957155,64.834064],[-13.957866,64.838218],[-13.956027,64.839828],[-13.94992,64.841141],[-13.934135,64.841461],[-13.890327,64.837165],[-13.879125,64.834909],[-13.874995,64.833125],[-13.851845,64.831058],[-13.8416,64.827607],[-13.837877,64.827223],[-13.818341,64.831613],[-13.801551,64.841314],[-13.785362,64.845096],[-13.762511,64.858417],[-13.761198,64.866262],[-13.763278,64.868658],[-13.767455,64.870964],[-13.794086,64.876269],[-13.805166,64.880192],[-13.809866,64.882662],[-13.81917,64.884055],[-13.824225,64.88592],[-13.834819,64.88802],[-13.855932,64.896452],[-13.860714,64.897573],[-13.871303,64.899297],[-13.884416,64.900284],[-13.896896,64.90003],[-13.921539,64.903509],[-13.931262,64.903158],[-13.970583,64.906737],[-13.995815,64.910167],[-14.002683,64.911909],[-14.024909,64.914584],[-14.034766,64.920128],[-14.042183,64.922958],[-14.05355,64.924556],[-14.062105,64.929521],[-14.061621,64.930869],[-14.05678,64.933312],[-14.046222,64.935465],[-14.039709,64.935337],[-14.027645,64.932264],[-14.019794,64.931561],[-13.995736,64.925415],[-13.957275,64.920508],[-13.951495,64.920402],[-13.950351,64.921767],[-13.951495,64.920402],[-13.957275,64.920508],[-13.995736,64.925415],[-14.014879,64.930502],[-14.027645,64.932264],[-14.041054,64.935503],[-14.05145,64.934598],[-14.08988,64.937416],[-14.095963,64.938902],[-14.110506,64.944917],[-14.122223,64.948499],[-14.143628,64.952641],[-14.156769,64.957547],[-14.171815,64.960044],[-14.175803,64.962071],[-14.177538,64.964086],[-14.19725,65.009795],[-14.199309,65.012463],[-14.207686,65.015743],[-14.241758,65.020714],[-14.263856,65.028639],[-14.266007,65.029998],[-14.24481,65.032775],[-14.230699,65.032308],[-14.219285,65.030999],[-14.219803,65.030294]]},"properties":{"name":"J6 Vestrahorn -> Reydarfjordur (fjords est)","day":"J6"}},{"type":"Feature","geometry":{"type":"LineString","coordinates":[[-14.219803,65.030294],[-14.219285,65.030999],[-14.230699,65.032308],[-14.24481,65.032775],[-14.275373,65.028951],[-14.305626,65.029225],[-14.321221,65.032603],[-14.341031,65.035378],[-14.34453,65.036813],[-14.348204,65.039894],[-14.348555,65.042229],[-14.350322,65.044277],[-14.351433,65.047663],[-14.349734,65.050271],[-14.349679,65.053111],[-14.345979,65.058081],[-14.344501,65.068463],[-14.339206,65.074763],[-14.337655,65.080712],[-14.33388,65.086317],[-14.330115,65.089986],[-14.328108,65.095124],[-14.328835,65.10571],[-14.332364,65.11438],[-14.332728,65.120932],[-14.337045,65.138364],[-14.339561,65.142533],[-14.340042,65.157352],[-14.338079,65.169543],[-14.340278,65.174169],[-14.339796,65.184765],[-14.342394,65.192038],[-14.340333,65.202523],[-14.340541,65.205653],[-14.342987,65.210723],[-14.348954,65.214521],[-14.350938,65.217096],[-14.3493,65.224497],[-14.346275,65.23015],[-14.348557,65.240364],[-14.352935,65.243696],[-14.355011,65.246996],[-14.357679,65.248554],[-14.37163,65.251697],[-14.377273,65.253882],[-14.384531,65.258076],[-14.394242,65.259032],[-14.39938,65.260916],[-14.397628,65.262983],[-14.397244,65.265007],[-14.393804,65.264631],[-14.391018,65.26526],[-14.393804,65.264631],[-14.397244,65.265007],[-14.397953,65.26247],[-14.387064,65.261575],[-14.381107,65.263601],[-14.379382,65.266909],[-14.374735,65.26839],[-14.374196,65.271376],[-14.356232,65.271246],[-14.350351,65.270039],[-14.343275,65.267086],[-14.336414,65.266844],[-14.331301,65.268799],[-14.320019,65.277403],[-14.318387,65.277553],[-14.316001,65.275798],[-14.313068,65.275546],[-14.306086,65.2789],[-14.301095,65.269813],[-14.299853,65.269097],[-14.296687,65.269266],[-14.289628,65.273932],[-14.289075,65.272857],[-14.283012,65.269493],[-14.271578,65.26942],[-14.263342,65.267982],[-14.251259,65.263769],[-14.219335,65.258412],[-14.197226,65.253162],[-14.186067,65.247736],[-14.180643,65.242613],[-14.176985,65.241047],[-14.162632,65.23821],[-14.146784,65.237514],[-14.130544,65.235163],[-14.126828,65.233981],[-14.123507,65.231231],[-14.12082,65.230686],[-14.117874,65.231344],[-14.116291,65.234932],[-14.109406,65.236983],[-14.095301,65.234168],[-14.089062,65.231428],[-14.080583,65.230746],[-14.080488,65.231963],[-14.082414,65.233592],[-14.075587,65.232457],[-14.077553,65.23717],[-14.070778,65.238832],[-14.066868,65.241402],[-14.062142,65.24195],[-14.055256,65.240688],[-14.045982,65.241295],[-14.043999,65.242016],[-14.042184,65.244113],[-14.036513,65.246188],[-14.026752,65.247149],[-14.022874,65.248244],[-14.013802,65.254799],[-14.009481,65.260219]]},"properties":{"name":"J7 Reydarfjordur -> Seydisfjordur (ferry retour)","day":"J7"}},{"type":"Feature","geometry":{"type":"LineString","coordinates":[[-20.234321,63.750903],[-20.232399,63.749085],[-20.235127,63.731072],[-20.233471,63.72117],[-20.23152,63.718371],[-20.216151,63.703499],[-20.210166,63.699119],[-20.198245,63.692253],[-20.152894,63.677027],[-20.123472,63.670499],[-20.093961,63.656176],[-20.05534,63.643456],[-20.044004,63.6369],[-20.028732,63.621879],[-20.036899,63.618259],[-20.041007,63.612751],[-20.049999,63.607723],[-20.053364,63.604076],[-20.055776,63.590036],[-20.061351,63.574275],[-20.062707,63.562157],[-20.065842,63.557189],[-20.070785,63.553498],[-20.077744,63.550357],[-20.098337,63.545471],[-20.108314,63.542029]]},"properties":{"name":"J8a Hvolsvollur -> Landeyjahofn (avant ferry)","day":"J8"}},{"type":"Feature","geometry":{"type":"LineString","coordinates":[[-20.117,63.546],[-20.275,63.428]]},"properties":{"name":"J8b Landeyjahofn -> Heimaey (FERRY Herjolfur)","day":"Ferry"}}]}