{"type":"FeatureCollection","name":"Bloc G","properties":{"bloc":"G","color":"#06b6d4"},"features":[{"type":"Feature","geometry":{"type":"LineString","coordinates":[[-15.893077,65.247498],[-15.891541,65.245694],[-15.893203,65.241296],[-15.900124,65.232653],[-15.898129,65.229497],[-15.897378,65.222927],[-15.898088,65.213811],[-15.898983,65.212402],[-15.8981,65.208502],[-15.90065,65.203615],[-15.900406,65.201039],[-15.90565,65.196102],[-15.904942,65.193869],[-15.90576,65.189916],[-15.910043,65.183263],[-15.910539,65.176422],[-15.908847,65.172552],[-15.911068,65.166264],[-15.916915,65.159667],[-15.925584,65.154131],[-15.926678,65.150678],[-15.933341,65.147143],[-15.942063,65.145369],[-15.945961,65.142895],[-15.947828,65.139461],[-15.946725,65.137628],[-15.947868,65.137125],[-15.947417,65.135676],[-15.945035,65.133885],[-15.946084,65.131627],[-15.944697,65.129716],[-15.945582,65.128299],[-15.953205,65.12803],[-15.95821,65.126015],[-15.965539,65.125366],[-15.96898,65.124013],[-15.979738,65.112002],[-15.985574,65.110577],[-16.02268,65.107103],[-16.042646,65.107274],[-16.06464,65.104849],[-16.078845,65.105766],[-16.110506,65.099239],[-16.117314,65.099506],[-16.129668,65.10239],[-16.135027,65.102277],[-16.141464,65.100269],[-16.15178,65.099244],[-16.161044,65.095397],[-16.162326,65.09401],[-16.170586,65.09276],[-16.173838,65.093508],[-16.170365,65.097629],[-16.171811,65.099424],[-16.173756,65.099849],[-16.183851,65.097286],[-16.185487,65.094379],[-16.188317,65.09326],[-16.188,65.091997],[-16.1895,65.090568],[-16.201057,65.089059],[-16.202441,65.087039],[-16.204383,65.086158],[-16.204614,65.084184],[-16.206513,65.081984],[-16.21007,65.079843],[-16.209748,65.078528],[-16.21104,65.076162],[-16.214966,65.073445],[-16.215096,65.07176],[-16.213699,65.06909],[-16.203855,65.062395],[-16.198522,65.062435],[-16.196458,65.063289],[-16.188269,65.062792],[-16.185233,65.063934],[-16.180398,65.063758],[-16.17744,65.062513],[-16.176787,65.060365],[-16.173246,65.057886],[-16.171871,65.053618],[-16.168288,65.051416],[-16.167797,65.049142],[-16.161931,65.044519],[-16.161667,65.04328],[-16.162416,65.039927],[-16.163692,65.038798],[-16.163432,65.037417],[-16.165659,65.035989],[-16.165603,65.032891],[-16.166912,65.031884],[-16.173946,65.017704],[-16.181402,65.015131],[-16.187501,65.014468],[-16.193678,65.012495],[-16.19508,65.010807],[-16.19439,65.009945],[-16.191629,65.009583],[-16.19503,65.007657],[-16.19783,65.004874],[-16.197832,64.99886],[-16.209868,64.995889],[-16.216385,64.995632],[-16.219798,64.99092],[-16.220222,64.987813],[-16.22258,64.982266],[-16.231083,64.984098],[-16.232083,64.985133],[-16.234188,64.985555],[-16.235567,64.987511],[-16.238488,64.988178],[-16.23908,64.989728],[-16.25262,64.990994],[-16.257973,64.992842],[-16.260645,64.995086],[-16.261525,64.996658],[-16.261048,64.999363],[-16.263155,65.00457],[-16.256756,65.009306],[-16.256704,65.010309],[-16.25457,65.012308],[-16.251197,65.013345],[-16.25203,65.014031],[-16.251122,65.015127],[-16.254176,65.016713],[-16.259681,65.018065],[-16.271507,65.02002],[-16.28254,65.020534],[-16.294828,65.024281],[-16.300412,65.025056],[-16.309403,65.028272],[-16.311811,65.029838],[-16.314089,65.030082],[-16.326244,65.035868],[-16.33228,65.035886],[-16.335801,65.037137],[-16.343785,65.043975],[-16.343608,65.046887],[-16.346102,65.047274],[-16.346957,65.048506],[-16.352066,65.050204],[-16.352626,65.051706],[-16.355066,65.053433],[-16.355216,65.054805],[-16.35852,65.05642],[-16.359653,65.057709],[-16.3585,65.06094],[-16.361342,65.063102],[-16.361781,65.064467],[-16.374406,65.06851],[-16.378154,65.070313],[-16.380082,65.072228],[-16.366027,65.077729],[-16.34796,65.083294],[-16.344001,65.085634],[-16.337031,65.086979],[-16.33622,65.088198],[-16.336319,65.090551],[-16.336877,65.092692],[-16.338896,65.094761],[-16.338198,65.096937],[-16.331908,65.102081],[-16.327779,65.107599],[-16.324688,65.109559],[-16.321865,65.110079],[-16.311811,65.109476],[-16.308766,65.10831],[-16.308193,65.106693],[-16.305404,65.106192],[-16.287747,65.109255],[-16.27437,65.10921],[-16.264277,65.110392],[-16.252681,65.11019],[-16.242368,65.114629],[-16.232497,65.117767],[-16.231566,65.118741],[-16.231907,65.120398],[-16.228079,65.123589],[-16.227936,65.125361],[-16.223699,65.133418],[-16.228315,65.136539],[-16.230806,65.140556],[-16.226761,65.1423],[-16.223219,65.145738],[-16.219466,65.146691],[-16.2167,65.148476],[-16.213622,65.152614],[-16.213283,65.157294],[-16.21069,65.157716],[-16.206124,65.160777],[-16.210248,65.161849],[-16.21061,65.162277],[-16.208663,65.163316],[-16.212508,65.164183],[-16.21378,65.165998],[-16.216262,65.166657],[-16.215959,65.167367],[-16.218173,65.168676],[-16.219657,65.171348],[-16.219232,65.171819],[-16.222186,65.173243],[-16.221929,65.174461],[-16.222752,65.175766],[-16.224574,65.176065],[-16.223547,65.177272],[-16.224131,65.178296],[-16.227943,65.178868],[-16.228558,65.180739],[-16.229759,65.181647],[-16.228807,65.182104],[-16.230016,65.183523],[-16.229442,65.186546],[-16.226369,65.186577],[-16.22408,65.189261],[-16.220937,65.191332],[-16.218841,65.191781],[-16.218261,65.191198],[-16.218841,65.191781],[-16.220937,65.191332],[-16.22408,65.189261],[-16.226369,65.186577],[-16.229442,65.186546],[-16.230016,65.183523],[-16.228807,65.182104],[-16.229759,65.181647],[-16.228558,65.180739],[-16.227943,65.178868],[-16.224131,65.178296],[-16.223547,65.177272],[-16.224574,65.176065],[-16.222752,65.175766],[-16.221929,65.174461],[-16.222186,65.173243],[-16.219232,65.171819],[-16.219657,65.171348],[-16.218173,65.168676],[-16.215959,65.167367],[-16.216262,65.166657],[-16.21378,65.165998],[-16.212508,65.164183],[-16.208663,65.163316],[-16.21061,65.162277],[-16.210248,65.161849],[-16.206124,65.160777],[-16.21069,65.157716],[-16.213283,65.157294],[-16.213622,65.152614],[-16.2167,65.148476],[-16.219466,65.146691],[-16.223219,65.145738],[-16.226761,65.1423],[-16.230806,65.140556],[-16.228315,65.136539],[-16.223699,65.133418],[-16.227936,65.125361],[-16.228079,65.123589],[-16.231907,65.120398],[-16.231566,65.118741],[-16.232497,65.117767],[-16.242368,65.114629],[-16.252681,65.11019],[-16.264277,65.110392],[-16.27437,65.10921],[-16.287747,65.109255],[-16.305404,65.106192],[-16.308193,65.106693],[-16.308766,65.10831],[-16.311811,65.109476],[-16.321865,65.110079],[-16.324688,65.109559],[-16.327779,65.107599],[-16.331908,65.102081],[-16.338198,65.096937],[-16.338896,65.094761],[-16.336877,65.092692],[-16.336319,65.090551],[-16.33622,65.088198],[-16.337031,65.086979],[-16.344001,65.085634],[-16.34796,65.083294],[-16.366027,65.077729],[-16.380082,65.072228],[-16.385962,65.071178],[-16.387582,65.070037],[-16.397999,65.067383],[-16.39827,65.065487],[-16.397116,65.064401],[-16.397236,65.061965],[-16.398667,65.061406],[-16.408061,65.061779],[-16.411423,65.06087],[-16.421449,65.061757],[-16.423481,65.060382],[-16.429729,65.060797],[-16.43822,65.058555],[-16.443977,65.058114],[-16.445174,65.057119],[-16.449973,65.055859],[-16.450603,65.05431],[-16.45253,65.053403],[-16.451762,65.052773],[-16.453135,65.051866],[-16.45806,65.052218],[-16.476175,65.050342],[-16.480836,65.049056],[-16.498094,65.051324],[-16.505476,65.049712],[-16.51665,65.050039],[-16.530196,65.048675],[-16.539939,65.049047],[-16.544705,65.048394],[-16.54927,65.049661],[-16.555477,65.049497],[-16.567375,65.051811],[-16.571071,65.051288],[-16.594975,65.042203]]},"properties":{"name":"J1 Modrudalur -> Drekagil","day":"J1"}},{"type":"Feature","geometry":{"type":"LineString","coordinates":[[-16.594975,65.042203],[-16.596485,65.043333],[-16.596027,65.045109],[-16.598261,65.045826],[-16.59847,65.047222],[-16.606404,65.051034],[-16.61411,65.053336],[-16.620459,65.053817],[-16.630407,65.05725],[-16.640952,65.056284],[-16.652357,65.058147],[-16.661834,65.057983],[-16.672552,65.060599],[-16.675715,65.063247],[-16.685667,65.065851],[-16.687346,65.067151],[-16.693518,65.068186],[-16.703628,65.067906],[-16.715024,65.069376],[-16.721188,65.068732],[-16.725279,65.066958],[-16.721188,65.068732],[-16.715024,65.069376],[-16.703628,65.067906],[-16.693518,65.068186],[-16.687346,65.067151],[-16.685667,65.065851],[-16.675715,65.063247],[-16.672552,65.060599],[-16.661834,65.057983],[-16.652357,65.058147],[-16.640952,65.056284],[-16.630407,65.05725],[-16.620459,65.053817],[-16.61411,65.053336],[-16.606404,65.051034],[-16.59847,65.047222],[-16.598261,65.045826],[-16.596027,65.045109],[-16.596485,65.043333],[-16.594975,65.042203]]},"properties":{"name":"J2 Drekagil -> Askja Viti AR","day":"J2"}},{"type":"Feature","geometry":{"type":"LineString","coordinates":[[-16.594975,65.042203],[-16.583715,65.04182],[-16.573483,65.035506],[-16.570021,65.034492],[-16.568886,65.031781],[-16.570703,65.031113],[-16.570611,65.029962],[-16.573844,65.028013],[-16.577158,65.022371],[-16.569189,65.014974],[-16.562037,65.010474],[-16.561684,65.00752],[-16.559013,65.004181],[-16.544317,64.991886],[-16.555484,64.980178],[-16.560968,64.975545],[-16.566869,64.971403],[-16.57637,64.966277],[-16.599849,64.95697],[-16.609216,64.95394],[-16.631762,64.951668],[-16.640216,64.949632],[-16.649404,64.945564],[-16.657832,64.939608],[-16.675285,64.932106],[-16.691663,64.927051],[-16.700006,64.927135],[-16.715618,64.925069],[-16.723005,64.922293],[-16.7292,64.921967],[-16.737778,64.9189],[-16.74149,64.920552],[-16.747442,64.920512],[-16.75664,64.917356],[-16.787216,64.917742],[-16.789412,64.919106],[-16.798191,64.919025],[-16.800604,64.916805],[-16.802297,64.916405],[-16.817078,64.919742],[-16.829601,64.921532],[-16.835289,64.927849],[-16.835655,64.929632],[-16.844497,64.936232],[-16.848735,64.937435],[-16.8602,64.93707],[-16.864916,64.939099],[-16.870972,64.938037],[-16.876682,64.939403],[-16.883897,64.939932],[-16.886442,64.940654],[-16.885552,64.942098],[-16.889499,64.943314],[-16.890274,64.9448],[-16.901101,64.947902],[-16.902588,64.949948],[-16.904495,64.950671],[-16.914091,64.950717],[-16.914458,64.951554],[-16.912914,64.955087],[-16.91628,64.955343],[-16.923272,64.957572],[-16.925007,64.959899],[-16.924706,64.960697],[-16.926726,64.961939],[-16.930506,64.962794],[-16.938633,64.962186],[-16.943912,64.963064],[-16.946848,64.962303],[-16.951637,64.96345],[-16.954886,64.966898],[-16.957101,64.967],[-16.966914,64.970425],[-16.967657,64.972744],[-16.973158,64.976689],[-16.974864,64.978962],[-16.977119,64.979749],[-16.977927,64.98108],[-16.983801,64.983042],[-16.984438,64.983993],[-16.986544,64.98397],[-16.985773,64.984582],[-16.989592,64.985975],[-17.002799,64.987582],[-17.005552,64.98886],[-17.005191,64.990325],[-17.009994,64.992923],[-17.010067,64.994105],[-17.013019,64.997094],[-17.023165,65.002145],[-17.023309,65.003145],[-17.034208,65.008968],[-17.034708,65.009532],[-17.032454,65.010151],[-17.03093,65.011825],[-17.033838,65.012379],[-17.036552,65.017458],[-17.040629,65.018572],[-17.047883,65.0184],[-17.049003,65.017507],[-17.052179,65.017201],[-17.069731,65.018183],[-17.075018,65.016935],[-17.084626,65.017333],[-17.088587,65.019565],[-17.087437,65.022135],[-17.093567,65.025445],[-17.107127,65.023085],[-17.112967,65.020295],[-17.113907,65.018915],[-17.120947,65.016695],[-17.123762,65.014016],[-17.125811,65.013321],[-17.140307,65.010165],[-17.145774,65.010074],[-17.147991,65.010931],[-17.154495,65.01138],[-17.16187,65.010716],[-17.18417,65.012144],[-17.189151,65.013378],[-17.192887,65.015706],[-17.19208,65.016694],[-17.192487,65.018679],[-17.196066,65.019496],[-17.203603,65.017195],[-17.206919,65.017462],[-17.211416,65.014108],[-17.223387,65.009045],[-17.228482,65.009605],[-17.233936,65.006447],[-17.234797,65.005055],[-17.238407,65.005525],[-17.241953,65.004952],[-17.246988,65.007057],[-17.250344,65.009834],[-17.254554,65.010396],[-17.253706,65.011639],[-17.254599,65.012137],[-17.257157,65.012735],[-17.261013,65.011714],[-17.266109,65.011938],[-17.267417,65.012605],[-17.267161,65.014258],[-17.270849,65.017796],[-17.272705,65.01798],[-17.281001,65.01567],[-17.282657,65.013515],[-17.285187,65.013815],[-17.286687,65.011925],[-17.293597,65.010645],[-17.315787,65.010985],[-17.330249,65.009033],[-17.337142,65.006126],[-17.346755,65.005001],[-17.358018,65.001399],[-17.359733,65.001778],[-17.359331,65.00388],[-17.372134,65.009392],[-17.387375,65.011743],[-17.395016,65.009415],[-17.408072,65.009686],[-17.41642,65.007398],[-17.418948,65.00565],[-17.423552,65.004384],[-17.424746,65.003632],[-17.424854,65.002433],[-17.433163,64.999742],[-17.437319,64.999758],[-17.438607,64.999005],[-17.437407,64.994245],[-17.438653,64.992846],[-17.44063,64.993228],[-17.443265,64.991774],[-17.441252,64.990481],[-17.439326,64.987354],[-17.437355,64.98702],[-17.440099,64.98345],[-17.438007,64.982994],[-17.438527,64.980854],[-17.440041,64.979921],[-17.438267,64.979694],[-17.438351,64.978746],[-17.437499,64.978348],[-17.443903,64.975301],[-17.441799,64.973107],[-17.444727,64.970048],[-17.44265,64.969268],[-17.443757,64.967074],[-17.445725,64.966515],[-17.444661,64.96474],[-17.445393,64.963809],[-17.447917,64.963482],[-17.449656,64.964559],[-17.452295,64.963513],[-17.450667,64.962484],[-17.44851,64.957924],[-17.446587,64.956434],[-17.449736,64.952964],[-17.449037,64.950724],[-17.451682,64.947909],[-17.454527,64.942224],[-17.458267,64.938154],[-17.461728,64.936275],[-17.460707,64.932743],[-17.461867,64.931413],[-17.465217,64.930253],[-17.46832,64.92683],[-17.466156,64.92495],[-17.467412,64.923672],[-17.466758,64.922149],[-17.474056,64.920245],[-17.473353,64.919329],[-17.473712,64.916122],[-17.476367,64.914657],[-17.473327,64.913953],[-17.474617,64.912103],[-17.472727,64.909183],[-17.474057,64.907043],[-17.474227,64.904553],[-17.481276,64.901793],[-17.480098,64.900821],[-17.482087,64.900123],[-17.483296,64.898548],[-17.482807,64.897938],[-17.485803,64.89525],[-17.490327,64.893402],[-17.490964,64.892257],[-17.496927,64.892273],[-17.500537,64.891593],[-17.501918,64.890536],[-17.504683,64.890801],[-17.511778,64.888761],[-17.515767,64.889272],[-17.519886,64.88816],[-17.526804,64.889301],[-17.527552,64.88845],[-17.526364,64.887765],[-17.530789,64.885366],[-17.530095,64.883819],[-17.532155,64.882249],[-17.544158,64.882296],[-17.554267,64.880172],[-17.557367,64.878412],[-17.560957,64.879312],[-17.569537,64.876562],[-17.572946,64.877533],[-17.582669,64.876662],[-17.592807,64.878462],[-17.594382,64.877955],[-17.596017,64.876402],[-17.59792,64.876054],[-17.597737,64.873772],[-17.600137,64.872572],[-17.599887,64.868032],[-17.602828,64.865947],[-17.602175,64.86541],[-17.609797,64.863472],[-17.62118,64.854402],[-17.621297,64.850942],[-17.622811,64.848057],[-17.619431,64.845239],[-17.621987,64.841591],[-17.622516,64.838651],[-17.627366,64.831109],[-17.630332,64.83294],[-17.631791,64.835858],[-17.633658,64.836695],[-17.637477,64.840536],[-17.636554,64.841394],[-17.638314,64.843733],[-17.636983,64.846201],[-17.637541,64.851179],[-17.639301,64.852872],[-17.644429,64.852527],[-17.639301,64.852872],[-17.637541,64.851179],[-17.636983,64.846201],[-17.638314,64.843733],[-17.636554,64.841394],[-17.637477,64.840536],[-17.633658,64.836695],[-17.631791,64.835858],[-17.630332,64.83294],[-17.627366,64.831109],[-17.622516,64.838651],[-17.621987,64.841591],[-17.619431,64.845239],[-17.622811,64.848057],[-17.621297,64.850942],[-17.62118,64.854402],[-17.609797,64.863472],[-17.602175,64.86541],[-17.602828,64.865947],[-17.599887,64.868032],[-17.600137,64.872572],[-17.597737,64.873772],[-17.59792,64.876054],[-17.596017,64.876402],[-17.594382,64.877955],[-17.592807,64.878462],[-17.582669,64.876662],[-17.572946,64.877533],[-17.569537,64.876562],[-17.560957,64.879312],[-17.557367,64.878412],[-17.554267,64.880172],[-17.544158,64.882296],[-17.532155,64.882249],[-17.530095,64.883819],[-17.530789,64.885366],[-17.526364,64.887765],[-17.527552,64.88845],[-17.526804,64.889301],[-17.519886,64.88816],[-17.515767,64.889272],[-17.511778,64.888761],[-17.504683,64.890801],[-17.501918,64.890536],[-17.500537,64.891593],[-17.496927,64.892273],[-17.490964,64.892257],[-17.490327,64.893402],[-17.485803,64.89525],[-17.482807,64.897938],[-17.483296,64.898548],[-17.482087,64.900123],[-17.480098,64.900821],[-17.481276,64.901793],[-17.474227,64.904553],[-17.474057,64.907043],[-17.472727,64.909183],[-17.474617,64.912103],[-17.473327,64.913953],[-17.476367,64.914657],[-17.473712,64.916122],[-17.473353,64.919329],[-17.474056,64.920245],[-17.466758,64.922149],[-17.467412,64.923672],[-17.466156,64.92495],[-17.46832,64.92683],[-17.465217,64.930253],[-17.461867,64.931413],[-17.460707,64.932743],[-17.461728,64.936275],[-17.458267,64.938154],[-17.454527,64.942224],[-17.451682,64.947909],[-17.449037,64.950724],[-17.449736,64.952964],[-17.446587,64.956434],[-17.44851,64.957924],[-17.450667,64.962484],[-17.452295,64.963513],[-17.449656,64.964559],[-17.447917,64.963482],[-17.445393,64.963809],[-17.444661,64.96474],[-17.445725,64.966515],[-17.443757,64.967074],[-17.44265,64.969268],[-17.444727,64.970048],[-17.441799,64.973107],[-17.443903,64.975301],[-17.437499,64.978348],[-17.438351,64.978746],[-17.438267,64.979694],[-17.440041,64.979921],[-17.438527,64.980854],[-17.438007,64.982994],[-17.440099,64.98345],[-17.437355,64.98702],[-17.439326,64.987354],[-17.441252,64.990481],[-17.443265,64.991774],[-17.44063,64.993228],[-17.438653,64.992846],[-17.437407,64.994245],[-17.438607,64.999005],[-17.437319,64.999758],[-17.433163,64.999742],[-17.424854,65.002433],[-17.424746,65.003632],[-17.423552,65.004384],[-17.418948,65.00565],[-17.41642,65.007398],[-17.408072,65.009686],[-17.395016,65.009415],[-17.387375,65.011743],[-17.372134,65.009392],[-17.359331,65.00388],[-17.359733,65.001778],[-17.358018,65.001399],[-17.346755,65.005001],[-17.337142,65.006126],[-17.330249,65.009033],[-17.315787,65.010985],[-17.293597,65.010645],[-17.286687,65.011925],[-17.285187,65.013815],[-17.282657,65.013515],[-17.281001,65.01567],[-17.272705,65.01798],[-17.270849,65.017796],[-17.267161,65.014258],[-17.267417,65.012605],[-17.266109,65.011938],[-17.261013,65.011714],[-17.257157,65.012735],[-17.254599,65.012137],[-17.253706,65.011639],[-17.254554,65.010396],[-17.250344,65.009834],[-17.246988,65.007057],[-17.241953,65.004952],[-17.238407,65.005525],[-17.234797,65.005055],[-17.233936,65.006447],[-17.228482,65.009605],[-17.223387,65.009045],[-17.211416,65.014108],[-17.206919,65.017462],[-17.203603,65.017195],[-17.196066,65.019496],[-17.192487,65.018679],[-17.19208,65.016694],[-17.192887,65.015706],[-17.189151,65.013378],[-17.18417,65.012144],[-17.16187,65.010716],[-17.154495,65.01138],[-17.147991,65.010931],[-17.145774,65.010074],[-17.140307,65.010165],[-17.125811,65.013321],[-17.123762,65.014016],[-17.120947,65.016695],[-17.113907,65.018915],[-17.112967,65.020295],[-17.107127,65.023085],[-17.093567,65.025445],[-17.087437,65.022135],[-17.088587,65.019565],[-17.084626,65.017333],[-17.075018,65.016935],[-17.069731,65.018183],[-17.052179,65.017201],[-17.049003,65.017507],[-17.047883,65.0184],[-17.040629,65.018572],[-17.036552,65.017458],[-17.033838,65.012379],[-17.03093,65.011825],[-17.032454,65.010151],[-17.034708,65.009532],[-17.034208,65.008968],[-17.023309,65.003145],[-17.023165,65.002145],[-17.013019,64.997094],[-17.010067,64.994105],[-17.009994,64.992923],[-17.005191,64.990325],[-17.005552,64.98886],[-17.002799,64.987582],[-16.989592,64.985975],[-16.985773,64.984582],[-16.986544,64.98397],[-16.984438,64.983993],[-16.983801,64.983042],[-16.977927,64.98108],[-16.977119,64.979749],[-16.974864,64.978962],[-16.973158,64.976689],[-16.967657,64.972744],[-16.966914,64.970425],[-16.957101,64.967],[-16.954886,64.966898],[-16.951637,64.96345],[-16.946848,64.962303],[-16.943912,64.963064],[-16.938633,64.962186],[-16.930506,64.962794],[-16.926726,64.961939],[-16.924706,64.960697],[-16.925007,64.959899],[-16.923272,64.957572],[-16.91628,64.955343],[-16.912914,64.955087],[-16.914458,64.951554],[-16.914091,64.950717],[-16.904495,64.950671],[-16.902588,64.949948],[-16.901101,64.947902],[-16.890274,64.9448],[-16.889499,64.943314],[-16.885552,64.942098],[-16.886442,64.940654],[-16.883897,64.939932],[-16.876682,64.939403],[-16.870972,64.938037],[-16.864916,64.939099],[-16.8602,64.93707],[-16.848735,64.937435],[-16.844497,64.936232],[-16.835655,64.929632],[-16.835289,64.927849],[-16.829601,64.921532],[-16.817078,64.919742],[-16.802297,64.916405],[-16.800604,64.916805],[-16.798191,64.919025],[-16.789412,64.919106],[-16.787216,64.917742],[-16.75664,64.917356],[-16.747442,64.920512],[-16.74149,64.920552],[-16.737778,64.9189],[-16.7292,64.921967],[-16.723005,64.922293],[-16.715618,64.925069],[-16.700006,64.927135],[-16.691663,64.927051],[-16.675285,64.932106],[-16.657832,64.939608],[-16.649404,64.945564],[-16.640216,64.949632],[-16.631762,64.951668],[-16.609216,64.95394],[-16.599849,64.95697],[-16.57637,64.966277],[-16.566869,64.971403],[-16.560968,64.975545],[-16.555484,64.980178],[-16.544317,64.991886],[-16.559013,65.004181],[-16.561684,65.00752],[-16.562037,65.010474],[-16.569189,65.014974],[-16.577158,65.022371],[-16.573844,65.028013],[-16.570611,65.029962],[-16.570703,65.031113],[-16.568886,65.031781],[-16.570021,65.034492],[-16.573483,65.035506],[-16.583715,65.04182],[-16.594975,65.042203]]},"properties":{"name":"J3 Drekagil -> Holuhraun AR","day":"J3"}},{"type":"Feature","geometry":{"type":"LineString","coordinates":[[-16.594975,65.042203],[-16.571071,65.051288],[-16.567375,65.051811],[-16.555477,65.049497],[-16.54927,65.049661],[-16.544705,65.048394],[-16.539939,65.049047],[-16.530196,65.048675],[-16.51665,65.050039],[-16.505476,65.049712],[-16.498094,65.051324],[-16.480836,65.049056],[-16.476175,65.050342],[-16.45806,65.052218],[-16.453135,65.051866],[-16.451762,65.052773],[-16.45253,65.053403],[-16.450603,65.05431],[-16.449973,65.055859],[-16.445174,65.057119],[-16.443977,65.058114],[-16.43822,65.058555],[-16.429729,65.060797],[-16.423481,65.060382],[-16.421449,65.061757],[-16.411423,65.06087],[-16.408061,65.061779],[-16.398667,65.061406],[-16.397236,65.061965],[-16.397116,65.064401],[-16.39827,65.065487],[-16.397999,65.067383],[-16.387582,65.070037],[-16.385962,65.071178],[-16.380082,65.072228],[-16.366027,65.077729],[-16.34796,65.083294],[-16.344001,65.085634],[-16.337031,65.086979],[-16.33622,65.088198],[-16.336319,65.090551],[-16.336877,65.092692],[-16.338896,65.094761],[-16.338198,65.096937],[-16.331908,65.102081],[-16.327779,65.107599],[-16.324688,65.109559],[-16.321865,65.110079],[-16.311811,65.109476],[-16.308766,65.10831],[-16.308193,65.106693],[-16.305404,65.106192],[-16.287747,65.109255],[-16.27437,65.10921],[-16.264277,65.110392],[-16.252681,65.11019],[-16.242368,65.114629],[-16.232497,65.117767],[-16.231566,65.118741],[-16.231907,65.120398],[-16.228079,65.123589],[-16.227936,65.125361],[-16.223699,65.133418],[-16.228315,65.136539],[-16.230806,65.140556],[-16.226761,65.1423],[-16.223219,65.145738],[-16.219466,65.146691],[-16.2167,65.148476],[-16.213622,65.152614],[-16.213283,65.157294],[-16.21069,65.157716],[-16.206124,65.160777],[-16.210248,65.161849],[-16.21061,65.162277],[-16.208663,65.163316],[-16.212508,65.164183],[-16.21378,65.165998],[-16.216262,65.166657],[-16.215959,65.167367],[-16.218173,65.168676],[-16.219657,65.171348],[-16.219232,65.171819],[-16.222186,65.173243],[-16.221929,65.174461],[-16.222752,65.175766],[-16.224574,65.176065],[-16.223547,65.177272],[-16.224131,65.178296],[-16.227943,65.178868],[-16.228558,65.180739],[-16.229759,65.181647],[-16.228807,65.182104],[-16.230016,65.183523],[-16.229442,65.186546],[-16.226369,65.186577],[-16.22408,65.189261],[-16.220937,65.191332],[-16.218841,65.191781],[-16.218261,65.191198],[-16.218841,65.191781],[-16.220937,65.191332],[-16.22408,65.189261],[-16.226369,65.186577],[-16.229442,65.186546],[-16.230016,65.183523],[-16.228807,65.182104],[-16.229759,65.181647],[-16.228558,65.180739],[-16.227943,65.178868],[-16.224131,65.178296],[-16.223547,65.177272],[-16.224574,65.176065],[-16.222752,65.175766],[-16.221929,65.174461],[-16.222186,65.173243],[-16.219232,65.171819],[-16.219657,65.171348],[-16.218173,65.168676],[-16.215959,65.167367],[-16.216262,65.166657],[-16.21378,65.165998],[-16.212508,65.164183],[-16.208663,65.163316],[-16.21061,65.162277],[-16.210248,65.161849],[-16.206124,65.160777],[-16.21069,65.157716],[-16.213283,65.157294],[-16.213622,65.152614],[-16.2167,65.148476],[-16.219466,65.146691],[-16.223219,65.145738],[-16.226761,65.1423],[-16.230806,65.140556],[-16.228315,65.136539],[-16.223699,65.133418],[-16.227936,65.125361],[-16.228079,65.123589],[-16.231907,65.120398],[-16.231566,65.118741],[-16.232497,65.117767],[-16.242368,65.114629],[-16.252681,65.11019],[-16.264277,65.110392],[-16.27437,65.10921],[-16.287747,65.109255],[-16.305404,65.106192],[-16.308193,65.106693],[-16.308766,65.10831],[-16.311811,65.109476],[-16.321865,65.110079],[-16.324688,65.109559],[-16.327779,65.107599],[-16.331908,65.102081],[-16.338198,65.096937],[-16.338896,65.094761],[-16.336877,65.092692],[-16.336319,65.090551],[-16.33622,65.088198],[-16.337031,65.086979],[-16.344001,65.085634],[-16.34796,65.083294],[-16.366027,65.077729],[-16.380082,65.072228],[-16.378154,65.070313],[-16.374406,65.06851],[-16.361781,65.064467],[-16.361342,65.063102],[-16.3585,65.06094],[-16.359653,65.057709],[-16.35852,65.05642],[-16.355216,65.054805],[-16.355066,65.053433],[-16.352626,65.051706],[-16.352066,65.050204],[-16.346957,65.048506],[-16.346102,65.047274],[-16.343608,65.046887],[-16.343785,65.043975],[-16.335801,65.037137],[-16.33228,65.035886],[-16.326244,65.035868],[-16.314089,65.030082],[-16.311811,65.029838],[-16.309403,65.028272],[-16.300412,65.025056],[-16.294828,65.024281],[-16.28254,65.020534],[-16.271507,65.02002],[-16.259681,65.018065],[-16.254176,65.016713],[-16.251122,65.015127],[-16.25203,65.014031],[-16.251197,65.013345],[-16.25457,65.012308],[-16.256704,65.010309],[-16.256756,65.009306],[-16.263155,65.00457],[-16.261048,64.999363],[-16.261525,64.996658],[-16.260645,64.995086],[-16.257973,64.992842],[-16.25262,64.990994],[-16.23908,64.989728],[-16.238488,64.988178],[-16.235567,64.987511],[-16.234188,64.985555],[-16.232083,64.985133],[-16.231083,64.984098],[-16.22258,64.982266],[-16.220222,64.987813],[-16.219798,64.99092],[-16.216385,64.995632],[-16.209868,64.995889],[-16.197832,64.99886],[-16.19783,65.004874],[-16.19503,65.007657],[-16.191629,65.009583],[-16.19439,65.009945],[-16.19508,65.010807],[-16.193678,65.012495],[-16.187501,65.014468],[-16.181402,65.015131],[-16.173946,65.017704],[-16.166912,65.031884],[-16.165603,65.032891],[-16.165659,65.035989],[-16.163432,65.037417],[-16.163692,65.038798],[-16.162416,65.039927],[-16.161667,65.04328],[-16.161931,65.044519],[-16.167797,65.049142],[-16.168288,65.051416],[-16.171871,65.053618],[-16.173246,65.057886],[-16.176787,65.060365],[-16.17744,65.062513],[-16.180398,65.063758],[-16.185233,65.063934],[-16.188269,65.062792],[-16.196458,65.063289],[-16.198522,65.062435],[-16.203855,65.062395],[-16.213699,65.06909],[-16.215096,65.07176],[-16.214966,65.073445],[-16.21104,65.076162],[-16.209748,65.078528],[-16.21007,65.079843],[-16.206513,65.081984],[-16.204614,65.084184],[-16.204383,65.086158],[-16.202441,65.087039],[-16.201057,65.089059],[-16.1895,65.090568],[-16.188,65.091997],[-16.188317,65.09326],[-16.185487,65.094379],[-16.183851,65.097286],[-16.173756,65.099849],[-16.171811,65.099424],[-16.170365,65.097629],[-16.173838,65.093508],[-16.170586,65.09276],[-16.162326,65.09401],[-16.161044,65.095397],[-16.15178,65.099244],[-16.141464,65.100269],[-16.135027,65.102277],[-16.129668,65.10239],[-16.117314,65.099506],[-16.110506,65.099239],[-16.078845,65.105766],[-16.06464,65.104849],[-16.042646,65.107274],[-16.02268,65.107103],[-15.985574,65.110577],[-15.979738,65.112002],[-15.96898,65.124013],[-15.965539,65.125366],[-15.95821,65.126015],[-15.953205,65.12803],[-15.945582,65.128299],[-15.944697,65.129716],[-15.946084,65.131627],[-15.945035,65.133885],[-15.947417,65.135676],[-15.947868,65.137125],[-15.946725,65.137628],[-15.947828,65.139461],[-15.945961,65.142895],[-15.942063,65.145369],[-15.933341,65.147143],[-15.926678,65.150678],[-15.925584,65.154131],[-15.916915,65.159667],[-15.911068,65.166264],[-15.908847,65.172552],[-15.910539,65.176422],[-15.910043,65.183263],[-15.90576,65.189916],[-15.904942,65.193869],[-15.90565,65.196102],[-15.900406,65.201039],[-15.90065,65.203615],[-15.8981,65.208502],[-15.898983,65.212402],[-15.898088,65.213811],[-15.897378,65.222927],[-15.898129,65.229497],[-15.900124,65.232653],[-15.893203,65.241296],[-15.891541,65.245694],[-15.893077,65.247498]]},"properties":{"name":"J4 Drekagil -> Modrudalur (retour)","day":"J4"}}]}