{"type":"FeatureCollection","name":"Bloc B","properties":{"bloc":"B","color":"#ea580c"},"features":[{"type":"Feature","geometry":{"type":"LineString","coordinates":[[-17.546176,65.685494],[-17.545063,65.685501],[-17.545772,65.686478],[-17.545217,65.686803],[-17.554827,65.690808],[-17.605498,65.701864],[-17.623701,65.703847],[-17.667923,65.706124],[-17.682672,65.709299],[-17.693672,65.709446],[-17.712858,65.711984],[-17.724245,65.715157],[-17.75048,65.714547],[-17.772347,65.719637],[-17.790763,65.720931],[-17.805473,65.725481],[-17.831428,65.730934],[-17.843446,65.735882],[-17.863563,65.739425],[-17.885279,65.746506],[-17.89214,65.747423],[-17.910016,65.746119],[-17.91549,65.744271],[-17.92069,65.736035],[-17.917798,65.731224],[-17.917792,65.728738],[-17.919731,65.726843],[-17.923486,65.725184],[-17.96299,65.717323],[-18.009296,65.70486],[-18.044771,65.698234],[-18.050988,65.696198],[-18.053155,65.694555],[-18.053993,65.692251],[-18.044782,65.673244],[-18.045602,65.671428],[-18.049321,65.669656],[-18.058779,65.668599],[-18.074142,65.670309],[-18.082494,65.670371],[-18.088029,65.676032],[-18.087236,65.680651],[-18.088148,65.682826],[-18.092053,65.685965],[-18.094212,65.685173]]},"properties":{"name":"J1 Godafoss -> Akureyri","day":"J1"}},{"type":"Feature","geometry":{"type":"LineString","coordinates":[[-18.094212,65.685173],[-18.092485,65.686151],[-18.114574,65.693467],[-18.143622,65.700318],[-18.151894,65.703021],[-18.179587,65.722635],[-18.193504,65.739222],[-18.20123,65.74367],[-18.210379,65.746664],[-18.225629,65.747949],[-18.225793,65.749214],[-18.231495,65.75232],[-18.22979,65.756398],[-18.232369,65.75945],[-18.233466,65.762862],[-18.237492,65.768209],[-18.23826,65.770527],[-18.228475,65.802992],[-18.228786,65.805846],[-18.235162,65.817163],[-18.239477,65.822285],[-18.253981,65.844556],[-18.261674,65.864596],[-18.266745,65.883093],[-18.274389,65.888648],[-18.292526,65.905066],[-18.300127,65.908883],[-18.307616,65.911322],[-18.342973,65.917579],[-18.351102,65.921163],[-18.355214,65.924757],[-18.377402,65.932558],[-18.390555,65.935765],[-18.417014,65.940411],[-18.453533,65.950734],[-18.464688,65.95138],[-18.483772,65.94714],[-18.48991,65.946836],[-18.527682,65.953473],[-18.5324,65.954847],[-18.536112,65.95692],[-18.538955,65.960469],[-18.538837,65.96142],[-18.534228,65.963783],[-18.527191,65.969455],[-18.528384,65.970522],[-18.527398,65.970714],[-18.529681,65.972709],[-18.529264,65.974357],[-18.531471,65.974394],[-18.528418,65.988173],[-18.532606,65.993948],[-18.532884,65.995363],[-18.523522,66.005585],[-18.519457,66.012806],[-18.519256,66.023292],[-18.519389,66.026358],[-18.523752,66.033637],[-18.52121,66.042105],[-18.52189,66.047323],[-18.527919,66.056574],[-18.530874,66.063469],[-18.531623,66.068212],[-18.535813,66.070823],[-18.537245,66.073179],[-18.604691,66.084363],[-18.620108,66.079819],[-18.633956,66.077783],[-18.651453,66.070964],[-18.6541,66.07087],[-18.654647,66.066025],[-18.660791,66.061182],[-18.659188,66.057812],[-18.660791,66.061182],[-18.654647,66.066025],[-18.6541,66.07087],[-18.659748,66.070962],[-18.679923,66.074059],[-18.805693,66.099907],[-18.811723,66.101738],[-18.822626,66.107306],[-18.88106,66.124438],[-18.892201,66.126896],[-18.900436,66.130702],[-18.920007,66.132774],[-18.921728,66.133954],[-18.921841,66.135175],[-18.915672,66.14066],[-18.912167,66.148658],[-18.911064,66.149523],[-18.909703,66.149306]]},"properties":{"name":"J2 Akureyri -> Siglufjordur","day":"J2"}},{"type":"Feature","geometry":{"type":"LineString","coordinates":[[-18.909703,66.149306],[-18.90818,66.148597],[-18.90439,66.152543],[-18.90915,66.153282],[-18.90919,66.153923],[-18.90313,66.161102],[-18.902179,66.166306],[-18.904442,66.174177],[-18.910187,66.179417],[-18.92255,66.184922],[-18.928807,66.185437],[-18.947989,66.184063],[-18.981512,66.176531],[-18.987819,66.172363],[-18.988718,66.17048],[-18.989047,66.164567],[-18.99133,66.163394],[-18.996016,66.163636],[-19.003016,66.166318],[-19.008627,66.166232],[-19.025806,66.161733],[-19.034118,66.158618],[-19.047686,66.157204],[-19.056907,66.153084],[-19.058192,66.151666],[-19.058213,66.148959],[-19.058995,66.147668],[-19.064101,66.144517],[-19.064015,66.143556],[-19.061578,66.14119],[-19.063891,66.138986],[-19.062738,66.136737],[-19.069352,66.133192],[-19.07089,66.130736],[-19.072902,66.123307],[-19.069873,66.120665],[-19.074772,66.117115],[-19.075204,66.114788],[-19.073349,66.111638],[-19.076248,66.105658],[-19.072972,66.10228],[-19.067865,66.098755],[-19.054553,66.082787],[-19.05313,66.080319],[-19.051148,66.071085],[-19.045654,66.066993],[-19.02968,66.061954],[-19.015313,66.051832],[-19.038865,66.049261],[-19.05975,66.054996],[-19.127286,66.057745],[-19.192348,66.074342],[-19.217663,66.077966],[-19.242259,66.072928],[-19.272509,66.072386],[-19.29858,66.069543],[-19.316717,66.06536],[-19.321588,66.063453],[-19.341674,66.047229],[-19.359648,66.035464],[-19.377457,66.017094],[-19.395332,66.006455],[-19.401491,65.993739],[-19.40957,65.98875],[-19.413378,65.983047],[-19.412863,65.980986],[-19.407563,65.976413],[-19.406646,65.974725],[-19.408304,65.969256],[-19.407038,65.964192],[-19.409291,65.959174],[-19.411777,65.955835],[-19.412053,65.943419],[-19.405219,65.926852],[-19.406608,65.920409],[-19.396926,65.91197],[-19.394104,65.901288],[-19.394388,65.899877],[-19.413929,65.897405],[-19.404526,65.894603],[-19.39654,65.89075],[-19.391229,65.890891],[-19.388903,65.886604],[-19.384228,65.883446],[-19.376611,65.870883],[-19.374819,65.857077],[-19.375146,65.853454],[-19.371799,65.849366],[-19.367357,65.846635],[-19.356709,65.837757],[-19.355126,65.835188],[-19.355341,65.83152],[-19.349558,65.825471],[-19.343587,65.821231],[-19.332513,65.817407],[-19.321397,65.805795],[-19.31331,65.803317],[-19.297955,65.795461],[-19.297119,65.793297],[-19.297681,65.791478],[-19.312533,65.773964],[-19.315326,65.771755],[-19.311637,65.770465],[-19.306782,65.7667],[-19.298478,65.762959],[-19.267291,65.755727],[-19.200659,65.749801],[-19.18639,65.752177],[-19.181959,65.751996],[-19.114819,65.733193],[-19.108887,65.733002],[-19.114819,65.733193],[-19.181959,65.751996],[-19.18639,65.752177],[-19.200659,65.749801],[-19.267291,65.755727],[-19.298478,65.762959],[-19.306782,65.7667],[-19.311637,65.770465],[-19.315326,65.771755],[-19.327563,65.76532],[-19.339719,65.761577],[-19.345416,65.758628],[-19.353279,65.751186],[-19.360504,65.747624],[-19.369255,65.731669],[-19.388797,65.732524],[-19.395005,65.734093],[-19.403915,65.737753],[-19.408465,65.738333],[-19.454261,65.731779],[-19.46362,65.731937],[-19.47452,65.735558],[-19.497341,65.741474],[-19.501396,65.743546],[-19.508178,65.749287],[-19.514158,65.75275],[-19.523338,65.754782],[-19.529454,65.754554],[-19.534448,65.753391],[-19.549104,65.745912],[-19.571588,65.743732],[-19.597474,65.742387],[-19.620284,65.743802],[-19.63322,65.746096],[-19.636627,65.744169],[-19.639929,65.745045]]},"properties":{"name":"J3 Siglufjordur -> Saudarkrokur","day":"J3"}},{"type":"Feature","geometry":{"type":"LineString","coordinates":[[-19.639929,65.745045],[-19.641438,65.745446],[-19.638996,65.747022],[-19.637169,65.747048],[-19.646028,65.74994],[-19.651339,65.753623],[-19.649687,65.759426],[-19.6488,65.759898],[-19.649304,65.760938],[-19.660549,65.763342],[-19.667194,65.76241],[-19.671388,65.758966],[-19.687698,65.752053],[-19.703453,65.75003],[-19.714649,65.747286],[-19.725738,65.746803],[-19.743944,65.747554],[-19.749415,65.748607],[-19.786438,65.761273],[-19.809428,65.770836],[-19.824146,65.774501],[-19.83595,65.78069],[-19.83985,65.78386],[-19.845616,65.792598],[-19.846914,65.802756],[-19.849939,65.81125],[-19.854747,65.815471],[-19.856697,65.819134],[-19.862431,65.821197],[-19.873928,65.82216],[-19.87962,65.821532],[-19.886207,65.818923],[-19.900727,65.814887],[-19.920688,65.805614],[-19.930197,65.802348],[-19.93783,65.79772],[-19.94085,65.792703],[-19.946791,65.787959],[-19.95366,65.78468],[-19.96263,65.78326],[-19.977931,65.78481],[-19.992472,65.78303],[-20.00659,65.7824],[-20.015875,65.781054],[-20.029261,65.777608],[-20.04374,65.77592],[-20.048139,65.774519],[-20.05784,65.76961],[-20.087043,65.762247],[-20.110267,65.753335],[-20.14575,65.74369],[-20.156876,65.736958],[-20.162519,65.730071],[-20.174879,65.723958],[-20.196514,65.721801],[-20.210997,65.723337],[-20.219696,65.721369],[-20.21838,65.72006],[-20.233698,65.705926],[-20.238575,65.697166],[-20.234168,65.681479],[-20.237378,65.676366],[-20.246395,65.674063],[-20.248294,65.672622],[-20.24935,65.67024],[-20.261888,65.668252],[-20.272072,65.667827],[-20.268503,65.665422],[-20.262063,65.664044],[-20.267005,65.660497],[-20.278688,65.659481],[-20.284115,65.656455],[-20.301054,65.659881],[-20.284192,65.656357],[-20.290008,65.651545],[-20.293487,65.647215],[-20.295419,65.641786],[-20.295998,65.631542],[-20.302201,65.618352],[-20.31271,65.603254],[-20.317281,65.594328],[-20.324627,65.584517],[-20.333902,65.5694],[-20.339845,65.562339],[-20.340881,65.560027],[-20.341203,65.555998],[-20.342973,65.55188],[-20.345215,65.549096],[-20.344995,65.547415],[-20.340414,65.540972],[-20.342978,65.53226],[-20.340833,65.526925],[-20.337845,65.523444],[-20.337861,65.520868],[-20.336198,65.515722],[-20.337195,65.51387],[-20.340822,65.512255],[-20.37075,65.504454],[-20.375591,65.503975],[-20.383885,65.504525],[-20.389933,65.50347],[-20.399171,65.500703],[-20.409406,65.494568],[-20.426279,65.488861],[-20.439017,65.482904],[-20.459391,65.479639],[-20.474944,65.47307],[-20.508607,65.469055],[-20.517902,65.467154],[-20.555322,65.455446],[-20.572756,65.447475],[-20.588849,65.437377],[-20.591702,65.43384],[-20.592943,65.429839],[-20.596151,65.426791],[-20.609751,65.421956],[-20.629196,65.411012],[-20.63627,65.402423],[-20.639178,65.39664],[-20.645535,65.390045],[-20.646017,65.388016],[-20.644419,65.382895],[-20.643732,65.376071],[-20.644963,65.371239],[-20.649481,65.366981],[-20.656955,65.363106],[-20.664485,65.360728],[-20.680585,65.357576],[-20.72254,65.352453],[-20.733731,65.352059],[-20.752806,65.353413],[-20.776786,65.345906],[-20.786451,65.344579],[-20.813962,65.34434],[-20.852475,65.349243],[-20.872658,65.353486],[-20.878645,65.353454],[-20.884735,65.352217],[-20.88736,65.354226],[-20.889714,65.358583],[-20.892168,65.360984],[-20.903586,65.367232],[-20.942064,65.395986]]},"properties":{"name":"J4 Saudarkrokur -> Hvammstangi (sortie)","day":"J4"}}]}