{"type":"FeatureCollection","name":"Bloc D","properties":{"bloc":"D","color":"#1e40af"},"features":[{"type":"Feature","geometry":{"type":"LineString","coordinates":[[-23.215,65.53],[-22.917,65.367],[-22.728,65.075]]},"properties":{"name":"J1 Brjanslaekur -> Flatey -> Stykkisholmur (FERRY Baldur)","day":"Ferry"}},{"type":"Feature","geometry":{"type":"LineString","coordinates":[[-22.728121,65.074989],[-22.733213,65.072453],[-22.735731,65.069543],[-22.742634,65.066179],[-22.751285,65.05905],[-22.766246,65.053647],[-22.768967,65.051768],[-22.76845,65.050077],[-22.767072,65.049177],[-22.757442,65.046512],[-22.757055,65.045534],[-22.758709,65.043015],[-22.75864,65.041218],[-22.753512,65.036512],[-22.752289,65.034386],[-22.753092,65.029247],[-22.752067,65.023163],[-22.756048,65.017678],[-22.755171,65.005189],[-22.759268,65.000102],[-22.768379,64.996756],[-22.78147,64.99001],[-22.787079,64.987956],[-22.795935,64.986415],[-22.82038,64.985363],[-22.831957,64.983412],[-22.843058,64.980022],[-22.866172,64.969735],[-22.874625,64.967215],[-22.886352,64.965805],[-22.897896,64.965946],[-22.908153,64.967639],[-22.920102,64.972086],[-22.934683,64.973116],[-22.941572,64.972226],[-22.966123,64.965882],[-22.973592,64.964669],[-22.981736,64.964953],[-22.995308,64.967758],[-23.014308,64.966924],[-23.021333,64.964866],[-23.03258,64.957533],[-23.040347,64.9559],[-23.071117,64.959858],[-23.091073,64.961091],[-23.119539,64.965588],[-23.133125,64.96601],[-23.141681,64.963936],[-23.148483,64.960973],[-23.152238,64.958489],[-23.156047,64.953409],[-23.159215,64.951666],[-23.176705,64.948837],[-23.19735,64.942319],[-23.201473,64.939348],[-23.205312,64.934017],[-23.206942,64.928108],[-23.210358,64.925719],[-23.219844,64.923142],[-23.240579,64.921257],[-23.253073,64.921715],[-23.254578,64.922563],[-23.261091,64.923284],[-23.259937,64.924942],[-23.262075,64.925154],[-23.278736,64.92231],[-23.290911,64.922203],[-23.298016,64.923743],[-23.307735,64.927733],[-23.318089,64.929624],[-23.335857,64.934444],[-23.376278,64.939879],[-23.391427,64.944053],[-23.423447,64.946706],[-23.444338,64.94633],[-23.459871,64.947856],[-23.467516,64.947613],[-23.477681,64.949407],[-23.486441,64.94819],[-23.496066,64.943568],[-23.50338,64.93686],[-23.510976,64.927711],[-23.514936,64.924198],[-23.522997,64.91945],[-23.539026,64.9138],[-23.57518,64.905481],[-23.579843,64.903645],[-23.601264,64.891058],[-23.605365,64.89068],[-23.620836,64.891797],[-23.641925,64.889218],[-23.64856,64.889694],[-23.658881,64.891961],[-23.670436,64.891336],[-23.67844,64.8918],[-23.686309,64.89119],[-23.688524,64.889483],[-23.695764,64.891388],[-23.701728,64.890956],[-23.710688,64.892567],[-23.711055,64.893835],[-23.707559,64.895483],[-23.701016,64.892892],[-23.69096,64.891415],[-23.67101,64.891333],[-23.672018,64.888682],[-23.676261,64.887283],[-23.676299,64.884788],[-23.678514,64.882941],[-23.683863,64.88177],[-23.690413,64.876491],[-23.692993,64.876246],[-23.694947,64.874245],[-23.703804,64.874734],[-23.706594,64.873065],[-23.716197,64.871322],[-23.722585,64.866082],[-23.728377,64.865465],[-23.729358,64.861351],[-23.731,64.860877],[-23.732232,64.859155],[-23.732491,64.854649],[-23.73341,64.853263],[-23.737746,64.849585],[-23.738048,64.847942],[-23.741678,64.846167],[-23.737362,64.841683],[-23.727315,64.840147],[-23.725423,64.838853],[-23.725693,64.836108],[-23.730568,64.833243],[-23.733487,64.83061],[-23.733996,64.829018],[-23.717601,64.827397],[-23.714702,64.825882],[-23.715039,64.819401],[-23.714166,64.817326],[-23.718211,64.816965],[-23.722136,64.815586],[-23.725619,64.816064]]},"properties":{"name":"J2 Stykkisholmur -> Snaefellsjokull","day":"J2"}},{"type":"Feature","geometry":{"type":"LineString","coordinates":[[-23.725619,64.816064],[-23.722136,64.815586],[-23.718211,64.816965],[-23.714166,64.817326],[-23.71551,64.816011],[-23.71502,64.814883],[-23.709683,64.813441],[-23.706323,64.813396],[-23.703924,64.811754],[-23.70234,64.806128],[-23.700372,64.805352],[-23.696945,64.802274],[-23.696091,64.799867],[-23.693134,64.796908],[-23.693182,64.795633],[-23.690466,64.794296],[-23.691013,64.792881],[-23.687816,64.792383],[-23.687903,64.790862],[-23.68678,64.790183],[-23.688743,64.789689],[-23.686616,64.785612],[-23.686666,64.782381],[-23.6853,64.781428],[-23.678947,64.780859],[-23.665474,64.781873],[-23.654673,64.779951],[-23.647687,64.776941],[-23.644677,64.776768],[-23.640678,64.769599],[-23.641766,64.767889],[-23.647815,64.766463],[-23.659256,64.765393],[-23.664471,64.763133],[-23.677679,64.762237],[-23.671465,64.759039],[-23.670804,64.755964],[-23.669439,64.754912],[-23.658215,64.750879],[-23.654702,64.750335],[-23.646305,64.750782],[-23.645996,64.752059],[-23.644213,64.751394],[-23.645996,64.752059],[-23.646305,64.750782],[-23.654702,64.750335],[-23.658215,64.750879],[-23.669439,64.754912],[-23.670804,64.755964],[-23.671465,64.759039],[-23.677679,64.762237],[-23.664876,64.763071],[-23.658749,64.765499],[-23.643332,64.767259],[-23.634378,64.766323],[-23.629611,64.766852],[-23.627896,64.765965],[-23.628075,64.76513],[-23.627896,64.765965],[-23.629611,64.766852],[-23.634378,64.766323],[-23.643332,64.767259],[-23.641174,64.768311],[-23.640678,64.769599],[-23.644584,64.776411],[-23.644445,64.779091],[-23.645612,64.783846],[-23.63636,64.796836],[-23.630952,64.801041],[-23.62096,64.804844],[-23.590877,64.810748],[-23.57485,64.817519],[-23.568077,64.818266],[-23.552755,64.82206],[-23.519969,64.828378],[-23.497245,64.830781],[-23.460279,64.828401],[-23.448082,64.824723],[-23.441064,64.824078],[-23.437172,64.825092],[-23.429423,64.830023],[-23.40802,64.834391],[-23.40437,64.828398],[-23.394919,64.826406],[-23.393594,64.825137],[-23.387575,64.825026],[-23.383643,64.822413],[-23.384477,64.821609]]},"properties":{"name":"J3 Snaefellsjokull -> Budir","day":"J3"}},{"type":"Feature","geometry":{"type":"LineString","coordinates":[[-23.384477,64.821609],[-23.383643,64.822413],[-23.387575,64.825026],[-23.393594,64.825137],[-23.394919,64.826406],[-23.40437,64.828398],[-23.40802,64.834391],[-23.402723,64.835809],[-23.401459,64.837582],[-23.402849,64.838871],[-23.393182,64.843132],[-23.379757,64.84459],[-23.367772,64.844713],[-23.313435,64.840517],[-23.27589,64.830215],[-23.232447,64.828623],[-23.218585,64.824938],[-23.19674,64.822898],[-23.162928,64.81677],[-23.142905,64.815117],[-23.134863,64.813742],[-23.125115,64.813538],[-23.119635,64.81227],[-23.10679,64.806692],[-23.08748,64.80924],[-23.040833,64.807945],[-23.024679,64.806467],[-23.011018,64.8073],[-22.995471,64.811796],[-22.98809,64.81787],[-22.978571,64.824159],[-22.978002,64.825542],[-22.978903,64.82818],[-22.978247,64.829464],[-22.973599,64.832842],[-22.966101,64.836277],[-22.961944,64.837365],[-22.941054,64.839404],[-22.935194,64.838641],[-22.927772,64.834453],[-22.922068,64.833228],[-22.90822,64.833427],[-22.89108,64.835918],[-22.862586,64.832556],[-22.845259,64.836345],[-22.820291,64.833961],[-22.80797,64.835843],[-22.793119,64.835586],[-22.77646,64.836917],[-22.768047,64.839042],[-22.752332,64.846157],[-22.746658,64.84798],[-22.720516,64.850187],[-22.709679,64.850314],[-22.687328,64.848655],[-22.672278,64.848478],[-22.665195,64.847067],[-22.654969,64.843365],[-22.640393,64.84156],[-22.590288,64.842252],[-22.521098,64.828018],[-22.503995,64.825912],[-22.49426,64.82289],[-22.490097,64.82242],[-22.481139,64.823267],[-22.465124,64.826314],[-22.456998,64.831683],[-22.444999,64.836813],[-22.435391,64.842888],[-22.422673,64.845637],[-22.401618,64.8473],[-22.378597,64.845852],[-22.367265,64.846603],[-22.337918,64.846407],[-22.316511,64.840301],[-22.297544,64.83634],[-22.282189,64.830817],[-22.277059,64.828085],[-22.264092,64.815547],[-22.262491,64.813286],[-22.262311,64.811128],[-22.266745,64.786103],[-22.266969,64.765088],[-22.265395,64.763288],[-22.229492,64.745544],[-22.219838,64.742171],[-22.207372,64.740167],[-22.187601,64.73381],[-22.179063,64.729017],[-22.172327,64.722052],[-22.150847,64.713195],[-22.146698,64.709508],[-22.143768,64.704748],[-22.1393,64.70115],[-22.128338,64.697865],[-22.114761,64.696813],[-22.109289,64.69545],[-22.071552,64.675338],[-22.070127,64.673475],[-22.07064,64.669472],[-22.069042,64.658632],[-22.064093,64.651539],[-22.063133,64.648705],[-22.06391,64.646033],[-22.06788,64.641258],[-22.06815,64.639179],[-22.066854,64.634901],[-22.067314,64.63118],[-22.065421,64.628862],[-22.051823,64.620627],[-22.050645,64.616312],[-22.046945,64.612193],[-22.047945,64.608953],[-22.046417,64.606953],[-22.022413,64.601098],[-22.001395,64.593534],[-21.993117,64.592733],[-21.986845,64.591135],[-21.984373,64.58953],[-21.983434,64.58597],[-21.981644,64.584584],[-21.968557,64.582094],[-21.957587,64.575627],[-21.939113,64.568023],[-21.925916,64.560606],[-21.92076,64.559885],[-21.897801,64.560014],[-21.900516,64.556991],[-21.904231,64.554781],[-21.910118,64.549374],[-21.910776,64.548212],[-21.910038,64.545538],[-21.910676,64.544636],[-21.919077,64.539895],[-21.921499,64.537178],[-21.922875,64.537206],[-21.923405,64.538315],[-21.921983,64.53899]]},"properties":{"name":"J4 Budir -> Borgarnes (sortie)","day":"J4"}}]}