{"type":"FeatureCollection","name":"Bloc H","properties":{"bloc":"H","color":"#7c3aed"},"features":[{"type":"Feature","geometry":{"type":"LineString","coordinates":[[-20.997313,63.937002],[-20.98599,63.937162],[-20.974864,63.938765],[-20.93639,63.941611],[-20.845903,63.943664],[-20.82195,63.942656],[-20.782121,63.943098],[-20.759679,63.945722],[-20.719071,63.952398],[-20.697475,63.95299],[-20.692568,63.952422],[-20.673024,63.941857],[-20.670646,63.939143],[-20.668402,63.933483],[-20.662588,63.9271],[-20.657443,63.92331],[-20.650766,63.920316],[-20.638833,63.917318],[-20.600388,63.910572],[-20.594485,63.908115],[-20.59082,63.905083],[-20.589325,63.901689],[-20.586644,63.900148],[-20.553388,63.892599],[-20.533752,63.889159],[-20.466,63.867828],[-20.450793,63.867043],[-20.444963,63.865545],[-20.419551,63.848892],[-20.409966,63.843467],[-20.40803,63.841464],[-20.406286,63.837354],[-20.402819,63.835179],[-20.402601,63.834329],[-20.400979,63.833997],[-20.399378,63.834753],[-20.393295,63.832576],[-20.393991,63.831947],[-20.368453,63.826263],[-20.360885,63.823492],[-20.351012,63.816871],[-20.34202,63.81254],[-20.315732,63.797298],[-20.299312,63.789721],[-20.284595,63.779908],[-20.27372,63.771474],[-20.247107,63.758734],[-20.234493,63.750625],[-20.247107,63.758734],[-20.27372,63.771474],[-20.284595,63.779908],[-20.300133,63.790193],[-20.315732,63.797298],[-20.34202,63.81254],[-20.351012,63.816871],[-20.359812,63.822909],[-20.366468,63.825698],[-20.359355,63.829392],[-20.329414,63.836447],[-20.306284,63.843823],[-20.253046,63.85768],[-20.258891,63.876336],[-20.25759,63.8843],[-20.255218,63.887273],[-20.2261,63.9052],[-20.212497,63.908804],[-20.203865,63.915469],[-20.194252,63.918044],[-20.190114,63.920828],[-20.186273,63.924954],[-20.163852,63.934695],[-20.141164,63.937583],[-20.112184,63.944524],[-20.099818,63.948542],[-20.0884,63.950216],[-20.065642,63.952008],[-20.043236,63.955944],[-20.022402,63.957317],[-20.007835,63.954779],[-19.995951,63.95165],[-19.989601,63.952033],[-19.973414,63.965114],[-19.97615,63.97369],[-19.975024,63.975684],[-19.972353,63.977864],[-19.941642,63.987733],[-19.932659,63.987762],[-19.928853,63.988858],[-19.920916,63.989289],[-19.910914,63.991124],[-19.909021,63.992286],[-19.90747,63.995362],[-19.902385,64.000596],[-19.89689,64.00313],[-19.89319,64.00648],[-19.88736,64.00798],[-19.88821,64.00884],[-19.89066,64.00875],[-19.89289,64.00978],[-19.89431,64.0115],[-19.89439,64.01292],[-19.89577,64.01395],[-19.90572,64.0185],[-19.894498,64.024419],[-19.880375,64.030257],[-19.854784,64.033965],[-19.81457,64.045827],[-19.796476,64.056887],[-19.783872,64.060646],[-19.769197,64.068193],[-19.747713,64.092276],[-19.740437,64.092427],[-19.725054,64.089127],[-19.710388,64.087688],[-19.68141,64.0869],[-19.675434,64.087391],[-19.669025,64.080226],[-19.667502,64.079411],[-19.653297,64.079154],[-19.643555,64.075699],[-19.644241,64.073489],[-19.644005,64.069991],[-19.641838,64.065378],[-19.642868,64.063168],[-19.661,64.058318],[-19.66615,64.054456],[-19.670527,64.054713],[-19.680977,64.052954],[-19.679024,64.049799],[-19.67572,64.047804],[-19.675355,64.039328],[-19.674368,64.035723],[-19.675934,64.032891],[-19.675376,64.031797],[-19.676964,64.030166],[-19.6766,64.027762],[-19.678123,64.027033]]},"properties":{"name":"J1 Selfoss -> Hekla -> Hrauneyjar","day":"J1"}},{"type":"Feature","geometry":{"type":"LineString","coordinates":[[-19.678123,64.027033],[-19.6766,64.027762],[-19.676964,64.030166],[-19.675376,64.031797],[-19.675934,64.032891],[-19.674368,64.035723],[-19.675355,64.039328],[-19.67572,64.047804],[-19.679024,64.049799],[-19.680977,64.052954],[-19.670527,64.054713],[-19.66615,64.054456],[-19.661,64.058318],[-19.642868,64.063168],[-19.641838,64.065378],[-19.64422,64.071343],[-19.643426,64.075527],[-19.653297,64.079154],[-19.667502,64.079411],[-19.669025,64.080226],[-19.675434,64.087391],[-19.68141,64.0869],[-19.710388,64.087688],[-19.725054,64.089127],[-19.740437,64.092427],[-19.747713,64.092276],[-19.742185,64.098108],[-19.713073,64.117715],[-19.70741,64.11978],[-19.526688,64.152503],[-19.52395,64.15342],[-19.522782,64.154676],[-19.510317,64.154438],[-19.471164,64.158847],[-19.465736,64.160913],[-19.440498,64.178424],[-19.432406,64.181011],[-19.415883,64.183383],[-19.419015,64.188011],[-19.41839,64.190552],[-19.395177,64.209818],[-19.391123,64.209572],[-19.381534,64.214178],[-19.375185,64.216026],[-19.372995,64.212175],[-19.375185,64.216026],[-19.381534,64.214178],[-19.391123,64.209572],[-19.395177,64.209818],[-19.41839,64.190552],[-19.419015,64.188011],[-19.415883,64.183383],[-19.377362,64.188762],[-19.328705,64.191888],[-19.304927,64.196422],[-19.258973,64.198944],[-19.257008,64.196642],[-19.255105,64.195857],[-19.240876,64.197449],[-19.236855,64.195774],[-19.233153,64.191192],[-19.226015,64.189427],[-19.216347,64.182644],[-19.212765,64.177971],[-19.211876,64.169267],[-19.209962,64.166874],[-19.177491,64.165496],[-19.154411,64.167233],[-19.15719,64.164717],[-19.162216,64.162475],[-19.16198,64.161837],[-19.156551,64.161358],[-19.153129,64.158697],[-19.140171,64.157066],[-19.137309,64.155404],[-19.137089,64.153633],[-19.135536,64.152496],[-19.135673,64.151423],[-19.133742,64.14765],[-19.132007,64.146256],[-19.131961,64.144685],[-19.129193,64.143226],[-19.128692,64.139617],[-19.126848,64.136203],[-19.118743,64.125652],[-19.118035,64.121897],[-19.115924,64.120119],[-19.11531,64.11767],[-19.112308,64.115168],[-19.113207,64.113379],[-19.109159,64.107768],[-19.102621,64.104614],[-19.104004,64.102585],[-19.108014,64.099745],[-19.108186,64.098315],[-19.110881,64.097786],[-19.113183,64.095906],[-19.111533,64.094796],[-19.103702,64.093309],[-19.100118,64.091363],[-19.095925,64.090581],[-19.092997,64.090929],[-19.090333,64.092951],[-19.088702,64.093122],[-19.085526,64.091749],[-19.07143,64.091025],[-19.065304,64.092015],[-19.05731,64.090955],[-19.05416,64.08887],[-19.050569,64.074288],[-19.0489,64.073058],[-19.048666,64.070063],[-19.050007,64.065716],[-19.039593,64.058757],[-19.041975,64.053822],[-19.048385,64.045082],[-19.050533,64.040912],[-19.049095,64.039196],[-19.041388,64.034243],[-19.036209,64.02924],[-19.036392,64.027683],[-19.03351,64.025439],[-19.036404,64.023075],[-19.036435,64.021627],[-19.041193,64.020862],[-19.046831,64.016573],[-19.045736,64.013859],[-19.04363,64.014129],[-19.041342,64.01194],[-19.042154,64.009842],[-19.041706,64.00735],[-19.03666,64.005587],[-19.036244,64.004798],[-19.042378,64.002351],[-19.049311,64.001229],[-19.051189,63.999466],[-19.051436,63.998106],[-19.059098,63.995644],[-19.060194,63.994104],[-19.057747,63.991735],[-19.058258,63.989879]]},"properties":{"name":"J2 Hekla -> Landmannalaugar","day":"J2"}},{"type":"Feature","geometry":{"type":"LineString","coordinates":[[-19.058258,63.989879],[-19.057715,63.991636],[-19.059998,63.993435],[-19.059786,63.994998],[-19.056202,63.99688],[-19.051436,63.998106],[-19.051189,63.999466],[-19.049311,64.001229],[-19.042378,64.002351],[-19.036244,64.004798],[-19.027992,64.003688],[-19.021618,64.003993],[-19.013807,64.00548],[-19.013359,64.006889],[-19.008101,64.008356],[-19.002337,64.007895],[-18.99951,64.009728],[-18.997589,64.009114],[-18.997859,64.00592],[-18.993446,64.003712],[-18.988195,63.999104],[-18.991588,63.99473],[-18.999148,63.99223],[-19.000045,63.990819],[-18.994423,63.988454],[-18.990439,63.98819],[-18.981679,63.984615],[-18.974688,63.985513],[-18.967702,63.985182],[-18.962403,63.987658],[-18.944159,63.990976],[-18.937632,63.991531],[-18.926323,63.990976],[-18.921265,63.989159],[-18.915265,63.988671],[-18.910922,63.987438],[-18.909322,63.985702],[-18.908944,63.981877],[-18.906099,63.980849],[-18.898119,63.980064],[-18.89603,63.979262],[-18.895699,63.977826],[-18.894509,63.977151],[-18.892029,63.978262],[-18.893909,63.978794],[-18.893669,63.979431],[-18.894747,63.980296],[-18.889645,63.979369],[-18.880735,63.980791],[-18.875882,63.979318],[-18.857609,63.982737],[-18.850718,63.982395],[-18.843731,63.978296],[-18.845372,63.974814],[-18.838198,63.974321],[-18.823765,63.97075],[-18.819863,63.968208],[-18.817046,63.968034],[-18.808349,63.970419],[-18.800055,63.970852],[-18.782285,63.977051],[-18.779149,63.97944],[-18.778741,63.981859],[-18.779677,63.982678],[-18.777826,63.983692],[-18.779729,63.985403],[-18.769562,63.986261],[-18.767525,63.985014],[-18.768612,63.98351],[-18.770556,63.982895],[-18.760542,63.981545],[-18.7591,63.979961],[-18.746517,63.97514],[-18.739641,63.970589],[-18.735481,63.965458],[-18.724239,63.96153],[-18.718955,63.96104],[-18.714529,63.962636],[-18.710391,63.962891],[-18.695514,63.96248],[-18.690616,63.963279],[-18.689883,63.964143],[-18.686724,63.96423],[-18.686654,63.965604],[-18.684965,63.96696],[-18.68602,63.967903],[-18.685463,63.96932],[-18.678981,63.975979],[-18.672988,63.979911],[-18.668633,63.980715],[-18.663549,63.984019],[-18.649739,63.989895],[-18.644031,63.994322],[-18.638467,63.997128],[-18.636642,63.998762],[-18.636879,64.002031],[-18.635874,64.002872],[-18.636157,64.003634],[-18.634016,64.005238],[-18.620651,64.00693],[-18.617303,64.008302],[-18.609725,64.009617],[-18.607259,64.0112],[-18.602463,64.017045],[-18.593776,64.016855],[-18.591524,64.017717],[-18.588766,64.017543],[-18.584031,64.019367],[-18.578888,64.020033],[-18.5731,64.022977],[-18.567592,64.02408],[-18.566268,64.025643],[-18.562297,64.026217],[-18.556114,64.030757],[-18.557303,64.033029],[-18.5542,64.034054],[-18.548738,64.038259],[-18.549604,64.045427],[-18.551035,64.047902],[-18.555109,64.05182],[-18.550402,64.055978],[-18.541267,64.058254],[-18.53612,64.060974],[-18.53358,64.060851],[-18.533633,64.060029],[-18.532473,64.059518],[-18.530868,64.06111],[-18.523486,64.061667],[-18.518448,64.064467],[-18.518292,64.067208],[-18.515018,64.067563],[-18.512608,64.066694],[-18.508377,64.069096],[-18.502638,64.069983],[-18.50171,64.072123],[-18.503794,64.075072],[-18.503313,64.07783],[-18.499565,64.079292],[-18.499725,64.081312],[-18.483485,64.084874],[-18.472422,64.091484],[-18.473039,64.094538],[-18.471813,64.098643],[-18.469731,64.102076],[-18.465993,64.104494],[-18.469423,64.107694],[-18.47725,64.10849],[-18.477556,64.109609],[-18.47609,64.11214],[-18.476524,64.115337],[-18.474208,64.116944],[-18.47437,64.11823],[-18.467238,64.118361],[-18.46411,64.12085],[-18.46549,64.12493],[-18.4645,64.12699],[-18.46051,64.13089],[-18.460035,64.132419],[-18.457986,64.132787],[-18.457103,64.134362],[-18.45888,64.13694],[-18.45901,64.14368],[-18.45639,64.1445],[-18.44261,64.15277],[-18.427581,64.156757],[-18.415774,64.161613],[-18.40948,64.16754],[-18.40854,64.17144],[-18.40695,64.17398],[-18.39393,64.177635],[-18.39603,64.178615],[-18.39865,64.177505],[-18.40157,64.177805],[-18.391033,64.182752],[-18.38938,64.184375],[-18.3893,64.186905],[-18.38492,64.189995],[-18.380079,64.191602],[-18.369489,64.190932],[-18.36762,64.19013],[-18.36307,64.19093],[-18.35809,64.19071],[-18.35644,64.18854],[-18.35382,64.18893],[-18.35094,64.18627],[-18.35382,64.18893],[-18.35644,64.18854],[-18.35809,64.19071],[-18.36307,64.19093],[-18.36762,64.19013],[-18.369489,64.190932],[-18.380079,64.191602],[-18.38492,64.189995],[-18.3893,64.186905],[-18.38938,64.184375],[-18.391033,64.182752],[-18.40157,64.177805],[-18.39865,64.177505],[-18.39603,64.178615],[-18.39393,64.177635],[-18.40695,64.17398],[-18.40854,64.17144],[-18.40948,64.16754],[-18.415774,64.161613],[-18.427581,64.156757],[-18.44261,64.15277],[-18.45639,64.1445],[-18.45901,64.14368],[-18.45888,64.13694],[-18.457103,64.134362],[-18.457986,64.132787],[-18.460035,64.132419],[-18.46051,64.13089],[-18.4645,64.12699],[-18.46549,64.12493],[-18.46411,64.12085],[-18.467238,64.118361],[-18.47437,64.11823],[-18.474208,64.116944],[-18.476524,64.115337],[-18.47609,64.11214],[-18.477556,64.109609],[-18.47725,64.10849],[-18.469423,64.107694],[-18.465993,64.104494],[-18.469731,64.102076],[-18.471813,64.098643],[-18.473039,64.094538],[-18.472422,64.091484],[-18.483485,64.084874],[-18.499725,64.081312],[-18.499565,64.079292],[-18.503313,64.07783],[-18.503794,64.075072],[-18.50171,64.072123],[-18.502638,64.069983],[-18.508377,64.069096],[-18.512608,64.066694],[-18.515018,64.067563],[-18.518292,64.067208],[-18.518448,64.064467],[-18.523486,64.061667],[-18.530868,64.06111],[-18.532473,64.059518],[-18.533633,64.060029],[-18.53358,64.060851],[-18.53612,64.060974],[-18.541267,64.058254],[-18.550402,64.055978],[-18.555109,64.05182],[-18.551035,64.047902],[-18.549604,64.045427],[-18.548738,64.038259],[-18.5542,64.034054],[-18.557303,64.033029],[-18.556114,64.030757],[-18.562297,64.026217],[-18.566268,64.025643],[-18.567592,64.02408],[-18.5731,64.022977],[-18.578888,64.020033],[-18.584031,64.019367],[-18.588766,64.017543],[-18.591524,64.017717],[-18.593776,64.016855],[-18.602463,64.017045],[-18.607259,64.0112],[-18.609725,64.009617],[-18.617303,64.008302],[-18.620651,64.00693],[-18.634016,64.005238],[-18.636157,64.003634],[-18.635874,64.002872],[-18.636879,64.002031],[-18.636642,63.998762],[-18.638467,63.997128],[-18.644031,63.994322],[-18.649739,63.989895],[-18.663549,63.984019],[-18.668633,63.980715],[-18.672988,63.979911],[-18.678981,63.975979],[-18.685463,63.96932],[-18.68602,63.967903],[-18.684965,63.96696],[-18.686654,63.965604],[-18.686724,63.96423],[-18.689883,63.964143],[-18.690616,63.963279],[-18.695514,63.96248],[-18.710391,63.962891],[-18.714529,63.962636],[-18.718955,63.96104],[-18.724239,63.96153],[-18.735481,63.965458],[-18.739641,63.970589],[-18.746517,63.97514],[-18.7591,63.979961],[-18.760542,63.981545],[-18.770556,63.982895],[-18.768612,63.98351],[-18.767525,63.985014],[-18.769562,63.986261],[-18.779729,63.985403],[-18.777826,63.983692],[-18.779677,63.982678],[-18.778741,63.981859],[-18.779149,63.97944],[-18.782285,63.977051],[-18.800055,63.970852],[-18.808349,63.970419],[-18.817046,63.968034],[-18.819863,63.968208],[-18.823765,63.97075],[-18.838198,63.974321],[-18.845372,63.974814],[-18.843731,63.978296],[-18.850718,63.982395],[-18.857609,63.982737],[-18.875882,63.979318],[-18.880735,63.980791],[-18.889645,63.979369],[-18.894747,63.980296],[-18.893669,63.979431],[-18.893909,63.978794],[-18.892029,63.978262],[-18.894509,63.977151],[-18.895699,63.977826],[-18.89603,63.979262],[-18.898119,63.980064],[-18.906099,63.980849],[-18.908944,63.981877],[-18.909322,63.985702],[-18.910922,63.987438],[-18.915265,63.988671],[-18.921265,63.989159],[-18.926323,63.990976],[-18.937632,63.991531],[-18.944159,63.990976],[-18.962403,63.987658],[-18.967702,63.985182],[-18.974688,63.985513],[-18.981679,63.984615],[-18.990439,63.98819],[-18.994423,63.988454],[-19.000045,63.990819],[-18.999148,63.99223],[-18.991588,63.99473],[-18.988195,63.999104],[-18.993446,64.003712],[-18.997859,64.00592],[-18.997589,64.009114],[-18.99951,64.009728],[-19.002337,64.007895],[-19.008101,64.008356],[-19.013359,64.006889],[-19.013807,64.00548],[-19.021618,64.003993],[-19.027992,64.003688],[-19.036244,64.004798],[-19.042378,64.002351],[-19.049311,64.001229],[-19.051189,63.999466],[-19.051436,63.998106],[-19.056202,63.99688],[-19.059786,63.994998],[-19.059998,63.993435],[-19.057715,63.991636],[-19.058258,63.989879]]},"properties":{"name":"J3 Landmannalaugar -> Langisjor AR","day":"J3"}},{"type":"Feature","geometry":{"type":"LineString","coordinates":[[-19.058258,63.989879],[-19.057747,63.991735],[-19.060194,63.994104],[-19.059098,63.995644],[-19.051436,63.998106],[-19.051189,63.999466],[-19.049311,64.001229],[-19.042378,64.002351],[-19.036244,64.004798],[-19.03666,64.005587],[-19.041706,64.00735],[-19.042154,64.009842],[-19.041342,64.01194],[-19.04363,64.014129],[-19.045736,64.013859],[-19.046852,64.01595],[-19.045072,64.018389],[-19.041193,64.020862],[-19.036435,64.021627],[-19.036404,64.023075],[-19.033484,64.025334],[-19.036392,64.027683],[-19.036209,64.02924],[-19.040612,64.032922],[-19.052228,64.031776],[-19.05454,64.03321],[-19.056425,64.033333],[-19.059518,64.032288],[-19.073542,64.031741],[-19.082541,64.029849],[-19.087523,64.03097],[-19.09462,64.02906],[-19.099322,64.030688],[-19.1105,64.02948],[-19.115355,64.030631],[-19.125436,64.034942],[-19.129454,64.034313],[-19.130621,64.031765],[-19.13455,64.030209],[-19.137922,64.029531],[-19.142382,64.029941],[-19.15291,64.02811],[-19.158148,64.028369],[-19.158432,64.026562],[-19.160029,64.025914],[-19.17359,64.02729],[-19.18457,64.02618],[-19.218796,64.032985],[-19.229682,64.033291],[-19.234293,64.033017],[-19.236093,64.030734],[-19.239749,64.02862],[-19.255822,64.025239],[-19.273259,64.027395],[-19.29202,64.035388],[-19.328455,64.040339],[-19.334274,64.038788],[-19.34456,64.03939],[-19.35418,64.04566],[-19.353907,64.04681],[-19.356996,64.04961],[-19.358852,64.052872],[-19.359106,64.055927],[-19.363795,64.058317],[-19.374461,64.061022],[-19.377934,64.063784],[-19.381182,64.065076],[-19.387135,64.064491],[-19.403019,64.066866],[-19.405594,64.067851],[-19.412818,64.06767],[-19.418518,64.068774],[-19.423325,64.070722],[-19.433355,64.069466],[-19.45842,64.06836],[-19.464311,64.070083],[-19.465117,64.071572],[-19.470812,64.073056],[-19.499117,64.077368],[-19.502631,64.075852],[-19.512339,64.074044],[-19.534696,64.073987],[-19.53816,64.074654],[-19.53833,64.07815],[-19.54064,64.08008],[-19.54506,64.08154],[-19.560619,64.081665],[-19.561419,64.082312],[-19.560688,64.08411],[-19.562073,64.084677],[-19.572551,64.08444],[-19.577723,64.083386],[-19.58151,64.081192],[-19.587683,64.08123],[-19.61494,64.085074],[-19.627708,64.085768],[-19.630876,64.086949],[-19.634396,64.086941],[-19.64336,64.088989],[-19.65755,64.08922],[-19.675434,64.087391],[-19.669025,64.080226],[-19.667502,64.079411],[-19.653297,64.079154],[-19.643555,64.075699],[-19.64422,64.071343],[-19.641838,64.064798],[-19.643769,64.06276],[-19.661,64.058318],[-19.66615,64.054456],[-19.670527,64.054713],[-19.680977,64.052954],[-19.679024,64.049799],[-19.67572,64.047804],[-19.675355,64.039328],[-19.674368,64.035723],[-19.675934,64.032891],[-19.675376,64.031797],[-19.676964,64.030166],[-19.676836,64.027505],[-19.678381,64.027033],[-19.682157,64.027956],[-19.690247,64.026368],[-19.690976,64.026904],[-19.69044,64.027956],[-19.692736,64.029801],[-19.69795,64.03111],[-19.702799,64.030402],[-19.704366,64.029093],[-19.704494,64.027333],[-19.706726,64.025874],[-19.719729,64.027355],[-19.724472,64.025638],[-19.73166,64.024823],[-19.732518,64.025145],[-19.731381,64.025402],[-19.732797,64.025638],[-19.740458,64.02581],[-19.739857,64.028063],[-19.744728,64.029458],[-19.752259,64.028106],[-19.761894,64.030659],[-19.766035,64.030466],[-19.781978,64.02626],[-19.78612,64.027398],[-19.793737,64.024372],[-19.78612,64.027398],[-19.781978,64.02626],[-19.766035,64.030466],[-19.761894,64.030659],[-19.752259,64.028106],[-19.744728,64.029458],[-19.739857,64.028063],[-19.740458,64.02581],[-19.732797,64.025638],[-19.731381,64.025402],[-19.732518,64.025145],[-19.73166,64.024823],[-19.724472,64.025638],[-19.719729,64.027355],[-19.706726,64.025874],[-19.704494,64.027333],[-19.704366,64.029093],[-19.702799,64.030402],[-19.69795,64.03111],[-19.692736,64.029801],[-19.69044,64.027956],[-19.690976,64.026904],[-19.690247,64.026368],[-19.682157,64.027956],[-19.678123,64.027033],[-19.6766,64.027762],[-19.676964,64.030166],[-19.675376,64.031797],[-19.675934,64.032891],[-19.674368,64.035723],[-19.675355,64.039328],[-19.67572,64.047804],[-19.679024,64.049799],[-19.680977,64.052954],[-19.670527,64.054713],[-19.66615,64.054456],[-19.661,64.058318],[-19.642375,64.063575],[-19.641838,64.065378],[-19.64422,64.071343],[-19.643555,64.075699],[-19.653297,64.079154],[-19.667502,64.079411],[-19.669025,64.080226],[-19.675434,64.087391],[-19.68141,64.0869],[-19.710388,64.087688],[-19.725054,64.089127],[-19.740437,64.092427],[-19.746381,64.09248],[-19.747713,64.092276],[-19.766649,64.070534],[-19.77084,64.067063],[-19.783872,64.060646],[-19.796476,64.056887],[-19.81457,64.045827],[-19.854784,64.033965],[-19.880375,64.030257],[-19.894498,64.024419],[-19.90572,64.0185],[-19.89577,64.01395],[-19.89439,64.01292],[-19.89431,64.0115],[-19.89289,64.00978],[-19.89066,64.00875],[-19.88821,64.00884],[-19.88736,64.00798],[-19.89319,64.00648],[-19.89689,64.00313],[-19.902385,64.000596],[-19.90747,63.995362],[-19.909021,63.992286],[-19.910914,63.991124],[-19.920916,63.989289],[-19.928853,63.988858],[-19.932659,63.987762],[-19.941642,63.987733],[-19.972353,63.977864],[-19.975024,63.975684],[-19.97615,63.97369],[-19.973414,63.965114],[-19.989601,63.952033],[-19.995951,63.95165],[-20.021347,63.957295],[-20.043236,63.955944],[-20.066259,63.951928],[-20.097814,63.948915],[-20.112184,63.944524],[-20.141164,63.937583],[-20.162232,63.935204],[-20.186273,63.924954],[-20.190114,63.920828],[-20.194252,63.918044],[-20.203865,63.915469],[-20.212497,63.908804],[-20.2261,63.9052],[-20.238263,63.898298],[-20.255672,63.88695],[-20.258033,63.883353],[-20.258982,63.877075],[-20.253046,63.85768],[-20.306284,63.843823],[-20.329414,63.836447],[-20.359355,63.829392],[-20.366468,63.825698],[-20.400979,63.833997]]},"properties":{"name":"J4 Landmannalaugar -> Hella (sortie)","day":"J4"}},{"type":"Feature","geometry":{"type":"LineString","coordinates":[[-20.234321,63.750903],[-20.232399,63.749085],[-20.235127,63.731072],[-20.233016,63.720332],[-20.215079,63.702538],[-20.202121,63.694143],[-20.198245,63.692253],[-20.154076,63.677381],[-20.123472,63.670499],[-20.093961,63.656176],[-20.056211,63.643815],[-20.049996,63.640876],[-20.044004,63.6369],[-20.031916,63.624439],[-20.027603,63.621393],[-20.021606,63.618584],[-20.005474,63.613398],[-20.000585,63.615804],[-19.99448,63.620348],[-19.990109,63.621587],[-19.986236,63.626088],[-19.968686,63.634211],[-19.950285,63.645757],[-19.945444,63.652359],[-19.944877,63.654168],[-19.941844,63.655553],[-19.933778,63.663853],[-19.911463,63.669421],[-19.894767,63.671843],[-19.876134,63.671888],[-19.856762,63.674052],[-19.841364,63.673205],[-19.831724,63.67363],[-19.795694,63.678735],[-19.767424,63.680619],[-19.76224,63.679743],[-19.742296,63.679463],[-19.723027,63.682559],[-19.714185,63.685175],[-19.702692,63.686438],[-19.68757,63.686989],[-19.677994,63.68517],[-19.659331,63.684279],[-19.637438,63.688108],[-19.630953,63.687702],[-19.626144,63.684982],[-19.621034,63.684658],[-19.614616,63.682939],[-19.610734,63.683814],[-19.606081,63.683589],[-19.602319,63.680413],[-19.599165,63.679503],[-19.592946,63.679836],[-19.579044,63.6768],[-19.564343,63.675379],[-19.54721,63.675225],[-19.529799,63.678559],[-19.513766,63.679365],[-19.512198,63.68055],[-19.492235,63.680335]]},"properties":{"name":"J5 Option Thorsmork (F249, gues)","day":"J5"}}]}