{"type":"FeatureCollection","name":"Bloc A","properties":{"bloc":"A","color":"#dc2626"},"features":[{"type":"Feature","geometry":{"type":"LineString","coordinates":[[-14.009481,65.260219],[-14.013802,65.254799],[-14.022874,65.248244],[-14.026752,65.247149],[-14.036513,65.246188],[-14.042184,65.244113],[-14.043999,65.242016],[-14.045982,65.241295],[-14.055256,65.240688],[-14.062142,65.24195],[-14.066868,65.241402],[-14.070778,65.238832],[-14.077553,65.23717],[-14.075587,65.232457],[-14.082414,65.233592],[-14.080488,65.231963],[-14.080583,65.230746],[-14.089062,65.231428],[-14.095301,65.234168],[-14.109406,65.236983],[-14.116291,65.234932],[-14.117874,65.231344],[-14.12082,65.230686],[-14.123507,65.231231],[-14.126828,65.233981],[-14.130544,65.235163],[-14.146784,65.237514],[-14.162632,65.23821],[-14.176985,65.241047],[-14.180643,65.242613],[-14.186067,65.247736],[-14.197226,65.253162],[-14.219335,65.258412],[-14.251259,65.263769],[-14.263342,65.267982],[-14.271578,65.26942],[-14.283012,65.269493],[-14.289075,65.272857],[-14.289628,65.273932],[-14.296687,65.269266],[-14.299853,65.269097],[-14.301095,65.269813],[-14.306086,65.2789],[-14.313068,65.275546],[-14.316001,65.275798],[-14.318387,65.277553],[-14.320019,65.277403],[-14.331301,65.268799],[-14.335968,65.26692],[-14.343275,65.267086],[-14.350351,65.270039],[-14.356232,65.271246],[-14.374196,65.271376],[-14.374639,65.268488],[-14.379382,65.266909],[-14.380491,65.264141],[-14.381781,65.263271],[-14.387064,65.261575],[-14.397953,65.26247],[-14.397244,65.265007],[-14.393804,65.264631],[-14.391018,65.26526],[-14.393804,65.264631],[-14.397244,65.265007],[-14.397953,65.26247],[-14.387064,65.261575],[-14.381107,65.263601],[-14.379382,65.266909],[-14.374735,65.26839],[-14.373388,65.274085],[-14.368393,65.282396],[-14.364501,65.291571],[-14.361133,65.296409],[-14.361342,65.306614],[-14.362784,65.310966],[-14.357567,65.327867],[-14.358767,65.33295],[-14.358577,65.335328],[-14.353013,65.342978],[-14.353097,65.347172],[-14.349534,65.357181],[-14.350231,65.362288],[-14.348858,65.365678],[-14.350398,65.368062],[-14.350435,65.369749],[-14.345385,65.376923],[-14.339417,65.382881],[-14.335372,65.393575],[-14.333461,65.396739],[-14.333309,65.40066],[-14.331776,65.405177],[-14.325292,65.413285],[-14.324954,65.415513],[-14.321824,65.421372],[-14.323442,65.426884],[-14.321118,65.437117],[-14.317332,65.444016],[-14.316083,65.449308],[-14.313301,65.452111],[-14.312177,65.455077],[-14.309162,65.459014],[-14.307568,65.464525],[-14.30724,65.470094],[-14.301534,65.476222],[-14.300123,65.480391],[-14.299007,65.48828],[-14.296604,65.495436],[-14.285047,65.511006],[-14.285741,65.51414],[-14.283983,65.519511],[-14.284373,65.523794],[-14.282914,65.526888],[-14.2836,65.532416],[-14.282664,65.536807],[-14.285046,65.542932],[-14.283988,65.551406],[-14.287366,65.559224],[-14.286583,65.564834],[-14.284984,65.567155],[-14.286293,65.571753],[-14.285617,65.573337],[-14.278493,65.579555],[-14.276755,65.582194],[-14.273472,65.584142],[-14.262427,65.590056],[-14.253455,65.591516],[-14.24695,65.59113],[-14.18262,65.580257],[-14.124728,65.581055],[-14.084473,65.578842],[-14.062694,65.579121],[-14.040736,65.575353],[-14.032126,65.575803],[-14.024531,65.577241],[-14.024031,65.576892],[-14.025347,65.574518],[-14.025234,65.572898],[-14.031342,65.57012],[-14.034821,65.566108],[-14.030204,65.559871],[-14.029932,65.557512],[-14.028219,65.557499],[-14.016716,65.562947],[-14.006663,65.566128],[-14.00286,65.566333],[-14.001151,65.567364],[-14.001163,65.565249],[-14.000172,65.564089],[-13.995194,65.56207],[-13.990895,65.562001],[-13.990048,65.5603],[-13.979561,65.560888],[-13.981805,65.559793],[-13.981843,65.55809],[-13.972394,65.554116],[-13.970574,65.551954],[-13.970785,65.550974],[-13.96995,65.550721],[-13.968048,65.551684],[-13.966412,65.554759],[-13.963882,65.556028],[-13.955388,65.557423],[-13.953785,65.55706],[-13.952864,65.555748],[-13.950684,65.555441],[-13.945733,65.557688],[-13.934574,65.559086],[-13.931076,65.560296],[-13.918099,65.567564],[-13.908599,65.569143],[-13.879989,65.570621],[-13.849379,65.568426],[-13.841905,65.569042],[-13.827357,65.567588],[-13.822003,65.565513],[-13.81971,65.563814],[-13.817829,65.557804],[-13.822641,65.550825],[-13.828749,65.53887],[-13.829921,65.533338],[-13.827056,65.529798],[-13.817861,65.527871],[-13.8199,65.52603],[-13.8202,65.52101],[-13.81726,65.514216],[-13.826607,65.501742],[-13.831553,65.499792],[-13.835615,65.495412],[-13.843881,65.489728],[-13.8463,65.485704],[-13.860346,65.469732],[-13.868105,65.469715],[-13.872764,65.468414],[-13.878951,65.469199],[-13.88428,65.46888],[-13.888097,65.469748],[-13.889205,65.468582],[-13.900233,65.471435],[-13.905725,65.470671],[-13.909512,65.47215],[-13.91067,65.470942],[-13.908264,65.469644],[-13.912902,65.469476],[-13.917373,65.47076],[-13.912902,65.469476],[-13.908843,65.469492],[-13.90815,65.469994],[-13.91067,65.470942],[-13.909512,65.47215],[-13.905725,65.470671],[-13.900233,65.471435],[-13.889205,65.468582],[-13.888097,65.469748],[-13.88428,65.46888],[-13.878951,65.469199],[-13.872764,65.468414],[-13.868105,65.469715],[-13.860346,65.469732],[-13.8463,65.485704],[-13.843985,65.489629],[-13.835615,65.495412],[-13.831553,65.499792],[-13.826712,65.501629],[-13.817481,65.513371],[-13.817344,65.514577],[-13.82003,65.51976],[-13.819953,65.525185],[-13.825056,65.525426]]},"properties":{"name":"J1 Seydisfjordur -> Borgarfjordur Eystri","day":"J1"}},{"type":"Feature","geometry":{"type":"LineString","coordinates":[[-13.825056,65.525426],[-13.819953,65.525185],[-13.81973,65.52632],[-13.817861,65.527871],[-13.825238,65.529155],[-13.827992,65.530418],[-13.829921,65.533338],[-13.829355,65.537132],[-13.822641,65.550825],[-13.817829,65.557804],[-13.81891,65.562494],[-13.820138,65.564244],[-13.82858,65.567832],[-13.842528,65.569065],[-13.849379,65.568426],[-13.879989,65.570621],[-13.908599,65.569143],[-13.918099,65.567564],[-13.931076,65.560296],[-13.934574,65.559086],[-13.945733,65.557688],[-13.950684,65.555441],[-13.952864,65.555748],[-13.953785,65.55706],[-13.955388,65.557423],[-13.963882,65.556028],[-13.966295,65.554859],[-13.968048,65.551684],[-13.970134,65.550724],[-13.972394,65.554116],[-13.981843,65.55809],[-13.981805,65.559793],[-13.979561,65.560888],[-13.990048,65.5603],[-13.990895,65.562001],[-13.995194,65.56207],[-14.000172,65.564089],[-14.001163,65.565249],[-14.001151,65.567364],[-14.00286,65.566333],[-14.006663,65.566128],[-14.016716,65.562947],[-14.028219,65.557499],[-14.029932,65.557512],[-14.030204,65.559871],[-14.034821,65.566108],[-14.031342,65.57012],[-14.025234,65.572898],[-14.025347,65.574518],[-14.024031,65.576892],[-14.024531,65.577241],[-14.032126,65.575803],[-14.040736,65.575353],[-14.062694,65.579121],[-14.084473,65.578842],[-14.124728,65.581055],[-14.18262,65.580257],[-14.24695,65.59113],[-14.253455,65.591516],[-14.260179,65.590759],[-14.264245,65.589251],[-14.276755,65.582194],[-14.278493,65.579555],[-14.286178,65.572501],[-14.28492,65.567781],[-14.286583,65.564834],[-14.287366,65.559224],[-14.283988,65.551406],[-14.285046,65.542932],[-14.282664,65.536807],[-14.2836,65.532416],[-14.282914,65.526888],[-14.284373,65.523794],[-14.283983,65.519511],[-14.285741,65.51414],[-14.285047,65.511006],[-14.296604,65.495436],[-14.299007,65.48828],[-14.300123,65.480391],[-14.301534,65.476222],[-14.30724,65.470094],[-14.307568,65.464525],[-14.309162,65.459014],[-14.312177,65.455077],[-14.313301,65.452111],[-14.316083,65.449308],[-14.317332,65.444016],[-14.321118,65.437117],[-14.323442,65.426884],[-14.321824,65.421372],[-14.324954,65.415513],[-14.325292,65.413285],[-14.331776,65.405177],[-14.333309,65.40066],[-14.333461,65.396739],[-14.335372,65.393575],[-14.339417,65.382881],[-14.345385,65.376923],[-14.350359,65.369952],[-14.350398,65.368062],[-14.348858,65.365678],[-14.350231,65.362288],[-14.349534,65.357181],[-14.353097,65.347172],[-14.353013,65.342978],[-14.358577,65.335328],[-14.358767,65.33295],[-14.357567,65.327867],[-14.362784,65.310966],[-14.361342,65.306614],[-14.361133,65.296409],[-14.364501,65.291571],[-14.368393,65.282396],[-14.373388,65.274085],[-14.374639,65.268488],[-14.379382,65.266909],[-14.380491,65.264141],[-14.381781,65.263271],[-14.387064,65.261575],[-14.397953,65.26247],[-14.397244,65.265007],[-14.393804,65.264631],[-14.391018,65.26526],[-14.393804,65.264631],[-14.397244,65.265007],[-14.397628,65.262983],[-14.39938,65.260916],[-14.407648,65.261264],[-14.40527,65.265639],[-14.405352,65.26743],[-14.41491,65.276681],[-14.427248,65.282989],[-14.436855,65.292277],[-14.445379,65.297572],[-14.449666,65.299104],[-14.45707,65.29994],[-14.460448,65.301457],[-14.46217,65.306016],[-14.466239,65.309533],[-14.466894,65.3123],[-14.469386,65.316038],[-14.485072,65.33241],[-14.491757,65.337262],[-14.498102,65.347943],[-14.504527,65.354815],[-14.510042,65.357801],[-14.521435,65.36051],[-14.526553,65.363663],[-14.530711,65.378163],[-14.531448,65.383758],[-14.538046,65.390412],[-14.538528,65.392832],[-14.537753,65.399069],[-14.539727,65.402909],[-14.542858,65.406338],[-14.547397,65.409693],[-14.551196,65.411209],[-14.584424,65.416936],[-14.587939,65.420494],[-14.588749,65.424753],[-14.588503,65.428347],[-14.589248,65.42954],[-14.593899,65.431355],[-14.599605,65.431381],[-14.609257,65.429658],[-14.612946,65.428051],[-14.61489,65.425993],[-14.615104,65.42341],[-14.616289,65.421278],[-14.622109,65.415543],[-14.626882,65.412712],[-14.642553,65.408428],[-14.648058,65.405197],[-14.662894,65.398819],[-14.6957,65.388727],[-14.709303,65.383007],[-14.7539,65.378873],[-14.778333,65.374735],[-14.811919,65.370462],[-14.838486,65.365706],[-14.892194,65.359904],[-14.916342,65.355781],[-14.93494,65.355213],[-14.945869,65.353109],[-14.975648,65.351195],[-14.985158,65.349875],[-15.076587,65.330448],[-15.089636,65.32419],[-15.10363,65.319834],[-15.117613,65.316237],[-15.139717,65.313249],[-15.159258,65.307239],[-15.171296,65.302007],[-15.174786,65.296383],[-15.181444,65.290827],[-15.183425,65.283831],[-15.189914,65.275188],[-15.192422,65.272939],[-15.195519,65.266957],[-15.197478,65.260679],[-15.197257,65.255437],[-15.20727,65.245099],[-15.209904,65.238065],[-15.214275,65.230797],[-15.222307,65.224864],[-15.232841,65.218661],[-15.242128,65.208885],[-15.244163,65.203887],[-15.246012,65.2015],[-15.250718,65.197233],[-15.251926,65.195166],[-15.255551,65.192569],[-15.256802,65.18994],[-15.260413,65.187348],[-15.280519,65.178544],[-15.313895,65.1685],[-15.32924,65.161667],[-15.350663,65.153965],[-15.364926,65.145243],[-15.376287,65.140404],[-15.394506,65.136761],[-15.406487,65.131342],[-15.42349,65.127062],[-15.435216,65.121669],[-15.443595,65.118862],[-15.448742,65.117905],[-15.469208,65.117515],[-15.481944,65.114837],[-15.493874,65.111028],[-15.501047,65.110727],[-15.511417,65.108652],[-15.525503,65.108355],[-15.52498,65.110142],[-15.526821,65.112197],[-15.531409,65.112225],[-15.529836,65.113341],[-15.529862,65.114165],[-15.533721,65.12024],[-15.538088,65.122434],[-15.536944,65.123671],[-15.537704,65.125833],[-15.54336,65.127276],[-15.550048,65.131863],[-15.561334,65.130367],[-15.570996,65.131735],[-15.572807,65.133648],[-15.583415,65.133908],[-15.59283,65.130057],[-15.619192,65.127791],[-15.622816,65.12887],[-15.62983,65.129144],[-15.64667,65.137856],[-15.651623,65.136272],[-15.65817,65.137964],[-15.659021,65.138762],[-15.657009,65.139088],[-15.659899,65.139636],[-15.660673,65.140797],[-15.660003,65.142078],[-15.663779,65.144],[-15.678861,65.143954],[-15.688826,65.14675],[-15.702,65.147563],[-15.713181,65.147203],[-15.71877,65.14801],[-15.719545,65.148679],[-15.719597,65.15057],[-15.722413,65.151516],[-15.734053,65.151908],[-15.739954,65.150472],[-15.746388,65.151239],[-15.754614,65.150686],[-15.758912,65.149299],[-15.77118,65.147738],[-15.776017,65.149605],[-15.781123,65.150327],[-15.793824,65.156274],[-15.818365,65.157118],[-15.82357,65.158156],[-15.822926,65.159902],[-15.827138,65.162195],[-15.835578,65.162981],[-15.843282,65.161575],[-15.846427,65.16288],[-15.856776,65.16319],[-15.872964,65.166678],[-15.882774,65.167881],[-15.901302,65.175395],[-15.909625,65.174317],[-15.910585,65.177232],[-15.910043,65.183263],[-15.90576,65.189916],[-15.904942,65.193869],[-15.90565,65.196102],[-15.900406,65.201039],[-15.90065,65.203615],[-15.8981,65.208502],[-15.898983,65.212402],[-15.898088,65.213811],[-15.897378,65.222927],[-15.898129,65.229497],[-15.900124,65.232653],[-15.893578,65.240616],[-15.891541,65.245694],[-15.895613,65.249758],[-15.898939,65.254779],[-15.898334,65.257242],[-15.89551,65.261907],[-15.898462,65.271162],[-15.898065,65.278101],[-15.89893,65.284064],[-15.900291,65.285797],[-15.899939,65.288894],[-15.89641,65.295673],[-15.880319,65.305694],[-15.878174,65.313141],[-15.865322,65.316405],[-15.858816,65.321097],[-15.857036,65.323464],[-15.855352,65.329719],[-15.853185,65.332216],[-15.852786,65.335561],[-15.854152,65.337264],[-15.852894,65.340213],[-15.848356,65.344457],[-15.843032,65.347807],[-15.840361,65.352219],[-15.856218,65.363375],[-15.88342,65.374104],[-15.88529,65.375429],[-15.885748,65.377213],[-15.883304,65.390288],[-15.898931,65.404263],[-15.900076,65.407265],[-15.899213,65.41747],[-15.901898,65.423016],[-15.901879,65.427605],[-15.912069,65.439045],[-15.922372,65.439417],[-15.935965,65.442137],[-15.947764,65.442582],[-15.952266,65.443822],[-15.955547,65.446034],[-15.956016,65.448801],[-15.952261,65.454772],[-15.950702,65.465188],[-15.948535,65.469473],[-15.948726,65.471753],[-15.951015,65.474635],[-15.96547,65.486418],[-15.974483,65.500861],[-15.98214,65.510799],[-15.983136,65.517446],[-15.988547,65.524413],[-15.986986,65.531347],[-15.989914,65.538826],[-15.990504,65.544366],[-15.996628,65.551339],[-16.010503,65.558816],[-16.028536,65.563603],[-16.038657,65.568681],[-16.046854,65.571791],[-16.067598,65.577014],[-16.08889,65.5867],[-16.096801,65.588962],[-16.118925,65.592984],[-16.129525,65.596457],[-16.156905,65.611406],[-16.161613,65.615369],[-16.167461,65.622977],[-16.171159,65.62488],[-16.177266,65.62618],[-16.184368,65.62616],[-16.188176,65.625014],[-16.192815,65.62062],[-16.196513,65.619323],[-16.223098,65.618373],[-16.230067,65.619507],[-16.284656,65.636567],[-16.302299,65.638363],[-16.397293,65.652019],[-16.422273,65.654215],[-16.454945,65.655097],[-16.478449,65.657867],[-16.510955,65.658184],[-16.535389,65.660481],[-16.570397,65.660057],[-16.585396,65.656054],[-16.605153,65.653702],[-16.617601,65.649714],[-16.627185,65.647584],[-16.664992,65.644374],[-16.702806,65.644751],[-16.724078,65.648734],[-16.745664,65.649527],[-16.761317,65.648929],[-16.810238,65.64365],[-16.812848,65.644124],[-16.815356,65.645961],[-16.826334,65.64729],[-16.82918,65.646317],[-16.831754,65.643053],[-16.835374,65.64217],[-16.838544,65.640066],[-16.843279,65.639279],[-16.892098,65.639007],[-16.910702,65.639934],[-16.91213,65.642107]]},"properties":{"name":"J2 Borgarfjordur Eystri -> Mývatn","day":"J2"}},{"type":"Feature","geometry":{"type":"LineString","coordinates":[[-16.91213,65.642107],[-16.91378,65.644104],[-16.920148,65.645487],[-16.93758,65.654072],[-16.975924,65.660811],[-16.997863,65.667493],[-17.004881,65.672697],[-17.017672,65.684074],[-17.022119,65.690678],[-17.072188,65.723241],[-17.099673,65.732479],[-17.106196,65.736826],[-17.143736,65.752162],[-17.164941,65.766176],[-17.205985,65.782298],[-17.22009,65.785412],[-17.242688,65.796531],[-17.255316,65.799641],[-17.263856,65.80443],[-17.272439,65.817381],[-17.281129,65.825462],[-17.291172,65.832744],[-17.292789,65.838216],[-17.30087,65.849811],[-17.303102,65.855642],[-17.312467,65.866123],[-17.317109,65.869646],[-17.31808,65.87155],[-17.319465,65.88661],[-17.313949,65.89948],[-17.311029,65.910829],[-17.302402,65.921342],[-17.31426,65.947675],[-17.324663,65.955299],[-17.330053,65.958283],[-17.375372,65.966513],[-17.38384,65.971148],[-17.381723,65.97307],[-17.379583,65.977134],[-17.377756,65.983258],[-17.378002,65.986686],[-17.379888,65.991634],[-17.379246,65.99445],[-17.365633,66.004464],[-17.356768,66.021432],[-17.352872,66.025227],[-17.351817,66.030501],[-17.346478,66.035312],[-17.342129,66.041742],[-17.340073,66.041684],[-17.338354,66.044168],[-17.337008,66.044039],[-17.338786,66.044118],[-17.340073,66.041684],[-17.342129,66.041742],[-17.346478,66.035312],[-17.351817,66.030501],[-17.352872,66.025227],[-17.356768,66.021432],[-17.365633,66.004464],[-17.379246,65.99445],[-17.379888,65.991634],[-17.378002,65.986686],[-17.377756,65.983258],[-17.378868,65.978604],[-17.382259,65.972331],[-17.387716,65.96973],[-17.419039,65.964869],[-17.423966,65.962986],[-17.432235,65.948185],[-17.454629,65.927784],[-17.459212,65.919128],[-17.456602,65.905368],[-17.45174,65.897297],[-17.421543,65.872159],[-17.413324,65.854671],[-17.410798,65.843789],[-17.411019,65.841073],[-17.418697,65.831483],[-17.429858,65.82382],[-17.433372,65.820126],[-17.437567,65.807641],[-17.438017,65.803099],[-17.434597,65.794341],[-17.431238,65.79055],[-17.427114,65.787783],[-17.419708,65.77568],[-17.412217,65.767037],[-17.410858,65.751121],[-17.411544,65.743104],[-17.410497,65.740401],[-17.407741,65.738287],[-17.411555,65.736154],[-17.414399,65.732751],[-17.416842,65.731828],[-17.42264,65.731535],[-17.430924,65.734597],[-17.437373,65.734666],[-17.440072,65.733762],[-17.443747,65.729474],[-17.446931,65.727877],[-17.464978,65.723716],[-17.470025,65.720299],[-17.473062,65.713223],[-17.477652,65.70866],[-17.485043,65.704797],[-17.500047,65.699281],[-17.505292,65.695848],[-17.511091,65.690255],[-17.515548,65.687989],[-17.524166,65.686482],[-17.545217,65.686803],[-17.545772,65.686478],[-17.545063,65.685501],[-17.546176,65.685494],[-17.545063,65.685501],[-17.545772,65.686478],[-17.545217,65.686803],[-17.524166,65.686482],[-17.515548,65.687989],[-17.511091,65.690255],[-17.505292,65.695848],[-17.500047,65.699281],[-17.485043,65.704797],[-17.477652,65.70866],[-17.473062,65.713223],[-17.470025,65.720299],[-17.464978,65.723716],[-17.446931,65.727877],[-17.443747,65.729474],[-17.440072,65.733762],[-17.437373,65.734666],[-17.430924,65.734597],[-17.42264,65.731535],[-17.416842,65.731828],[-17.414399,65.732751],[-17.411555,65.736154],[-17.407741,65.738287],[-17.402789,65.735402],[-17.379308,65.727163],[-17.375059,65.724711],[-17.36725,65.715823],[-17.357926,65.701808],[-17.350407,65.695927],[-17.34884,65.688586],[-17.345879,65.681547],[-17.343585,65.679195],[-17.315147,65.666399],[-17.302577,65.662295],[-17.286196,65.658744],[-17.271495,65.649884],[-17.26523,65.646966],[-17.262553,65.644536],[-17.260505,65.640157],[-17.252158,65.632723],[-17.24569,65.623148],[-17.241135,65.621798],[-17.227646,65.62142],[-17.220941,65.619498],[-17.218108,65.617572],[-17.215018,65.612726],[-17.206274,65.607055],[-17.200186,65.602291],[-17.196852,65.598186],[-17.193943,65.5967],[-17.166956,65.592669],[-17.150616,65.586751],[-17.136658,65.585481],[-17.134234,65.585382],[-17.13128,65.589238],[-17.12317,65.592828],[-17.121894,65.594214],[-17.121086,65.597026],[-17.119345,65.598502],[-17.097908,65.603765],[-17.090127,65.608063],[-17.085568,65.612389],[-17.059484,65.615114],[-17.046792,65.617326],[-17.036648,65.617341],[-17.027162,65.618524],[-17.026236,65.619497],[-17.025955,65.62464],[-17.024897,65.625923],[-17.013907,65.630383],[-17.010116,65.633533],[-17.001294,65.637294],[-17.000455,65.638827],[-17.000016,65.645094],[-16.998414,65.64733],[-16.99073,65.652966],[-16.978315,65.656353],[-16.976258,65.658132],[-16.975041,65.660636],[-16.93758,65.654072],[-16.920148,65.645487],[-16.91378,65.644104],[-16.91213,65.642107]]},"properties":{"name":"J3 Mývatn -> Husavik AR","day":"J3"}},{"type":"Feature","geometry":{"type":"LineString","coordinates":[[-16.91213,65.642107],[-16.910702,65.639934],[-16.892098,65.639007],[-16.843279,65.639279],[-16.838544,65.640066],[-16.835374,65.64217],[-16.831754,65.643053],[-16.82918,65.646317],[-16.826334,65.64729],[-16.815356,65.645961],[-16.812848,65.644124],[-16.810238,65.64365],[-16.761317,65.648929],[-16.745664,65.649527],[-16.724078,65.648734],[-16.702806,65.644751],[-16.664992,65.644374],[-16.627185,65.647584],[-16.617601,65.649714],[-16.605153,65.653702],[-16.585396,65.656054],[-16.573442,65.65953],[-16.565348,65.660431],[-16.535389,65.660481],[-16.510955,65.658184],[-16.478449,65.657867],[-16.450487,65.654782],[-16.409044,65.65331],[-16.378947,65.649396],[-16.376662,65.654936],[-16.369869,65.659789],[-16.368807,65.661489],[-16.369306,65.663576],[-16.372217,65.666961],[-16.371508,65.671386],[-16.372029,65.673958],[-16.374567,65.67662],[-16.383333,65.681495],[-16.384257,65.683228],[-16.38456,65.687279],[-16.390005,65.691198],[-16.39271,65.695144],[-16.403349,65.699214],[-16.404227,65.700402],[-16.404403,65.705507],[-16.409595,65.709017],[-16.414504,65.716022],[-16.414121,65.717618],[-16.412291,65.719562],[-16.402859,65.723469],[-16.398959,65.726379],[-16.397989,65.729668],[-16.400186,65.734432],[-16.39979,65.737005],[-16.397088,65.739879],[-16.388255,65.743636],[-16.385394,65.74592],[-16.384701,65.752576],[-16.38241,65.75647],[-16.383011,65.759043],[-16.391998,65.765501],[-16.401595,65.769042],[-16.406495,65.771928],[-16.412469,65.773295],[-16.424642,65.774003],[-16.437634,65.779175],[-16.440246,65.780929],[-16.441292,65.782626],[-16.440836,65.787048],[-16.44273,65.791692],[-16.440986,65.797569],[-16.444629,65.803642],[-16.442252,65.808187],[-16.441754,65.81468],[-16.443811,65.816509],[-16.453598,65.82095],[-16.456272,65.822919],[-16.457141,65.824546],[-16.458354,65.832611],[-16.460757,65.835676],[-16.474677,65.841699],[-16.477573,65.843802],[-16.47836,65.845705],[-16.478015,65.847067],[-16.474531,65.851594],[-16.474937,65.857282],[-16.476042,65.859353],[-16.480002,65.862591],[-16.481033,65.86649],[-16.482716,65.868578],[-16.488572,65.871041],[-16.519845,65.876895],[-16.526125,65.877381],[-16.541683,65.876269],[-16.546205,65.877205],[-16.552639,65.879942],[-16.563483,65.881891],[-16.566673,65.883333],[-16.57426,65.889284],[-16.575351,65.892998],[-16.581018,65.896127],[-16.582251,65.898842],[-16.58501,65.901616],[-16.584002,65.904571],[-16.585683,65.907242],[-16.585056,65.91056],[-16.586059,65.913701],[-16.583724,65.918053],[-16.584117,65.922756],[-16.578709,65.926451],[-16.578429,65.927925],[-16.580065,65.93053],[-16.577879,65.932925],[-16.577243,65.935234],[-16.571947,65.938129],[-16.567917,65.944788],[-16.562369,65.947829],[-16.560552,65.949933],[-16.555394,65.960803],[-16.555349,65.964924],[-16.559603,65.975698],[-16.560831,65.984504],[-16.570247,66.002168],[-16.575642,66.007422],[-16.573941,66.012846],[-16.573312,66.018777],[-16.572092,66.020825],[-16.568322,66.02334],[-16.564105,66.024761],[-16.529376,66.030145],[-16.525888,66.031356],[-16.523961,66.032974],[-16.519662,66.032427],[-16.522821,66.026508],[-16.522458,66.024467],[-16.521041,66.025217],[-16.522458,66.024467],[-16.522904,66.026222],[-16.519662,66.032427],[-16.510036,66.031525],[-16.450051,66.031014],[-16.446147,66.031741],[-16.438615,66.03603],[-16.437269,66.035148],[-16.430828,66.025597],[-16.419986,66.021382],[-16.414972,66.015873],[-16.415412,66.014688],[-16.419945,66.011366],[-16.42036,66.009651],[-16.41824,66.007441],[-16.41807,66.002393],[-16.416837,65.999378],[-16.412888,65.997161],[-16.410624,65.994047],[-16.409437,65.989253],[-16.407191,65.984672],[-16.409395,65.982021],[-16.41268,65.972082],[-16.412593,65.963885],[-16.414182,65.957104],[-16.414609,65.945528],[-16.417957,65.941768],[-16.416799,65.936851],[-16.417239,65.930607],[-16.412379,65.926664],[-16.404569,65.923987],[-16.397402,65.918962],[-16.395085,65.90749],[-16.392382,65.905318],[-16.387102,65.898431],[-16.384267,65.892897],[-16.3862,65.885377],[-16.384509,65.883225],[-16.384603,65.877409],[-16.378431,65.871329],[-16.384786,65.865352],[-16.389903,65.855413],[-16.386972,65.853726],[-16.391384,65.844589],[-16.396843,65.842524],[-16.397377,65.840562],[-16.388475,65.838066],[-16.386286,65.832849],[-16.381436,65.828829],[-16.381152,65.826793],[-16.372622,65.824601],[-16.379303,65.822174],[-16.378391,65.820407],[-16.379479,65.818952],[-16.378391,65.820407],[-16.379303,65.822174],[-16.372622,65.824601],[-16.371399,65.824289],[-16.362813,65.820899],[-16.358221,65.820259],[-16.351411,65.815225],[-16.347169,65.809249],[-16.347014,65.808159],[-16.349397,65.804372],[-16.351312,65.798793],[-16.352572,65.790072],[-16.352233,65.785829],[-16.346628,65.773915],[-16.346328,65.771142],[-16.348182,65.767894],[-16.347141,65.765508],[-16.333117,65.75946],[-16.331658,65.757625],[-16.331713,65.753511],[-16.337697,65.746866],[-16.333969,65.742653],[-16.332127,65.72398],[-16.329009,65.721289],[-16.327596,65.70993],[-16.324502,65.701834],[-16.316407,65.698726],[-16.256017,65.694813],[-16.227344,65.701146],[-16.215462,65.701662],[-16.210929,65.70104],[-16.20423,65.69609],[-16.191448,65.693834],[-16.187371,65.692134],[-16.168399,65.676419],[-16.150918,65.653265],[-16.130558,65.647465],[-16.128861,65.64597],[-16.130238,65.644694],[-16.134934,65.643416],[-16.143806,65.642602],[-16.174154,65.63087],[-16.177287,65.629152],[-16.177622,65.626214],[-16.183553,65.626256],[-16.187378,65.625392],[-16.19466,65.619786],[-16.218808,65.618186],[-16.230067,65.619507],[-16.284656,65.636567],[-16.302299,65.638363],[-16.397293,65.652019],[-16.422273,65.654215],[-16.454945,65.655097],[-16.478449,65.657867],[-16.510955,65.658184],[-16.535389,65.660481],[-16.570397,65.660057],[-16.585396,65.656054],[-16.605153,65.653702],[-16.617601,65.649714],[-16.627185,65.647584],[-16.664992,65.644374],[-16.702806,65.644751],[-16.724078,65.648734],[-16.745664,65.649527],[-16.761317,65.648929],[-16.810238,65.64365],[-16.812848,65.644124],[-16.815356,65.645961],[-16.826334,65.64729],[-16.82918,65.646317],[-16.831754,65.643053],[-16.835374,65.64217],[-16.838544,65.640066],[-16.843279,65.639279],[-16.892098,65.639007],[-16.910702,65.639934],[-16.91213,65.642107]]},"properties":{"name":"J4 Mývatn -> Asbyrgi -> Dettifoss AR","day":"J4"}},{"type":"Feature","geometry":{"type":"LineString","coordinates":[[-16.91213,65.642107],[-16.91378,65.644104],[-16.920148,65.645487],[-16.93758,65.654072],[-16.975041,65.660636],[-16.976258,65.658132],[-16.978315,65.656353],[-16.99073,65.652966],[-16.998414,65.64733],[-17.000016,65.645094],[-17.000455,65.638827],[-17.001294,65.637294],[-17.010116,65.633533],[-17.013907,65.630383],[-17.024897,65.625923],[-17.025955,65.62464],[-17.026236,65.619497],[-17.027162,65.618524],[-17.036648,65.617341],[-17.046792,65.617326],[-17.059484,65.615114],[-17.085568,65.612389],[-17.090127,65.608063],[-17.097908,65.603765],[-17.119345,65.598502],[-17.121086,65.597026],[-17.121894,65.594214],[-17.12317,65.592828],[-17.13128,65.589238],[-17.134234,65.585382],[-17.136658,65.585481],[-17.150616,65.586751],[-17.166956,65.592669],[-17.193943,65.5967],[-17.196852,65.598186],[-17.200186,65.602291],[-17.206274,65.607055],[-17.215018,65.612726],[-17.218108,65.617572],[-17.220941,65.619498],[-17.227646,65.62142],[-17.241135,65.621798],[-17.24569,65.623148],[-17.252158,65.632723],[-17.260505,65.640157],[-17.262553,65.644536],[-17.26523,65.646966],[-17.271495,65.649884],[-17.286196,65.658744],[-17.302577,65.662295],[-17.315147,65.666399],[-17.343585,65.679195],[-17.345879,65.681547],[-17.34884,65.688586],[-17.350407,65.695927],[-17.357926,65.701808],[-17.36725,65.715823],[-17.375059,65.724711],[-17.379308,65.727163],[-17.402789,65.735402],[-17.407741,65.738287],[-17.411555,65.736154],[-17.414399,65.732751],[-17.416842,65.731828],[-17.42264,65.731535],[-17.430924,65.734597],[-17.437373,65.734666],[-17.440072,65.733762],[-17.443747,65.729474],[-17.446931,65.727877],[-17.464978,65.723716],[-17.470025,65.720299],[-17.473062,65.713223],[-17.477652,65.70866],[-17.485043,65.704797],[-17.500047,65.699281],[-17.505292,65.695848],[-17.511091,65.690255],[-17.515548,65.687989],[-17.524166,65.686482],[-17.545217,65.686803],[-17.545772,65.686478],[-17.545063,65.685501],[-17.546176,65.685494]]},"properties":{"name":"J5 Mývatn -> Godafoss (sortie)","day":"J5"}}]}