{"type":"FeatureCollection","name":"Bloc J","properties":{"bloc":"J","color":"#ec4899"},"features":[{"type":"Feature","geometry":{"type":"LineString","coordinates":[[-20.127329,64.328819],[-20.134174,64.32335],[-20.135282,64.32017],[-20.139953,64.317893],[-20.147628,64.31595],[-20.164934,64.306831],[-20.169624,64.305709],[-20.182897,64.305671],[-20.248892,64.310913],[-20.270312,64.314277],[-20.298314,64.311551],[-20.297487,64.31341],[-20.299037,64.31121],[-20.301331,64.3101],[-20.324626,64.304549],[-20.329177,64.302547],[-20.341413,64.284484],[-20.349581,64.27687],[-20.355509,64.273836],[-20.382536,64.270916],[-20.41536,64.276648],[-20.432741,64.276495],[-20.464128,64.266724],[-20.468363,64.264187],[-20.475287,64.258315],[-20.488682,64.252596],[-20.495352,64.247551],[-20.504821,64.242593],[-20.516948,64.24005],[-20.545713,64.239636],[-20.550333,64.238964],[-20.565278,64.231311],[-20.571863,64.226386],[-20.576613,64.225039],[-20.58377,64.224646],[-20.602368,64.225744],[-20.612234,64.223296],[-20.616572,64.223193],[-20.631659,64.225593],[-20.633364,64.226943],[-20.634043,64.230532],[-20.635098,64.232002],[-20.639404,64.234822],[-20.644156,64.236227],[-20.668906,64.240713],[-20.682435,64.240876],[-20.69503,64.239786],[-20.702509,64.23726],[-20.713962,64.231526],[-20.732147,64.21952],[-20.736604,64.214557],[-20.730956,64.214748],[-20.730496,64.212921]]},"properties":{"name":"J1 Gullfoss -> Geysir -> Laugarvatn","day":"J1"}},{"type":"Feature","geometry":{"type":"LineString","coordinates":[[-20.730496,64.212921],[-20.730956,64.214748],[-20.736604,64.214557],[-20.738118,64.213237],[-20.742878,64.211975],[-20.750346,64.211522],[-20.760094,64.209401],[-20.784246,64.206454],[-20.802778,64.202116],[-20.82449,64.202492],[-20.844011,64.200443],[-20.863585,64.199928],[-20.89402,64.19656],[-20.914119,64.192957],[-20.925152,64.191769],[-20.93829,64.191765],[-20.982663,64.196248],[-21.019342,64.195139],[-21.026541,64.196688],[-21.03173,64.199214],[-21.040306,64.205979],[-21.053181,64.218856],[-21.054388,64.220989],[-21.052204,64.22828],[-21.050958,64.229658],[-21.032167,64.232689],[-21.029116,64.234888],[-21.028569,64.239799],[-21.024528,64.244549],[-21.024467,64.247226],[-21.022625,64.250933],[-21.026721,64.25403],[-21.029155,64.257611],[-21.035145,64.258386],[-21.03905,64.259991],[-21.04983,64.26085],[-21.055296,64.2643],[-21.06257,64.267511],[-21.066638,64.271002],[-21.072927,64.27367],[-21.075704,64.277258],[-21.084092,64.27922],[-21.0925,64.279341],[-21.104443,64.276552],[-21.125574,64.267096],[-21.12923,64.264198],[-21.133871,64.261951],[-21.139622,64.256854],[-21.143677,64.254826],[-21.130562,64.255277]]},"properties":{"name":"J2 Laugarvatn -> Thingvellir","day":"J2"}},{"type":"Feature","geometry":{"type":"LineString","coordinates":[[-21.130562,64.255277],[-21.130423,64.255799],[-21.134949,64.254653],[-21.143575,64.254868],[-21.165825,64.247368],[-21.182505,64.243353],[-21.185534,64.241733],[-21.187538,64.239096],[-21.196666,64.233431],[-21.198568,64.230686],[-21.200188,64.229817],[-21.215543,64.224026],[-21.222947,64.222838],[-21.233747,64.219811],[-21.256465,64.21223],[-21.269302,64.209716],[-21.281789,64.21023],[-21.299019,64.209185],[-21.312904,64.209667],[-21.34627,64.214677],[-21.360968,64.213263],[-21.389887,64.20663],[-21.39717,64.20581],[-21.407571,64.206361],[-21.421404,64.209583],[-21.435891,64.208969],[-21.455491,64.206205],[-21.468203,64.202256],[-21.483555,64.201095],[-21.4992,64.197117],[-21.511308,64.19562],[-21.545711,64.186535],[-21.561692,64.185109],[-21.586537,64.180741],[-21.645043,64.180227],[-21.671977,64.178497],[-21.675549,64.17629],[-21.677454,64.176132],[-21.676615,64.174624],[-21.677303,64.172357],[-21.682786,64.168435],[-21.689757,64.167251],[-21.692947,64.165753],[-21.708555,64.170247],[-21.705866,64.171085],[-21.707151,64.170278],[-21.706246,64.169873],[-21.703204,64.169056],[-21.700481,64.169282],[-21.708756,64.167298],[-21.706649,64.166063],[-21.706552,64.165133],[-21.715716,64.163703],[-21.720927,64.160183],[-21.737825,64.153727],[-21.743477,64.14967],[-21.754853,64.143595],[-21.761457,64.134906],[-21.765192,64.13198],[-21.778402,64.126684],[-21.786854,64.124882],[-21.841582,64.124304],[-21.915927,64.135938],[-21.931639,64.136061],[-21.939191,64.138549],[-21.937611,64.139622],[-21.940257,64.14284],[-21.93873,64.145658],[-21.940045,64.145961]]},"properties":{"name":"J3 Thingvellir -> Reykjavik","day":"J3"}},{"type":"Feature","geometry":{"type":"LineString","coordinates":[[-21.940045,64.145961],[-21.938892,64.145702],[-21.940242,64.142709],[-21.937959,64.139756],[-21.940077,64.138614],[-21.933617,64.136217],[-21.923138,64.134816],[-21.919888,64.132222],[-21.909742,64.12776],[-21.901127,64.125799],[-21.899359,64.123303],[-21.898297,64.117349],[-21.899691,64.11538],[-21.906082,64.112983],[-21.908029,64.111272],[-21.907884,64.109729],[-21.904083,64.105581],[-21.905079,64.103193],[-21.918042,64.098818],[-21.927159,64.091521],[-21.944054,64.083856],[-21.942388,64.082352],[-21.93785,64.067404],[-21.943275,64.066942],[-21.938078,64.067047],[-21.937635,64.06625],[-21.939307,64.061121],[-21.942475,64.059522],[-22.008362,64.04928],[-22.043562,64.039916],[-22.069997,64.037088],[-22.07953,64.0337],[-22.088674,64.031769],[-22.10009,64.02816],[-22.120214,64.025477],[-22.136923,64.020753],[-22.17327,64.016931],[-22.187626,64.011075],[-22.229636,64.002234],[-22.27213,63.995917],[-22.353832,63.975651],[-22.377705,63.968183],[-22.402919,63.963852],[-22.431048,63.961796],[-22.450313,63.961777],[-22.484006,63.966325],[-22.547882,63.972862],[-22.553421,63.974734],[-22.561309,63.980352],[-22.570125,63.984374],[-22.578093,63.990154],[-22.575097,63.992132],[-22.568433,63.993094],[-22.569647,63.993992],[-22.569476,63.994984],[-22.564449,63.997351],[-22.567345,64.00011],[-22.566161,64.000416],[-22.563333,63.998352],[-22.569316,63.995143],[-22.569391,63.992861],[-22.574975,63.992526],[-22.578995,63.99031],[-22.552847,63.974438],[-22.541609,63.971778],[-22.544044,63.970076],[-22.551759,63.969828],[-22.556096,63.968463],[-22.552533,63.965115],[-22.552725,63.96338],[-22.554486,63.96152],[-22.564881,63.957677],[-22.590627,63.951764],[-22.634536,63.937775],[-22.676158,63.931826],[-22.682053,63.929092],[-22.693115,63.919936],[-22.696703,63.912011],[-22.695579,63.907701],[-22.694997,63.898141],[-22.692101,63.889808],[-22.690414,63.878551],[-22.684648,63.87073],[-22.680339,63.867674],[-22.677751,63.86415],[-22.677111,63.847297],[-22.682953,63.837552],[-22.682777,63.832215],[-22.681588,63.830395],[-22.697739,63.830422],[-22.698628,63.828165],[-22.706013,63.828397],[-22.705183,63.825709],[-22.696329,63.817196],[-22.700489,63.815153],[-22.70866,63.814016]]},"properties":{"name":"J4 Reykjavik -> Reykjanes Lighthouse","day":"J4"}},{"type":"Feature","geometry":{"type":"LineString","coordinates":[[-22.70866,63.814016],[-22.700489,63.815153],[-22.696329,63.817196],[-22.705183,63.825709],[-22.706013,63.828397],[-22.698628,63.828165],[-22.697739,63.830422],[-22.681588,63.830395],[-22.682777,63.832215],[-22.683034,63.837197],[-22.677111,63.847297],[-22.67757,63.863283],[-22.678354,63.865325],[-22.675973,63.866549],[-22.678354,63.865325],[-22.67757,63.863283],[-22.677111,63.847297],[-22.682681,63.838228],[-22.683105,63.836139],[-22.681957,63.830751],[-22.675881,63.827891],[-22.673287,63.825641],[-22.666334,63.824656],[-22.652538,63.824984],[-22.641069,63.827114],[-22.620383,63.825235],[-22.593794,63.819905],[-22.559708,63.81886],[-22.550796,63.819919],[-22.545847,63.818074],[-22.541893,63.817728],[-22.528601,63.819267],[-22.51823,63.82293],[-22.514942,63.825237],[-22.513647,63.829464],[-22.511364,63.830817],[-22.479048,63.833516],[-22.45803,63.837193],[-22.449077,63.842058],[-22.446031,63.845481],[-22.443869,63.84509],[-22.443725,63.844133],[-22.434683,63.843052],[-22.41499,63.84392],[-22.401244,63.842913],[-22.38411,63.844063],[-22.377806,63.84811],[-22.354845,63.854652],[-22.348763,63.857741],[-22.342039,63.859474],[-22.338343,63.863488],[-22.322841,63.866643],[-22.317418,63.866095],[-22.313386,63.863795],[-22.311261,63.860463],[-22.311385,63.856184],[-22.309519,63.854094],[-22.305382,63.852405],[-22.299992,63.851691],[-22.284805,63.852788],[-22.267306,63.852343],[-22.251253,63.854312],[-22.242992,63.854545],[-22.234413,63.853567],[-22.218175,63.849683],[-22.209459,63.849183],[-22.190023,63.849762],[-22.171927,63.852715],[-22.157642,63.853864],[-22.143957,63.853703],[-22.120063,63.851857],[-22.092011,63.855332],[-22.071195,63.856101],[-22.054263,63.855134],[-22.028655,63.851347],[-22.015367,63.850467],[-22.015605,63.851504],[-22.018597,63.853674],[-22.017635,63.85704],[-22.019171,63.858818],[-22.048231,63.868972],[-22.05698,63.880198],[-22.059102,63.886203],[-22.065672,63.886455],[-22.066136,63.886925],[-22.065167,63.888225]]},"properties":{"name":"J5 Reykjanes -> Bridge -> Krysuvik","day":"J5"}},{"type":"Feature","geometry":{"type":"LineString","coordinates":[[-22.065167,63.888225],[-22.066136,63.886925],[-22.065672,63.886455],[-22.059102,63.886203],[-22.05698,63.880198],[-22.048231,63.868972],[-22.019171,63.858818],[-22.017635,63.85704],[-22.018597,63.853674],[-22.015605,63.851504],[-22.015367,63.850467],[-21.982966,63.850431],[-21.955812,63.853054],[-21.939929,63.853745],[-21.91537,63.859332],[-21.863316,63.868024],[-21.848204,63.869814],[-21.830013,63.870574],[-21.793225,63.869762],[-21.778533,63.870782],[-21.75642,63.868297],[-21.739835,63.864465],[-21.732959,63.861666],[-21.7225,63.855414],[-21.714896,63.851972],[-21.668948,63.835419],[-21.651968,63.832359],[-21.632121,63.831719],[-21.617103,63.833196],[-21.596423,63.837647],[-21.57907,63.840191],[-21.563755,63.841241],[-21.535208,63.841063],[-21.51371,63.842121],[-21.497152,63.844144],[-21.46294,63.850145],[-21.445151,63.851924],[-21.423632,63.852942],[-21.412885,63.854581],[-21.403473,63.857519],[-21.394676,63.862375],[-21.390579,63.862938],[-21.391066,63.864237],[-21.390466,63.86594],[-21.382949,63.871769],[-21.379313,63.878658],[-21.375367,63.884007],[-21.363617,63.891555],[-21.348579,63.890834],[-21.337053,63.889204],[-21.307969,63.889686],[-21.265102,63.886428],[-21.218764,63.878048],[-21.202901,63.880257],[-21.197662,63.880251],[-21.193185,63.879295],[-21.186148,63.876266],[-21.153071,63.868288],[-21.151111,63.869983],[-21.14993,63.872813],[-21.154608,63.875778],[-21.15906,63.887756],[-21.173772,63.900051],[-21.194984,63.912997],[-21.173772,63.900051],[-21.15906,63.887756],[-21.154608,63.875778],[-21.14993,63.872813],[-21.151111,63.869983],[-21.153071,63.868288],[-21.120556,63.85988],[-21.113663,63.859693],[-21.107882,63.861956],[-21.080446,63.888106],[-21.07238,63.89777],[-21.063433,63.906331],[-21.012022,63.934046],[-21.004055,63.93731],[-20.997313,63.937002]]},"properties":{"name":"J6 Krysuvik -> Selfoss","day":"J6"}}]}