{"type":"FeatureCollection","name":"Bloc E","properties":{"bloc":"E","color":"#c026d3"},"features":[{"type":"Feature","geometry":{"type":"LineString","coordinates":[[-21.921983,64.53899],[-21.923405,64.538315],[-21.922875,64.537206],[-21.921499,64.537178],[-21.919077,64.539895],[-21.910508,64.544596],[-21.909893,64.545808],[-21.910768,64.548099],[-21.910372,64.549062],[-21.897155,64.560096],[-21.897681,64.560853],[-21.896776,64.562616],[-21.89097,64.569433],[-21.882708,64.575341],[-21.870684,64.58117],[-21.841693,64.591666],[-21.829889,64.596823],[-21.826116,64.599883],[-21.823792,64.605465],[-21.820297,64.607869],[-21.790513,64.618333],[-21.78346,64.6236],[-21.773022,64.628744],[-21.764841,64.641388],[-21.762309,64.643175],[-21.748458,64.645885],[-21.729984,64.657009],[-21.713065,64.658994],[-21.704463,64.665115],[-21.700218,64.666984],[-21.673252,64.671815],[-21.668352,64.673524],[-21.658488,64.68137],[-21.649197,64.687474],[-21.64481,64.691562],[-21.637485,64.694844],[-21.631878,64.698672],[-21.627853,64.704567],[-21.6221,64.709652],[-21.612176,64.714007],[-21.606232,64.717874],[-21.600242,64.723577],[-21.597751,64.728217],[-21.594801,64.731706],[-21.582599,64.740698],[-21.577623,64.748302],[-21.556269,64.759252],[-21.551677,64.765044],[-21.545962,64.76722],[-21.534606,64.769359],[-21.517748,64.777591],[-21.50824,64.780093],[-21.506108,64.781966],[-21.504894,64.786658],[-21.503906,64.787705],[-21.494554,64.791873],[-21.465099,64.801001],[-21.474218,64.804132],[-21.474213,64.805321],[-21.471973,64.808027],[-21.473476,64.811293],[-21.470798,64.813694],[-21.470366,64.815313],[-21.474946,64.818802],[-21.47985,64.825228],[-21.485324,64.8286],[-21.486667,64.832404],[-21.492517,64.835227],[-21.492655,64.83666],[-21.48957,64.839929],[-21.48983,64.841642],[-21.492887,64.843648],[-21.4939,64.846095],[-21.497583,64.849592],[-21.50968,64.853804],[-21.514709,64.859286],[-21.519814,64.862634],[-21.519851,64.864092],[-21.517601,64.865937],[-21.516932,64.867714],[-21.520252,64.870756],[-21.520858,64.872274],[-21.519492,64.873929],[-21.515279,64.875839],[-21.514397,64.877021],[-21.516533,64.88141],[-21.513289,64.886238],[-21.513191,64.887491],[-21.516713,64.89073],[-21.517479,64.893317],[-21.516977,64.900317],[-21.513899,64.90342],[-21.513626,64.905087],[-21.515543,64.906843],[-21.521572,64.909261],[-21.52439,64.912412],[-21.528499,64.914986],[-21.533596,64.924591],[-21.546732,64.932666],[-21.546999,64.936531],[-21.550816,64.941481],[-21.552021,64.94628],[-21.551705,64.948682],[-21.549932,64.951283],[-21.549034,64.961676],[-21.547048,64.965211],[-21.548096,64.96785],[-21.565526,64.975885],[-21.582498,64.979048],[-21.587966,64.980895],[-21.59672,64.985323],[-21.623328,64.996426],[-21.632205,65.003732],[-21.640805,65.012374],[-21.64921,65.017772],[-21.655456,65.021425],[-21.692359,65.038854],[-21.69588,65.044287],[-21.698792,65.051008],[-21.695015,65.05225],[-21.686412,65.052548],[-21.676023,65.054981],[-21.659814,65.056562],[-21.646838,65.05604],[-21.631085,65.056554],[-21.593776,65.059676],[-21.572618,65.059041],[-21.561887,65.057685],[-21.525374,65.058876],[-21.561887,65.057685],[-21.572618,65.059041],[-21.593776,65.059676],[-21.631085,65.056554],[-21.646838,65.05604],[-21.659814,65.056562],[-21.676023,65.054981],[-21.686412,65.052548],[-21.695015,65.05225],[-21.698792,65.051008],[-21.701422,65.053591],[-21.712546,65.055871],[-21.732353,65.058049],[-21.764957,65.063777],[-21.772735,65.069399],[-21.776309,65.074271],[-21.775765,65.075985],[-21.75266,65.085046],[-21.745665,65.088603],[-21.744665,65.090159],[-21.739043,65.090403],[-21.729695,65.092295],[-21.721229,65.096026],[-21.714073,65.100875],[-21.70174,65.107403],[-21.660465,65.123623],[-21.627461,65.129949],[-21.618103,65.131006],[-21.610655,65.133306],[-21.60465,65.136818],[-21.594673,65.139687],[-21.588267,65.145122],[-21.584917,65.146786],[-21.564941,65.151078],[-21.540613,65.157505],[-21.533305,65.162152],[-21.526326,65.164638],[-21.50428,65.176134],[-21.465327,65.189758],[-21.455596,65.197262],[-21.447813,65.200536],[-21.434769,65.202476],[-21.417451,65.206638],[-21.378121,65.208447],[-21.373001,65.209646],[-21.367322,65.212577],[-21.363169,65.213403],[-21.351216,65.212743],[-21.326962,65.206949],[-21.308157,65.206237],[-21.299947,65.207719],[-21.289724,65.208121],[-21.266399,65.213424],[-21.242892,65.222414],[-21.237463,65.223582],[-21.169344,65.227692],[-21.145034,65.226829],[-21.126792,65.225121],[-21.119555,65.222669],[-21.117241,65.222689],[-21.108379,65.218831],[-21.102279,65.214268],[-21.101121,65.209358],[-21.102526,65.203079],[-21.101394,65.197209],[-21.096169,65.190698],[-21.096245,65.184975],[-21.095252,65.182506],[-21.096196,65.179677],[-21.095649,65.166686],[-21.093326,65.161871],[-21.093044,65.15837],[-21.090002,65.156297],[-21.08188,65.153669],[-21.080372,65.152158],[-21.079165,65.14892],[-21.076064,65.146694],[-21.067502,65.14933],[-21.062931,65.151438],[-21.059965,65.153836],[-21.05753,65.160214],[-21.057149,65.175662],[-21.059793,65.183874],[-21.058812,65.190837],[-21.059332,65.198528],[-21.061042,65.20217],[-21.06563,65.207552],[-21.069758,65.215986],[-21.072954,65.227797],[-21.086556,65.240055],[-21.088767,65.243022],[-21.089518,65.24661],[-21.088294,65.253116],[-21.090714,65.262514],[-21.090317,65.265372],[-21.086122,65.269125],[-21.071199,65.276761],[-21.059635,65.279459],[-21.040039,65.287058],[-20.999021,65.295514],[-20.985621,65.300577],[-20.968344,65.305305],[-20.928412,65.318517],[-20.915284,65.322005],[-20.9091,65.324791],[-20.897392,65.332918],[-20.896052,65.335216],[-20.897833,65.341858],[-20.896565,65.345486],[-20.891884,65.349373],[-20.884735,65.352217],[-20.88736,65.354226],[-20.889714,65.358583],[-20.892168,65.360984],[-20.903586,65.367232],[-20.942064,65.395986]]},"properties":{"name":"J1 Borgarnes -> Hvammstangi via Eiriksstadir","day":"J1"}},{"type":"Feature","geometry":{"type":"LineString","coordinates":[[-20.942064,65.395986],[-20.903586,65.367232],[-20.892168,65.360984],[-20.889714,65.358583],[-20.88736,65.354226],[-20.884735,65.352217],[-20.878645,65.353454],[-20.872658,65.353486],[-20.852475,65.349243],[-20.813962,65.34434],[-20.782004,65.344947],[-20.775153,65.346346],[-20.753827,65.353227],[-20.746408,65.353365],[-20.744736,65.355296],[-20.737023,65.359936],[-20.720277,65.374071],[-20.712396,65.377993],[-20.699649,65.392073],[-20.697211,65.39777],[-20.696677,65.400762],[-20.697239,65.407326],[-20.69947,65.411086],[-20.699179,65.413808],[-20.696782,65.417967],[-20.697738,65.424652],[-20.697196,65.428938],[-20.695489,65.435368],[-20.688012,65.446572],[-20.688299,65.457332],[-20.694573,65.462752],[-20.694424,65.465605],[-20.695702,65.46961],[-20.699888,65.477076],[-20.698433,65.482624],[-20.698462,65.487565],[-20.696183,65.495767],[-20.692515,65.498698],[-20.676721,65.500613],[-20.670802,65.502867],[-20.664352,65.507731],[-20.654049,65.519093],[-20.649601,65.521731],[-20.645521,65.528952],[-20.646034,65.535062],[-20.64684,65.536418],[-20.655687,65.540006],[-20.658209,65.543722],[-20.654056,65.565788],[-20.654564,65.569649],[-20.65316,65.579577],[-20.650649,65.586948],[-20.651005,65.595067],[-20.647154,65.601552],[-20.645732,65.60726],[-20.646366,65.613257],[-20.645236,65.615642],[-20.646104,65.615906],[-20.645302,65.616168],[-20.646366,65.613257],[-20.645749,65.607038],[-20.647154,65.601552],[-20.651005,65.595067],[-20.650649,65.586948],[-20.65316,65.579577],[-20.654564,65.569649],[-20.654056,65.565788],[-20.658209,65.543722],[-20.655687,65.540006],[-20.649043,65.537729],[-20.646516,65.536037],[-20.645582,65.528753],[-20.650219,65.521094],[-20.654049,65.519093],[-20.664352,65.507731],[-20.670802,65.502867],[-20.67564,65.500824],[-20.691993,65.498812],[-20.694156,65.497915],[-20.696463,65.495],[-20.698462,65.487565],[-20.698433,65.482624],[-20.699901,65.477243],[-20.695472,65.468986],[-20.694424,65.465605],[-20.694573,65.462752],[-20.688997,65.458265],[-20.687852,65.455932],[-20.688066,65.446369],[-20.692986,65.43901],[-20.677619,65.434222],[-20.672222,65.434232],[-20.66405,65.437844],[-20.654469,65.435057],[-20.657037,65.424317],[-20.656766,65.421951],[-20.652695,65.41552],[-20.644296,65.411784],[-20.631115,65.408874],[-20.627902,65.411913],[-20.609751,65.421956],[-20.596151,65.426791],[-20.592943,65.429839],[-20.591702,65.43384],[-20.588849,65.437377],[-20.577161,65.445257],[-20.553189,65.456155],[-20.514854,65.467908],[-20.474944,65.47307],[-20.459391,65.479639],[-20.439017,65.482904],[-20.426279,65.488861],[-20.409406,65.494568],[-20.399171,65.500703],[-20.388278,65.503929],[-20.383885,65.504525],[-20.371914,65.50424],[-20.339207,65.512776],[-20.336525,65.514606],[-20.336407,65.51788],[-20.337753,65.520461],[-20.337979,65.523764],[-20.340833,65.526925],[-20.34286,65.531733],[-20.340334,65.540441],[-20.341702,65.54362],[-20.344995,65.547415],[-20.345215,65.549096],[-20.342973,65.55188],[-20.341203,65.555998],[-20.340881,65.560027],[-20.339845,65.562339],[-20.333902,65.5694],[-20.324627,65.584517],[-20.317281,65.594328],[-20.31271,65.603254],[-20.302201,65.618352],[-20.295998,65.631542],[-20.295419,65.641786],[-20.294402,65.645555],[-20.290008,65.651545],[-20.281416,65.658124],[-20.284703,65.659156]]},"properties":{"name":"J2 Hvammstangi -> Vatnsnes -> Blonduos","day":"J2"}},{"type":"Feature","geometry":{"type":"LineString","coordinates":[[-20.284703,65.659156],[-20.281416,65.658124],[-20.284122,65.65632],[-20.267262,65.653349],[-20.2578,65.650078],[-20.238575,65.645025],[-20.231134,65.638305],[-20.227301,65.631999],[-20.222314,65.629304],[-20.215726,65.627061],[-20.204289,65.625221],[-20.195912,65.622604],[-20.184479,65.617163],[-20.16732,65.613023],[-20.156441,65.604483],[-20.150636,65.596346],[-20.140371,65.591311],[-20.131295,65.588624],[-20.126394,65.584176],[-20.121254,65.572873],[-20.11129,65.56568],[-20.082804,65.555671],[-20.06275,65.55255],[-20.0479,65.54804],[-20.0346,65.54607],[-20.014163,65.539013],[-20.001595,65.53656],[-19.996311,65.533626],[-19.960409,65.51996],[-19.95074,65.51306],[-19.927939,65.503909],[-19.911991,65.501713],[-19.883369,65.494602],[-19.875976,65.493558],[-19.876099,65.492377],[-19.874854,65.491189],[-19.849908,65.480151],[-19.847432,65.477152],[-19.835971,65.468872],[-19.814103,65.451181],[-19.812194,65.448871],[-19.810945,65.445235],[-19.806549,65.437554],[-19.802098,65.433266],[-19.801798,65.421539],[-19.805788,65.422479],[-19.811995,65.425836],[-19.817926,65.426844],[-19.826019,65.425507],[-19.82822,65.424048],[-19.828808,65.422207],[-19.822752,65.413877],[-19.821359,65.406681],[-19.820055,65.404045],[-19.813258,65.395933],[-19.805793,65.381114],[-19.80648,65.375948],[-19.803478,65.369475],[-19.804782,65.360157],[-19.8035,65.352407],[-19.801666,65.348148],[-19.797218,65.342934],[-19.796776,65.341478],[-19.797767,65.339795],[-19.805273,65.33382],[-19.803677,65.324382],[-19.801371,65.320778],[-19.789313,65.311424],[-19.787487,65.309154],[-19.787195,65.307329],[-19.789083,65.301098],[-19.789164,65.296705],[-19.783323,65.282409],[-19.781525,65.2803],[-19.778266,65.278299],[-19.764466,65.27425],[-19.742465,65.26191],[-19.731789,65.258322],[-19.718915,65.249765],[-19.704686,65.237315],[-19.705737,65.234909],[-19.717773,65.22811],[-19.72348,65.220659],[-19.731697,65.216514],[-19.735268,65.212768],[-19.734161,65.208974],[-19.734652,65.204922],[-19.731766,65.201308],[-19.735831,65.1958],[-19.731569,65.184044],[-19.735096,65.178934],[-19.733384,65.175186],[-19.733394,65.173254],[-19.737412,65.169083],[-19.737277,65.167564],[-19.733982,65.164374],[-19.731363,65.159779],[-19.726582,65.156513],[-19.724359,65.151996],[-19.712819,65.142842],[-19.707884,65.13796],[-19.697332,65.132285],[-19.681829,65.122063],[-19.674449,65.119358],[-19.661302,65.112261],[-19.658251,65.109306],[-19.656889,65.105108],[-19.654395,65.101318],[-19.640692,65.087463],[-19.63177,65.080858],[-19.621214,65.075956],[-19.611817,65.069308],[-19.609543,65.065813],[-19.609322,65.058914],[-19.615996,65.050843],[-19.618154,65.046179],[-19.618516,65.04273],[-19.614873,65.037319],[-19.614177,65.033829],[-19.61516,65.030483],[-19.61467,65.028275],[-19.604412,65.020988],[-19.602074,65.017911],[-19.595952,65.012862],[-19.590856,65.006876],[-19.586179,65.003426],[-19.583999,65.000144],[-19.579613,64.996522],[-19.578236,64.992065],[-19.571111,64.98321],[-19.570972,64.979775],[-19.573082,64.97558],[-19.572135,64.969112],[-19.567768,64.963602],[-19.566266,64.960344],[-19.559202,64.952984],[-19.554841,64.949681],[-19.551905,64.945713],[-19.550026,64.944595],[-19.545105,64.943177],[-19.530702,64.941193],[-19.520011,64.937114],[-19.515752,64.934629],[-19.511697,64.930374],[-19.508981,64.924636],[-19.506819,64.923192],[-19.500498,64.921361],[-19.500099,64.916142],[-19.497455,64.912337],[-19.492427,64.908049],[-19.49138,64.905245],[-19.488732,64.902385],[-19.489607,64.898644],[-19.495668,64.895885],[-19.495862,64.893582],[-19.500573,64.890178],[-19.502543,64.88561],[-19.514276,64.883372],[-19.517447,64.879911],[-19.521612,64.877512],[-19.523235,64.875517],[-19.534181,64.876858],[-19.53949,64.876211],[-19.550614,64.872701],[-19.552788,64.870859],[-19.556465,64.869425],[-19.554883,64.866564],[-19.552359,64.86726]]},"properties":{"name":"J3 Blonduos -> Hveravellir (Kjolur)","day":"J3"}},{"type":"Feature","geometry":{"type":"LineString","coordinates":[[-19.552359,64.86726],[-19.554883,64.866564],[-19.556465,64.869425],[-19.552788,64.870859],[-19.550614,64.872701],[-19.539312,64.87624],[-19.531167,64.876716],[-19.521487,64.87455],[-19.516378,64.874851],[-19.507979,64.873938],[-19.5031,64.87466],[-19.493158,64.873152],[-19.474986,64.872317],[-19.465842,64.873495],[-19.454664,64.876129],[-19.439197,64.881282],[-19.421294,64.875659],[-19.411305,64.874305],[-19.406683,64.871628],[-19.403615,64.866757],[-19.391057,64.861698],[-19.378431,64.859525],[-19.378497,64.852932],[-19.374277,64.844286],[-19.376894,64.838638],[-19.376276,64.83237],[-19.373467,64.824679],[-19.352713,64.812447],[-19.356575,64.809438],[-19.355613,64.805757],[-19.358576,64.79979],[-19.356015,64.795181],[-19.361718,64.791492],[-19.365788,64.790788],[-19.371107,64.786313],[-19.380028,64.782227],[-19.379411,64.780867],[-19.381822,64.77391],[-19.38096,64.771688],[-19.385552,64.764347],[-19.386127,64.758657],[-19.388401,64.757027],[-19.389815,64.75393],[-19.391773,64.75321],[-19.394825,64.749931],[-19.403969,64.74653],[-19.410614,64.736503],[-19.411321,64.731245],[-19.413649,64.730135],[-19.414056,64.729119],[-19.436158,64.727995],[-19.439693,64.725018],[-19.453464,64.723378],[-19.458226,64.721112],[-19.459533,64.719033],[-19.46259,64.717431],[-19.438653,64.715873],[-19.433713,64.713192],[-19.433463,64.711365],[-19.432041,64.710009],[-19.426555,64.707487],[-19.415578,64.707305],[-19.403175,64.705672],[-19.395992,64.704015],[-19.391239,64.700755],[-19.384582,64.699494],[-19.379751,64.700016],[-19.3744,64.701703],[-19.370616,64.700673],[-19.366981,64.701389],[-19.364447,64.699876],[-19.359184,64.69991],[-19.350848,64.695259],[-19.348388,64.690202],[-19.345874,64.688919],[-19.339314,64.690517],[-19.334084,64.689353],[-19.319745,64.688613],[-19.319304,64.686927],[-19.317892,64.686244],[-19.298262,64.68452],[-19.293344,64.681151],[-19.291882,64.676519],[-19.290308,64.674788],[-19.284487,64.673049],[-19.282147,64.671211],[-19.280864,64.669201],[-19.281426,64.666827],[-19.279953,64.665572],[-19.282457,64.663165],[-19.278126,64.660594],[-19.280251,64.659214],[-19.273292,64.656285],[-19.271798,64.654706],[-19.273438,64.650769],[-19.271567,64.649549],[-19.268661,64.649235],[-19.27909,64.646403],[-19.269891,64.64849],[-19.26866,64.649419],[-19.271393,64.649494],[-19.273438,64.650769],[-19.271798,64.654706],[-19.273292,64.656285],[-19.280251,64.659214],[-19.278126,64.660594],[-19.282457,64.663165],[-19.279953,64.665572],[-19.281426,64.666827],[-19.280864,64.669201],[-19.282147,64.671211],[-19.284487,64.673049],[-19.290308,64.674788],[-19.291882,64.676519],[-19.293344,64.681151],[-19.298262,64.68452],[-19.317892,64.686244],[-19.319304,64.686927],[-19.319745,64.688613],[-19.334084,64.689353],[-19.339314,64.690517],[-19.345874,64.688919],[-19.348388,64.690202],[-19.350848,64.695259],[-19.359184,64.69991],[-19.364447,64.699876],[-19.366981,64.701389],[-19.370616,64.700673],[-19.3744,64.701703],[-19.382536,64.699484],[-19.387314,64.699967],[-19.392262,64.701116],[-19.395992,64.704015],[-19.403175,64.705672],[-19.415578,64.707305],[-19.426923,64.707601],[-19.432041,64.710009],[-19.433463,64.711365],[-19.433713,64.713192],[-19.438653,64.715873],[-19.459426,64.717554],[-19.462441,64.716946],[-19.466504,64.714072],[-19.475646,64.710514],[-19.47938,64.707137],[-19.487252,64.705071],[-19.493603,64.698102],[-19.499267,64.694183],[-19.506285,64.691963],[-19.517641,64.682062],[-19.521884,64.680307],[-19.528617,64.679056],[-19.533037,64.674889],[-19.536749,64.674254],[-19.543042,64.66755],[-19.549222,64.665277],[-19.550986,64.662316],[-19.554205,64.659784],[-19.566886,64.657242],[-19.571528,64.654913],[-19.580367,64.652505],[-19.585238,64.652058],[-19.593871,64.647318],[-19.605954,64.645152],[-19.615633,64.641769],[-19.623771,64.638099],[-19.624838,64.635542],[-19.627494,64.632764],[-19.634124,64.6301],[-19.636133,64.628338],[-19.64089,64.627248],[-19.648172,64.624055],[-19.649981,64.621367],[-19.651446,64.620649],[-19.662378,64.61815],[-19.673352,64.617416],[-19.689422,64.614228],[-19.692087,64.613043],[-19.694402,64.609739],[-19.70739,64.606402],[-19.715291,64.599711],[-19.720937,64.596458]]},"properties":{"name":"J4 Hveravellir -> Kerlingarfjoll -> Hvitarvatn","day":"J4"}},{"type":"Feature","geometry":{"type":"LineString","coordinates":[[-19.720937,64.596458],[-19.722321,64.593014],[-19.726248,64.589729],[-19.727346,64.587759],[-19.732325,64.5849],[-19.733757,64.581951],[-19.740956,64.574205],[-19.742358,64.571334],[-19.756445,64.560083],[-19.758001,64.555488],[-19.76854,64.550667],[-19.769141,64.549489],[-19.76854,64.54515],[-19.777252,64.537342],[-19.787486,64.536192],[-19.804125,64.540912],[-19.81687,64.541245],[-19.828055,64.538213],[-19.833463,64.534048],[-19.843783,64.533422],[-19.858005,64.529646],[-19.864825,64.524877],[-19.873875,64.522813],[-19.88252,64.519218],[-19.894857,64.5158],[-19.901771,64.513058],[-19.913114,64.510282],[-19.917489,64.506291],[-19.923326,64.50368],[-19.926077,64.499957],[-19.923828,64.496728],[-19.930055,64.492759],[-19.931693,64.488689],[-19.94642,64.483251],[-19.950054,64.480822],[-19.952301,64.478231],[-19.962848,64.472486],[-19.974077,64.470245],[-19.977359,64.46879],[-19.98101,64.469317],[-19.984697,64.466555],[-19.985412,64.462946],[-19.989402,64.459501],[-19.991169,64.456723],[-19.996879,64.453644],[-20.003487,64.451276],[-20.008208,64.44837],[-20.008302,64.445983],[-20.011321,64.441929],[-20.011014,64.439611],[-20.007988,64.438004],[-20.009094,64.434645],[-20.00823,64.432648],[-20.01081,64.426333],[-20.012636,64.42431],[-20.020237,64.420386],[-20.031826,64.411766],[-20.038834,64.408593],[-20.048008,64.405995],[-20.054557,64.401744],[-20.075886,64.400759],[-20.081614,64.399355],[-20.085449,64.397197],[-20.08682,64.395175],[-20.086853,64.393749],[-20.082661,64.387709],[-20.083512,64.385128],[-20.09589,64.378367],[-20.102143,64.373092],[-20.103001,64.371755],[-20.102374,64.366149],[-20.104354,64.363254],[-20.113056,64.358115],[-20.1214,64.355134],[-20.131157,64.348799],[-20.130958,64.345566],[-20.13282,64.340752],[-20.128198,64.33831],[-20.12445,64.332818],[-20.12501,64.33081],[-20.127329,64.328819]]},"properties":{"name":"J5 Hvitarvatn -> Gullfoss","day":"J5"}}]}