{"type":"FeatureCollection","name":"Bloc C","properties":{"bloc":"C","color":"#16a34a"},"features":[{"type":"Feature","geometry":{"type":"LineString","coordinates":[[-20.942064,65.395986],[-20.903586,65.367232],[-20.892168,65.360984],[-20.889714,65.358583],[-20.88736,65.354226],[-20.884735,65.352217],[-20.891884,65.349373],[-20.896565,65.345486],[-20.897833,65.341858],[-20.896061,65.33554],[-20.896664,65.333658],[-20.908314,65.325298],[-20.913157,65.322813],[-20.929495,65.318176],[-20.968344,65.305305],[-20.985621,65.300577],[-21.001187,65.294892],[-21.04139,65.286645],[-21.059635,65.279459],[-21.072567,65.276225],[-21.086122,65.269125],[-21.089222,65.266795],[-21.090826,65.26354],[-21.088294,65.253116],[-21.089501,65.246893],[-21.088944,65.243404],[-21.086556,65.240055],[-21.072954,65.227797],[-21.069805,65.216088],[-21.06563,65.207552],[-21.060523,65.201405],[-21.059246,65.198015],[-21.058812,65.190837],[-21.059766,65.183458],[-21.057149,65.175662],[-21.057358,65.161397],[-21.058543,65.156331],[-21.059965,65.153836],[-21.064079,65.150793],[-21.076064,65.146694],[-21.079165,65.14892],[-21.080372,65.152158],[-21.08188,65.153669],[-21.090833,65.156659],[-21.093454,65.159224],[-21.093326,65.161871],[-21.095649,65.166686],[-21.096196,65.179677],[-21.095252,65.182506],[-21.096245,65.184975],[-21.096169,65.190698],[-21.101394,65.197209],[-21.102526,65.203079],[-21.101121,65.209358],[-21.102577,65.214685],[-21.107577,65.218436],[-21.116393,65.222212],[-21.130105,65.230462],[-21.133356,65.23635],[-21.136735,65.239295],[-21.149953,65.261273],[-21.154001,65.263392],[-21.164759,65.266975],[-21.168342,65.271874],[-21.174662,65.276698],[-21.176786,65.280218],[-21.180434,65.282376],[-21.189382,65.285498],[-21.199161,65.294762],[-21.2024,65.306781],[-21.201344,65.308495],[-21.195213,65.313095],[-21.194075,65.315154],[-21.191511,65.325865],[-21.190229,65.340666],[-21.188191,65.347353],[-21.189496,65.353021],[-21.189714,65.360916],[-21.187053,65.364321],[-21.187911,65.367824],[-21.193768,65.371885],[-21.196624,65.375842],[-21.195727,65.378642],[-21.19049,65.38505],[-21.191968,65.388788],[-21.193912,65.398957],[-21.195549,65.400489],[-21.203007,65.402594],[-21.209225,65.405798],[-21.215083,65.40708],[-21.218618,65.415542],[-21.21924,65.421505],[-21.222146,65.424747],[-21.224884,65.431689],[-21.231223,65.438006],[-21.245545,65.443613],[-21.248328,65.445437],[-21.24901,65.447624],[-21.245925,65.451261],[-21.246332,65.45245],[-21.2631,65.45589],[-21.272138,65.45907],[-21.280534,65.46711],[-21.283704,65.468226],[-21.288631,65.468582],[-21.307662,65.463499],[-21.321561,65.46124],[-21.341774,65.460641],[-21.353447,65.461298],[-21.360224,65.460653],[-21.37989,65.453763],[-21.389756,65.45225],[-21.396212,65.45041],[-21.398884,65.450607],[-21.407238,65.454566],[-21.417827,65.453351],[-21.445423,65.445767],[-21.452565,65.442958],[-21.469356,65.439333],[-21.481791,65.441341],[-21.477301,65.446603],[-21.470842,65.449902],[-21.444637,65.458043],[-21.43953,65.460483],[-21.430114,65.46274],[-21.417322,65.468152],[-21.409088,65.470191],[-21.400042,65.474827],[-21.38552,65.479736],[-21.384368,65.481105],[-21.386062,65.483648],[-21.385994,65.485148],[-21.379247,65.490147],[-21.36473,65.495816],[-21.358369,65.500079],[-21.339605,65.50927],[-21.324801,65.517919],[-21.319176,65.520757],[-21.310588,65.523634],[-21.305991,65.528361],[-21.297276,65.539654],[-21.294459,65.544818],[-21.299926,65.54877],[-21.300303,65.551829],[-21.302589,65.5559],[-21.302804,65.558483],[-21.304074,65.560943],[-21.31113,65.561067],[-21.313946,65.564175],[-21.318026,65.566942],[-21.335363,65.576506],[-21.33879,65.57691],[-21.343846,65.575611],[-21.346473,65.579735],[-21.343313,65.583604],[-21.344718,65.587224],[-21.34314,65.589697],[-21.350328,65.597325],[-21.361739,65.595188],[-21.370882,65.595731],[-21.374129,65.594749],[-21.37704,65.592703],[-21.390861,65.587147],[-21.401733,65.580266],[-21.414172,65.573746],[-21.423509,65.569384],[-21.431551,65.566867],[-21.437818,65.56271],[-21.443907,65.560364],[-21.464807,65.555398],[-21.483378,65.558713],[-21.48612,65.560072],[-21.486476,65.560988],[-21.480874,65.567153],[-21.476287,65.570635],[-21.462371,65.579447],[-21.445824,65.587187],[-21.431961,65.5964],[-21.407243,65.607968],[-21.403373,65.612498],[-21.401043,65.617529],[-21.397669,65.620969],[-21.397001,65.624405],[-21.400339,65.630261],[-21.429023,65.636277],[-21.437896,65.636513],[-21.449592,65.638772],[-21.474274,65.637818],[-21.482703,65.639219],[-21.499493,65.638822],[-21.507064,65.63982],[-21.523643,65.637564],[-21.53949,65.637128],[-21.548378,65.638378],[-21.553343,65.637348],[-21.585527,65.640459],[-21.599098,65.639638],[-21.62118,65.643614],[-21.632196,65.642838],[-21.637138,65.643365],[-21.645222,65.646997],[-21.645754,65.648439],[-21.644826,65.651335],[-21.646006,65.652533],[-21.666396,65.6609],[-21.668808,65.661284],[-21.669553,65.663568],[-21.668182,65.66758],[-21.66424,65.670998],[-21.666864,65.674598],[-21.665751,65.677034],[-21.666203,65.677859],[-21.67251,65.680552],[-21.677079,65.683632],[-21.691413,65.687392],[-21.697088,65.690517],[-21.697177,65.694054],[-21.695215,65.701527],[-21.688752,65.701582],[-21.685631,65.706236]]},"properties":{"name":"J1 Hvammstangi -> Holmavik","day":"J1"}},{"type":"Feature","geometry":{"type":"LineString","coordinates":[[-21.685631,65.706236],[-21.688752,65.701582],[-21.695215,65.701527],[-21.69287,65.713358],[-21.689302,65.719163],[-21.688433,65.722904],[-21.690263,65.724964],[-21.695112,65.727324],[-21.698232,65.731698],[-21.70465,65.73558],[-21.705527,65.738623],[-21.709033,65.742479],[-21.706104,65.746253],[-21.70701,65.749511],[-21.708056,65.750534],[-21.717535,65.752395],[-21.729593,65.753395],[-21.732346,65.75433],[-21.734819,65.756911],[-21.737555,65.758308],[-21.758018,65.762942],[-21.773501,65.764622],[-21.780773,65.764123],[-21.781239,65.766215],[-21.780292,65.767942],[-21.774077,65.770826],[-21.767146,65.771676],[-21.753639,65.771259],[-21.732779,65.775843],[-21.725646,65.776078],[-21.715073,65.774058],[-21.693384,65.765228],[-21.679477,65.764078],[-21.671535,65.761296],[-21.663942,65.755653],[-21.661633,65.749701],[-21.657134,65.747497],[-21.657459,65.744058],[-21.656751,65.743068],[-21.645502,65.735644],[-21.643996,65.732349],[-21.644769,65.729046],[-21.643192,65.727215],[-21.627149,65.72359],[-21.623418,65.72079],[-21.619396,65.719441],[-21.617347,65.717788],[-21.604656,65.714338],[-21.594738,65.708842],[-21.591659,65.704847],[-21.590084,65.70392],[-21.58319,65.703131],[-21.578014,65.700455],[-21.561136,65.699869],[-21.559811,65.69883],[-21.559471,65.694746],[-21.557538,65.692927],[-21.54726,65.693132],[-21.54001,65.694142],[-21.530999,65.692119],[-21.512804,65.693066],[-21.503141,65.692164],[-21.494848,65.692535],[-21.488407,65.690455],[-21.474645,65.689991],[-21.464705,65.687694],[-21.45607,65.688277],[-21.451763,65.687718],[-21.436971,65.688997]]},"properties":{"name":"J2 Holmavik -> Drangsnes","day":"J2"}},{"type":"Feature","geometry":{"type":"LineString","coordinates":[[-21.436971,65.688997],[-21.451763,65.687718],[-21.45607,65.688277],[-21.464705,65.687694],[-21.474645,65.689991],[-21.488407,65.690455],[-21.494848,65.692535],[-21.503141,65.692164],[-21.512804,65.693066],[-21.530999,65.692119],[-21.54001,65.694142],[-21.557224,65.69284],[-21.559471,65.694746],[-21.559811,65.69883],[-21.561136,65.699869],[-21.578014,65.700455],[-21.58319,65.703131],[-21.590084,65.70392],[-21.591659,65.704847],[-21.594738,65.708842],[-21.604656,65.714338],[-21.617347,65.717788],[-21.619396,65.719441],[-21.623418,65.72079],[-21.627149,65.72359],[-21.643753,65.727621],[-21.64484,65.72952],[-21.643996,65.732349],[-21.645502,65.735644],[-21.65696,65.743284],[-21.65747,65.744307],[-21.65688,65.747057],[-21.661896,65.749974],[-21.663058,65.754274],[-21.661643,65.754716],[-21.661991,65.755925],[-21.660518,65.757595],[-21.655644,65.759384],[-21.648114,65.76412],[-21.636288,65.76703],[-21.61956,65.768443],[-21.602905,65.773621],[-21.593284,65.773752],[-21.58298,65.775621],[-21.574874,65.775491],[-21.557415,65.773817],[-21.549943,65.772367],[-21.54409,65.772318],[-21.540186,65.773276],[-21.53725,65.775919],[-21.533744,65.777026],[-21.53536,65.779181],[-21.536953,65.778907],[-21.535182,65.779143],[-21.533744,65.777026],[-21.53725,65.775919],[-21.540186,65.773276],[-21.54409,65.772318],[-21.549943,65.772367],[-21.557415,65.773817],[-21.574874,65.775491],[-21.58298,65.775621],[-21.593284,65.773752],[-21.602905,65.773621],[-21.621654,65.768048],[-21.63927,65.766524],[-21.649319,65.76354],[-21.655644,65.759384],[-21.660518,65.757595],[-21.661991,65.755925],[-21.661643,65.754716],[-21.662515,65.754311],[-21.668558,65.759596],[-21.675875,65.763126],[-21.680279,65.76421],[-21.692788,65.765074],[-21.716178,65.774417],[-21.722727,65.775788],[-21.729422,65.776163],[-21.751997,65.771443],[-21.767146,65.771676],[-21.774077,65.770826],[-21.780292,65.767942],[-21.781239,65.766215],[-21.780773,65.764123],[-21.786237,65.764553],[-21.794416,65.767692],[-21.801063,65.768941],[-21.826391,65.7669],[-21.8343,65.765122],[-21.845494,65.760061],[-21.863219,65.758087],[-21.877569,65.757797],[-21.930106,65.745583],[-21.938841,65.744796],[-21.971097,65.744526],[-21.98498,65.743024],[-21.994547,65.743406],[-22.006449,65.741933],[-22.019701,65.738429],[-22.042468,65.739975],[-22.071503,65.744155],[-22.094061,65.745103],[-22.102434,65.74756],[-22.136706,65.751672],[-22.151185,65.754492],[-22.157282,65.75673],[-22.16352,65.761555],[-22.17442,65.764496],[-22.179497,65.770085],[-22.183888,65.772756],[-22.1894,65.773704],[-22.202752,65.773347],[-22.212268,65.775812],[-22.214167,65.777511],[-22.214326,65.781545],[-22.218734,65.789901],[-22.222223,65.792642],[-22.233136,65.798734],[-22.27139,65.803621],[-22.278042,65.806202],[-22.280137,65.809167],[-22.279613,65.81357],[-22.281221,65.81779],[-22.279572,65.823313],[-22.280542,65.826413],[-22.284465,65.829799],[-22.293155,65.833962],[-22.297913,65.837232],[-22.301663,65.841495],[-22.303852,65.846607],[-22.303942,65.853353],[-22.305572,65.86011],[-22.304748,65.864418],[-22.30521,65.867007],[-22.304383,65.870167],[-22.30125,65.874785],[-22.301914,65.879376],[-22.299607,65.883387],[-22.300592,65.885797],[-22.304016,65.888144],[-22.309244,65.889868],[-22.324444,65.891317],[-22.330419,65.892667],[-22.334859,65.894743],[-22.339159,65.898532],[-22.342442,65.899697],[-22.36653,65.902901],[-22.374896,65.902676],[-22.379478,65.900243],[-22.380647,65.89502],[-22.377808,65.891185],[-22.378668,65.883296],[-22.398714,65.868099],[-22.405372,65.86413],[-22.40991,65.859585],[-22.411718,65.857132],[-22.413767,65.850528],[-22.41808,65.843492],[-22.419003,65.839068],[-22.420097,65.838001],[-22.432382,65.836163],[-22.433766,65.835339],[-22.437153,65.830124],[-22.441045,65.828217],[-22.445946,65.827471],[-22.456209,65.827762],[-22.462117,65.826393],[-22.466596,65.823595],[-22.474651,65.815661],[-22.480068,65.81191],[-22.491296,65.808216],[-22.513556,65.797255],[-22.532264,65.793649],[-22.537492,65.789366],[-22.541027,65.787708],[-22.549386,65.78589],[-22.569348,65.783653],[-22.578758,65.78154],[-22.583056,65.781721],[-22.586059,65.783308],[-22.58591,65.784552],[-22.584779,65.785371],[-22.564725,65.789592],[-22.5548,65.792627],[-22.524858,65.808193],[-22.498203,65.819976],[-22.48734,65.825625],[-22.473634,65.836062],[-22.469217,65.840406],[-22.466371,65.847034],[-22.462034,65.851748],[-22.461166,65.854179],[-22.459188,65.856418],[-22.430028,65.875747],[-22.429592,65.879247],[-22.433369,65.882202],[-22.434259,65.88437],[-22.425526,65.892688],[-22.420456,65.90058],[-22.419855,65.902758],[-22.421088,65.906439],[-22.423886,65.910702],[-22.428828,65.914236],[-22.428793,65.917601],[-22.430965,65.92277],[-22.434828,65.925492],[-22.44159,65.92772],[-22.444779,65.929618],[-22.446205,65.931741],[-22.445855,65.935557],[-22.447579,65.939036],[-22.450555,65.942699],[-22.45552,65.94646],[-22.459186,65.947407],[-22.463805,65.946799],[-22.465278,65.945862],[-22.466143,65.943395],[-22.471754,65.939975],[-22.485435,65.936475],[-22.492302,65.932922],[-22.498943,65.927892],[-22.506919,65.925319],[-22.514404,65.924641],[-22.521866,65.925169],[-22.526247,65.926616],[-22.527233,65.928654],[-22.528642,65.929584],[-22.535137,65.930676],[-22.538214,65.930271],[-22.546203,65.926779],[-22.556554,65.923533],[-22.565148,65.923467],[-22.572353,65.925335],[-22.585541,65.934353],[-22.587306,65.937442],[-22.586485,65.939665],[-22.583033,65.942544],[-22.579176,65.947685],[-22.580561,65.950343],[-22.585865,65.952362],[-22.586773,65.954111],[-22.584728,65.957633],[-22.579543,65.962139],[-22.575981,65.966503],[-22.574495,65.973022],[-22.576325,65.974218],[-22.579695,65.974739],[-22.587033,65.972857],[-22.591285,65.972755],[-22.594053,65.973603],[-22.596863,65.97566],[-22.59809,65.977208],[-22.599414,65.982651],[-22.611819,65.991154],[-22.612475,65.992483],[-22.612239,66.001196],[-22.618406,66.005073],[-22.62191,66.010551],[-22.627735,66.011643],[-22.635016,66.009402],[-22.64025,66.009285],[-22.64704,66.010902],[-22.662671,66.016712],[-22.669105,66.021476],[-22.67186,66.028598],[-22.679076,66.032172],[-22.680953,66.037088],[-22.683607,66.04057],[-22.685813,66.041823],[-22.695358,66.044679],[-22.710495,66.045934],[-22.714995,66.04479],[-22.716036,66.04373],[-22.716476,66.041391],[-22.718597,66.04016],[-22.729786,66.040271],[-22.736244,66.043194],[-22.743988,66.049108],[-22.74904,66.051695],[-22.757906,66.054143],[-22.761779,66.054454],[-22.764683,66.053524],[-22.770678,66.045757],[-22.77491,66.030927],[-22.78073,66.0238],[-22.780152,66.020687],[-22.781718,66.013191],[-22.782647,66.009295],[-22.785067,66.004282],[-22.784666,66.002124],[-22.77921,65.995752],[-22.778336,65.991715],[-22.775063,65.985126],[-22.775892,65.981355],[-22.782705,65.97302],[-22.786762,65.96471],[-22.781185,65.955667],[-22.780322,65.953055],[-22.780816,65.949917],[-22.790325,65.937735],[-22.794872,65.930543],[-22.807753,65.91922],[-22.8219,65.909853],[-22.827605,65.903592],[-22.831561,65.896509],[-22.834863,65.892932],[-22.83829,65.891016],[-22.842073,65.89043],[-22.854422,65.89311],[-22.856096,65.894373],[-22.85591,65.897253],[-22.857745,65.900823],[-22.856478,65.905717],[-22.851913,65.915452],[-22.833215,65.92871],[-22.830105,65.933128],[-22.829203,65.937017],[-22.826908,65.940202],[-22.82353,65.942862],[-22.822606,65.945549],[-22.823205,65.953498],[-22.820825,65.96154],[-22.821512,65.967],[-22.821085,65.972103],[-22.817155,65.98391],[-22.814133,65.986988],[-22.813942,65.988245],[-22.814647,65.992175],[-22.815841,65.993557],[-22.829536,65.998648],[-22.834256,65.998206],[-22.852672,65.988232],[-22.865091,65.97129],[-22.866877,65.965483],[-22.87685,65.958158],[-22.896677,65.948711],[-22.906403,65.946121],[-22.927611,65.938689],[-22.932439,65.935321],[-22.937178,65.930563],[-22.940936,65.928272],[-22.96024,65.920792],[-22.974477,65.909567],[-22.980423,65.907211],[-22.984734,65.907166],[-22.988065,65.908337],[-22.988668,65.90968],[-22.98247,65.917924],[-22.976,65.923494],[-22.969397,65.927054],[-22.955948,65.932336],[-22.94895,65.940402],[-22.942317,65.944512],[-22.931012,65.949039],[-22.916318,65.953588],[-22.910688,65.956357],[-22.908457,65.95814],[-22.90542,65.963802],[-22.905844,65.965496],[-22.908602,65.966826],[-22.919872,65.967117],[-22.924802,65.968544],[-22.931709,65.97649],[-22.938069,65.980425],[-22.942593,65.985835],[-22.943948,65.990962],[-22.943323,65.994354],[-22.928453,66.015638],[-22.932447,66.025853],[-22.937704,66.032984],[-22.941294,66.036293],[-22.942214,66.039492],[-22.943817,66.03945],[-22.946191,66.03688],[-22.954103,66.027468],[-22.962109,66.015582],[-22.969371,66.009282],[-22.98788,66.001375],[-23.020083,65.985795],[-23.031124,65.974779],[-23.036036,65.973166],[-23.046495,65.97192],[-23.054381,65.968227],[-23.067327,65.964417],[-23.075327,65.962767],[-23.080233,65.962895],[-23.083894,65.965149],[-23.08415,65.966752],[-23.083124,65.968448],[-23.063274,65.981376],[-23.051776,65.990505],[-23.043536,65.995189],[-23.035425,66.002377],[-23.029819,66.005311],[-23.001302,66.015829],[-22.995769,66.019429],[-22.992131,66.024735],[-22.990679,66.023858],[-22.990816,66.023043],[-22.990002,66.023479],[-22.98842,66.027941],[-22.98927,66.034395],[-22.984718,66.041545],[-22.986274,66.044376],[-22.985703,66.04628],[-22.98776,66.054052],[-22.986672,66.059827],[-22.9878,66.071806],[-22.99168,66.079327],[-23.002696,66.086991],[-23.010884,66.090896],[-23.028728,66.095584],[-23.034458,66.098558],[-23.039998,66.099603],[-23.051126,66.096281],[-23.0656,66.086817],[-23.10498,66.066737],[-23.116857,66.061693],[-23.131376,66.057508],[-23.141135,66.053633],[-23.150002,66.052697],[-23.161862,66.054176],[-23.173116,66.060515],[-23.174266,66.062117],[-23.173845,66.063291],[-23.170514,66.064987],[-23.141791,66.070557],[-23.124985,66.075044]]},"properties":{"name":"J3 Drangsnes -> Isafjordur","day":"J3"}},{"type":"Feature","geometry":{"type":"LineString","coordinates":[[-23.124985,66.075044],[-23.12829,66.075958],[-23.125518,66.078157],[-23.121593,66.083845],[-23.113431,66.092282],[-23.11271,66.094875],[-23.109053,66.1006],[-23.110851,66.107077],[-23.120559,66.111441],[-23.121285,66.112495],[-23.120933,66.116012],[-23.123404,66.118791],[-23.128434,66.120774],[-23.218366,66.142318],[-23.234819,66.145253],[-23.241931,66.148165],[-23.249723,66.1533],[-23.241931,66.148165],[-23.234819,66.145253],[-23.218366,66.142318],[-23.128434,66.120774],[-23.123404,66.118791],[-23.120933,66.116012],[-23.121285,66.112495],[-23.120559,66.111441],[-23.110851,66.107077],[-23.109053,66.1006],[-23.11271,66.094875],[-23.113431,66.092282],[-23.121593,66.083845],[-23.12538,66.078645],[-23.125059,66.077578],[-23.122487,66.07648],[-23.124985,66.075044]]},"properties":{"name":"J4 Isafjordur -> Bolungarvik AR","day":"J4"}},{"type":"Feature","geometry":{"type":"LineString","coordinates":[[-23.124985,66.075044],[-23.141791,66.070557],[-23.171109,66.064815],[-23.173591,66.063556],[-23.174266,66.062117],[-23.171242,66.059366],[-23.180703,66.057391],[-23.202198,66.057924],[-23.222535,66.055557],[-23.238229,66.056612],[-23.277811,66.054132],[-23.338879,66.031081],[-23.347305,66.027083],[-23.364691,66.02257],[-23.407435,66.015152],[-23.416502,66.012413],[-23.420694,66.009594],[-23.421471,66.00672],[-23.417307,65.997148],[-23.417634,65.992243],[-23.420057,65.988699],[-23.430684,65.979969],[-23.434032,65.974491],[-23.437534,65.971927],[-23.438385,65.969883],[-23.436493,65.966849],[-23.429743,65.96019],[-23.428838,65.958138],[-23.430563,65.952668],[-23.435248,65.943637],[-23.435185,65.94042],[-23.439322,65.936133],[-23.442372,65.92988],[-23.442008,65.926987],[-23.437971,65.920867],[-23.437862,65.9196],[-23.443475,65.915644],[-23.454542,65.911276],[-23.460193,65.903988],[-23.466521,65.901037],[-23.469758,65.898444],[-23.470649,65.897264],[-23.470511,65.895752],[-23.468159,65.894486],[-23.452438,65.891202],[-23.446841,65.888942],[-23.444406,65.887149],[-23.442814,65.883277],[-23.43746,65.877112],[-23.433129,65.875027],[-23.421457,65.872378],[-23.4,65.869152],[-23.348032,65.868958],[-23.329672,65.86742],[-23.313973,65.860737],[-23.314012,65.858478],[-23.318523,65.854557],[-23.322385,65.85308],[-23.327737,65.852316],[-23.34347,65.85308],[-23.357108,65.851567],[-23.386156,65.851308],[-23.394558,65.852068],[-23.412691,65.856443],[-23.436718,65.856629],[-23.447177,65.85753],[-23.46577,65.862853],[-23.475537,65.867393],[-23.480796,65.871809],[-23.48207,65.871612],[-23.486249,65.873501],[-23.487535,65.873131],[-23.49195,65.875552],[-23.489572,65.875462],[-23.482243,65.871668],[-23.480796,65.871809],[-23.476008,65.86768],[-23.468317,65.863883],[-23.448696,65.857726],[-23.436718,65.856629],[-23.412691,65.856443],[-23.394558,65.852068],[-23.388791,65.851391],[-23.357108,65.851567],[-23.34347,65.85308],[-23.325954,65.852472],[-23.324477,65.851391],[-23.316537,65.849082],[-23.300823,65.847206],[-23.270614,65.840385],[-23.248336,65.837457],[-23.242018,65.835825],[-23.232265,65.834623],[-23.228551,65.833308],[-23.226033,65.831048],[-23.222871,65.820248],[-23.21469,65.805289],[-23.208977,65.789385],[-23.204607,65.787053],[-23.193023,65.785143],[-23.175429,65.779302],[-23.171551,65.777282],[-23.169897,65.774865],[-23.171198,65.772272],[-23.175781,65.770062],[-23.217191,65.763288],[-23.224808,65.760894],[-23.236222,65.75556],[-23.236108,65.754524],[-23.227106,65.750572],[-23.217696,65.74961],[-23.209873,65.747607],[-23.209077,65.74347],[-23.206298,65.741582],[-23.209455,65.738671],[-23.207944,65.737099],[-23.211137,65.736947],[-23.212772,65.735195]]},"properties":{"name":"J5 Isafjordur -> Dynjandi","day":"J5"}},{"type":"Feature","geometry":{"type":"LineString","coordinates":[[-23.212772,65.735195],[-23.211137,65.736947],[-23.207944,65.737099],[-23.209455,65.738671],[-23.206298,65.741582],[-23.207997,65.742914],[-23.203928,65.743675],[-23.199173,65.743147],[-23.19784,65.745551],[-23.192439,65.749028],[-23.190396,65.751481],[-23.188046,65.752075],[-23.183343,65.751759],[-23.177523,65.753124],[-23.172082,65.752727],[-23.164962,65.750795],[-23.161288,65.748885],[-23.159465,65.746805],[-23.142543,65.743973],[-23.158609,65.743423],[-23.165638,65.741663],[-23.166326,65.740623],[-23.165773,65.737539],[-23.166546,65.735554],[-23.163612,65.732538],[-23.163219,65.730803],[-23.165519,65.726946],[-23.176986,65.719667],[-23.185243,65.717857],[-23.189088,65.715936],[-23.189766,65.714634],[-23.189372,65.711896],[-23.191405,65.709048],[-23.192157,65.705438],[-23.199132,65.700676],[-23.200734,65.698353],[-23.199921,65.694909],[-23.193668,65.69081],[-23.192358,65.688637],[-23.193094,65.686722],[-23.197074,65.683925],[-23.200391,65.679181],[-23.209795,65.673565],[-23.213921,65.672044],[-23.219379,65.671465],[-23.227538,65.671918],[-23.238801,65.67022],[-23.240439,65.668732],[-23.239867,65.666201],[-23.24068,65.663581],[-23.244908,65.659429],[-23.243291,65.657637],[-23.238655,65.655993],[-23.23776,65.654659],[-23.238261,65.653587],[-23.242918,65.651834],[-23.253844,65.652462],[-23.260397,65.650621],[-23.260694,65.646629],[-23.259888,65.644856],[-23.255958,65.642156],[-23.245606,65.638925],[-23.24441,65.637208],[-23.244802,65.63409],[-23.241543,65.6305],[-23.246354,65.630454],[-23.253692,65.63225],[-23.258717,65.632164],[-23.263636,65.630909],[-23.265242,65.631308],[-23.266259,65.632613],[-23.28195,65.632525],[-23.301696,65.629798],[-23.311406,65.627039],[-23.323815,65.626993],[-23.32597,65.626307],[-23.327852,65.624445],[-23.334545,65.62346],[-23.34923,65.623249],[-23.356963,65.624643],[-23.363371,65.622811],[-23.370709,65.623187],[-23.374754,65.621146],[-23.376428,65.615111],[-23.380044,65.61147],[-23.38236,65.612135],[-23.3828,65.614864],[-23.385327,65.615286],[-23.389462,65.614026],[-23.394517,65.609886],[-23.400718,65.60962],[-23.401827,65.610856],[-23.403116,65.616041],[-23.407955,65.619384],[-23.42092,65.62314],[-23.437217,65.63193],[-23.462272,65.641901],[-23.470898,65.643464],[-23.471689,65.643215],[-23.472118,65.641488],[-23.467322,65.635835],[-23.465941,65.631094],[-23.466507,65.628757],[-23.465955,65.625574],[-23.46776,65.623911],[-23.472215,65.622366],[-23.474264,65.622474],[-23.47931,65.625788],[-23.488038,65.629849],[-23.499812,65.631733],[-23.51362,65.624057],[-23.524485,65.613958],[-23.526958,65.608064],[-23.5353,65.602798],[-23.540251,65.602111],[-23.543219,65.603739],[-23.563683,65.606727],[-23.56528,65.607527],[-23.566247,65.609258],[-23.562434,65.614452],[-23.564075,65.618369],[-23.566662,65.620037],[-23.568463,65.622353],[-23.56757,65.625083],[-23.568528,65.627518],[-23.565663,65.63057],[-23.548798,65.640605],[-23.54507,65.644762],[-23.544003,65.646785],[-23.544159,65.648498],[-23.552874,65.659294],[-23.560105,65.662051],[-23.564708,65.666166],[-23.565714,65.670153],[-23.568927,65.673545],[-23.572271,65.679929],[-23.573723,65.680855],[-23.577279,65.681498],[-23.582403,65.681117],[-23.591801,65.678512],[-23.602237,65.674024],[-23.607748,65.674577],[-23.6129,65.677093],[-23.607661,65.68285],[-23.598145,65.686599],[-23.596992,65.690274],[-23.598781,65.687712],[-23.601282,65.686184],[-23.601183,65.685524],[-23.607855,65.682722],[-23.612588,65.677382],[-23.614833,65.675935],[-23.633588,65.667123],[-23.639941,65.665288],[-23.640382,65.664165],[-23.638282,65.662088],[-23.639208,65.661193],[-23.661372,65.658236],[-23.669227,65.656046],[-23.675012,65.65653],[-23.674901,65.6558],[-23.671588,65.654393],[-23.666105,65.650118],[-23.660388,65.64888],[-23.66009,65.648149],[-23.661702,65.647007],[-23.668344,65.645941],[-23.677713,65.646488],[-23.686173,65.645567],[-23.696302,65.646307],[-23.709418,65.645194],[-23.728246,65.636286],[-23.732276,65.63289],[-23.741937,65.629285],[-23.744695,65.626101],[-23.750229,65.623227],[-23.75425,65.622071],[-23.762259,65.621514],[-23.77357,65.618637],[-23.773687,65.61801],[-23.772309,65.617698],[-23.766361,65.618086],[-23.765544,65.617063],[-23.769861,65.614344],[-23.778581,65.61252],[-23.783219,65.60938],[-23.774478,65.604472],[-23.77536,65.601619],[-23.77422,65.599242],[-23.775112,65.596642],[-23.773035,65.592266],[-23.776108,65.59065],[-23.779074,65.590681],[-23.788203,65.592904],[-23.79982,65.59825],[-23.80815,65.60314],[-23.82295,65.60675],[-23.82454,65.60919],[-23.82501,65.61271],[-23.82608,65.61353],[-23.8363,65.6146],[-23.843583,65.616886],[-23.855058,65.617159],[-23.864025,65.618488],[-23.870725,65.622334],[-23.880343,65.622289],[-23.890059,65.624582],[-23.895651,65.624328],[-23.896296,65.625308],[-23.930613,65.63664],[-23.931965,65.637782],[-23.930807,65.640171],[-23.937051,65.641127],[-23.930807,65.640171],[-23.931965,65.637782],[-23.930613,65.63664],[-23.896296,65.625308],[-23.895651,65.624328],[-23.890059,65.624582],[-23.880343,65.622289],[-23.870725,65.622334],[-23.864025,65.618488],[-23.855058,65.617159],[-23.843583,65.616886],[-23.8363,65.6146],[-23.82608,65.61353],[-23.82501,65.61271],[-23.82454,65.60919],[-23.82295,65.60675],[-23.80815,65.60314],[-23.79982,65.59825],[-23.78819,65.59293],[-23.804153,65.597597],[-23.81917,65.593156],[-23.827625,65.594042],[-23.831839,65.590632],[-23.860102,65.579336],[-23.866833,65.57551],[-23.877957,65.572457],[-23.887713,65.571248],[-23.940208,65.581699],[-23.961233,65.588861],[-23.967678,65.589886],[-23.97537,65.589939],[-23.982123,65.594359],[-23.994728,65.59724],[-23.992298,65.597333],[-23.98286,65.594623],[-23.979631,65.59321],[-23.975479,65.589974],[-23.971811,65.589937],[-23.968054,65.585043],[-23.965304,65.583327],[-23.949158,65.578863],[-23.937638,65.572351],[-23.924453,65.56732],[-23.893958,65.553572],[-23.890857,65.551926],[-23.888069,65.549119],[-23.887434,65.546997],[-23.882856,65.544017],[-23.873337,65.54285],[-23.86813,65.540818],[-23.861267,65.54022],[-23.854665,65.537991],[-23.837155,65.538745],[-23.804702,65.538195],[-23.795913,65.538901],[-23.788035,65.536879],[-23.786225,65.535259],[-23.785352,65.531989],[-23.782911,65.530758],[-23.803806,65.529738],[-23.821811,65.525697],[-23.833464,65.520911],[-23.835615,65.514932],[-23.838341,65.513688],[-23.865423,65.514942],[-23.896688,65.520289],[-23.918124,65.527235],[-23.922658,65.53462],[-23.925397,65.536579],[-23.93579,65.540488],[-23.951731,65.55022],[-23.964277,65.55345],[-23.972431,65.553152],[-23.995154,65.559484],[-24.01119,65.55904],[-24.024502,65.561407],[-24.033787,65.56148],[-24.041874,65.56559],[-24.059683,65.570386],[-24.068935,65.576348],[-24.083572,65.575926],[-24.086034,65.578661],[-24.085157,65.580425],[-24.085813,65.581323],[-24.090738,65.582493],[-24.099702,65.580297],[-24.108793,65.575561],[-24.116154,65.572883],[-24.148573,65.56532],[-24.155454,65.562457],[-24.160195,65.563298],[-24.173147,65.559001],[-24.176428,65.559615],[-24.179117,65.562782],[-24.194765,65.556781],[-24.207239,65.550094],[-24.216796,65.551279],[-24.226876,65.55361],[-24.23036,65.555571],[-24.236205,65.557319],[-24.246713,65.558298],[-24.258323,65.555884],[-24.26278,65.552445],[-24.271163,65.550822],[-24.27533,65.549028],[-24.277386,65.546991],[-24.28292,65.544897],[-24.31002,65.542869],[-24.316083,65.54436],[-24.323867,65.544202],[-24.327925,65.545807],[-24.335982,65.546567],[-24.353107,65.542178],[-24.356277,65.540068],[-24.356581,65.537701],[-24.366873,65.536993],[-24.372755,65.534378],[-24.376786,65.533505],[-24.383453,65.532614],[-24.387586,65.533875],[-24.391438,65.533899],[-24.414851,65.530957],[-24.429829,65.531051],[-24.431073,65.529896],[-24.424749,65.5268],[-24.421652,65.524251],[-24.434286,65.527316],[-24.453633,65.529948],[-24.457007,65.528348],[-24.459328,65.528193],[-24.466168,65.521661],[-24.471429,65.518884],[-24.48234,65.517942],[-24.485664,65.517013],[-24.491181,65.51351],[-24.508246,65.511276],[-24.514176,65.507272],[-24.529829,65.502391]]},"properties":{"name":"J6 Dynjandi -> Latrabjarg","day":"J6"}},{"type":"Feature","geometry":{"type":"LineString","coordinates":[[-24.529829,65.502391],[-24.514176,65.507272],[-24.508246,65.511276],[-24.491181,65.51351],[-24.485664,65.517013],[-24.48234,65.517942],[-24.471429,65.518884],[-24.466168,65.521661],[-24.459328,65.528193],[-24.457007,65.528348],[-24.453633,65.529948],[-24.434286,65.527316],[-24.421652,65.524251],[-24.424749,65.5268],[-24.431073,65.529896],[-24.429829,65.531051],[-24.414851,65.530957],[-24.391438,65.533899],[-24.387586,65.533875],[-24.383453,65.532614],[-24.376786,65.533505],[-24.372755,65.534378],[-24.366873,65.536993],[-24.356581,65.537701],[-24.356277,65.540068],[-24.353107,65.542178],[-24.335982,65.546567],[-24.327925,65.545807],[-24.323867,65.544202],[-24.316083,65.54436],[-24.31002,65.542869],[-24.28292,65.544897],[-24.277386,65.546991],[-24.27533,65.549028],[-24.271163,65.550822],[-24.26278,65.552445],[-24.258323,65.555884],[-24.246713,65.558298],[-24.236205,65.557319],[-24.23036,65.555571],[-24.226876,65.55361],[-24.216796,65.551279],[-24.207239,65.550094],[-24.194765,65.556781],[-24.179117,65.562782],[-24.176428,65.559615],[-24.173147,65.559001],[-24.160195,65.563298],[-24.155454,65.562457],[-24.148573,65.56532],[-24.116154,65.572883],[-24.108793,65.575561],[-24.099702,65.580297],[-24.090377,65.582493],[-24.085813,65.581323],[-24.085157,65.580425],[-24.086034,65.578661],[-24.083572,65.575926],[-24.068935,65.576348],[-24.059683,65.570386],[-24.041874,65.56559],[-24.033787,65.56148],[-24.024502,65.561407],[-24.01119,65.55904],[-23.995154,65.559484],[-23.971917,65.553044],[-23.964915,65.553532],[-23.956544,65.551595],[-23.9511,65.549964],[-23.948794,65.547889],[-23.943588,65.545582],[-23.93579,65.540488],[-23.926637,65.537206],[-23.923007,65.53494],[-23.918304,65.527339],[-23.923599,65.527302],[-23.92676,65.52173],[-23.93346,65.5171],[-23.950313,65.515061],[-23.94897,65.51275],[-23.945389,65.512176],[-23.94449,65.51118],[-23.94449,65.5062],[-23.95084,65.50096],[-23.94715,65.49951],[-23.95346,65.49732],[-23.95766,65.4944],[-23.96625,65.49156],[-23.96693,65.48856],[-23.965832,65.484842],[-23.962157,65.482778],[-23.961492,65.482945],[-23.96183,65.48384],[-23.963198,65.485012],[-23.96084,65.48406],[-23.958486,65.480121],[-23.95702,65.48204],[-23.955,65.47788],[-23.95689,65.47689],[-23.97011,65.47569],[-23.96985,65.47504],[-23.966694,65.474493],[-23.960669,65.474746],[-23.96049,65.474186],[-23.96304,65.473097],[-23.984687,65.474434],[-24.002695,65.478538],[-24.061727,65.485907],[-24.062419,65.485092],[-24.061727,65.485907],[-24.002695,65.478538],[-23.984687,65.474434],[-23.96304,65.473097],[-23.96049,65.474186],[-23.960669,65.474746],[-23.966694,65.474493],[-23.96985,65.47504],[-23.97011,65.47569],[-23.95689,65.47689],[-23.955,65.47788],[-23.95702,65.48204],[-23.958486,65.480121],[-23.96084,65.48406],[-23.963198,65.485012],[-23.96183,65.48384],[-23.961492,65.482945],[-23.962157,65.482778],[-23.965832,65.484842],[-23.96689,65.48805],[-23.96672,65.49032],[-23.9656,65.49208],[-23.95766,65.4944],[-23.95346,65.49732],[-23.94715,65.49951],[-23.95084,65.50096],[-23.94449,65.5062],[-23.94449,65.51118],[-23.945389,65.512176],[-23.94897,65.51275],[-23.950313,65.515061],[-23.93346,65.5171],[-23.92676,65.52173],[-23.923352,65.527391],[-23.918304,65.527339],[-23.896688,65.520289],[-23.88463,65.517768],[-23.865423,65.514942],[-23.840029,65.513563],[-23.835784,65.514709],[-23.833464,65.520911],[-23.821811,65.525697],[-23.803806,65.529738],[-23.782689,65.530938],[-23.785352,65.531989],[-23.786009,65.534864],[-23.787397,65.536443],[-23.793963,65.538713],[-23.822222,65.538001],[-23.837155,65.538745],[-23.854177,65.537956],[-23.861267,65.54022],[-23.86813,65.540818],[-23.873337,65.54285],[-23.882856,65.544017],[-23.887434,65.546997],[-23.888069,65.549119],[-23.890857,65.551926],[-23.893958,65.553572],[-23.924453,65.56732],[-23.937638,65.572351],[-23.949158,65.578863],[-23.965304,65.583327],[-23.968054,65.585043],[-23.971811,65.589937],[-23.975479,65.589974],[-23.980795,65.593813],[-23.994713,65.597145],[-23.993288,65.597369],[-23.980795,65.593813],[-23.975479,65.589974],[-23.971811,65.589937],[-23.968054,65.585043],[-23.965304,65.583327],[-23.949158,65.578863],[-23.937638,65.572351],[-23.924453,65.56732],[-23.893958,65.553572],[-23.890688,65.551767],[-23.885593,65.545434],[-23.882191,65.543849],[-23.873337,65.54285],[-23.86813,65.540818],[-23.861267,65.54022],[-23.854177,65.537956],[-23.837155,65.538745],[-23.822222,65.538001],[-23.793963,65.538713],[-23.788035,65.536879],[-23.786225,65.535259],[-23.785352,65.531989],[-23.780467,65.530648],[-23.77592,65.530693],[-23.74755,65.535136],[-23.74091,65.535171],[-23.740444,65.534807],[-23.741099,65.534359],[-23.75119,65.533184],[-23.759355,65.531092],[-23.761852,65.529504],[-23.763268,65.527018],[-23.761705,65.527047],[-23.760493,65.528757],[-23.757401,65.52947],[-23.750622,65.529921],[-23.745658,65.52938],[-23.738671,65.526653],[-23.734671,65.521864],[-23.72821,65.518678],[-23.713652,65.514852],[-23.692023,65.512131],[-23.690358,65.510944],[-23.687463,65.506601],[-23.683882,65.504473],[-23.662696,65.499755],[-23.650663,65.495569],[-23.644823,65.488068],[-23.646867,65.48472],[-23.643141,65.482681],[-23.639402,65.476716],[-23.60422,65.470439],[-23.579238,65.471067],[-23.563044,65.474014],[-23.518212,65.478111],[-23.47195,65.485471],[-23.459373,65.491221],[-23.453204,65.498405],[-23.443984,65.505479],[-23.44037,65.510226],[-23.437675,65.512441],[-23.427699,65.515145],[-23.419166,65.519753],[-23.415181,65.520641],[-23.396466,65.520695],[-23.392605,65.520102],[-23.374537,65.513539],[-23.367293,65.511979],[-23.360208,65.508746],[-23.358982,65.50782],[-23.35739,65.50411],[-23.355228,65.502261],[-23.350037,65.499811],[-23.319489,65.492418],[-23.309271,65.491091],[-23.276759,65.489364],[-23.248611,65.485074],[-23.239772,65.485546],[-23.217671,65.490138],[-23.206817,65.494424],[-23.197933,65.498969],[-23.195991,65.501071],[-23.195278,65.505255],[-23.192932,65.510868],[-23.184488,65.516252],[-23.184689,65.518578],[-23.18875,65.522992],[-23.197058,65.527713],[-23.199766,65.533677],[-23.207052,65.53397]]},"properties":{"name":"J7 Latrabjarg -> Brjanslaekur (ferry)","day":"J7"}}]}